{"type":"FeatureCollection","features":[{"type":"Feature","properties":{"date":"2022-06-12","source_file":"1.gpx","dist_m":211240,"vert_up_m":1576,"vert_down_m":1578,"points":492},"geometry":{"type":"LineString","coordinates":[[-71.091141,42.372356,21.0],[-71.095219,42.373041,20.8],[-71.099309,42.373578,20.8],[-71.102276,42.375025,23.2],[-71.102216,42.374952,23.2],[-71.105929,42.37795,23.2],[-71.110429,42.381665,22.6],[-71.114819,42.385257,24.0],[-71.118403,42.388235,26.6],[-71.122446,42.391113,25.2],[-71.126996,42.394615,25.6],[-71.131842,42.398867,21.8],[-71.135816,42.401,21.6],[-71.139702,42.403829,24.8],[-71.143896,42.40715,28.0],[-71.147094,42.409658,28.0],[-71.150286,42.41393,28.4],[-71.152829,42.41551,31.8],[-71.155887,42.417984,34.2],[-71.160519,42.419801,38.4],[-71.16598,42.421383,43.2],[-71.170665,42.423399,47.8],[-71.175349,42.425855,53.6],[-71.181056,42.425575,59.2],[-71.18725,42.425494,65.0],[-71.193268,42.426065,66.6],[-71.19835,42.427602,70.8],[-71.203969,42.429847,71.8],[-71.207636,42.433971,76.4],[-71.211341,42.438589,75.6],[-71.215004,42.442853,75.4],[-71.219472,42.446143,80.2],[-71.223633,42.447319,83.4],[-71.228456,42.449042,86.4],[-71.230783,42.452821,85.8],[-71.231743,42.458455,83.4],[-71.230716,42.461595,86.8],[-71.23217,42.466001,86.8],[-71.235234,42.471373,75.8],[-71.239565,42.476571,68.4],[-71.239849,42.480906,71.0],[-71.23962,42.483075,87.2],[-71.23982,42.485011,99.4],[-71.241229,42.486977,106.8],[-71.247581,42.489861,90.4],[-71.25649,42.492958,53.8],[-71.257467,42.497076,58.8],[-71.256495,42.501432,61.6],[-71.257299,42.505553,68.0],[-71.257388,42.508482,77.0],[-71.2585,42.512015,79.4],[-71.259247,42.517076,73.8],[-71.258441,42.522437,71.0],[-71.257164,42.527228,75.2],[-71.256732,42.530499,78.6],[-71.258212,42.533753,84.4],[-71.258652,42.537407,89.8],[-71.260908,42.540187,81.4],[-71.261093,42.543342,88.2],[-71.259842,42.547335,86.6],[-71.263163,42.550894,87.0],[-71.264213,42.553373,98.8],[-71.267289,42.556817,94.2],[-71.269817,42.561771,89.6],[-71.274716,42.568219,62.8],[-71.276974,42.572389,56.2],[-71.282213,42.575475,56.8],[-71.287021,42.58,55.4],[-71.290052,42.582972,62.6],[-71.29441,42.586601,58.6],[-71.296818,42.59195,53.4],[-71.298557,42.597198,53.2],[-71.298012,42.602061,54.0],[-71.300329,42.604858,68.2],[-71.303515,42.607218,71.2],[-71.306451,42.612238,62.4],[-71.309229,42.617828,57.4],[-71.313089,42.622569,57.2],[-71.314647,42.626723,58.2],[-71.318647,42.629326,50.2],[-71.319611,42.632,55.0],[-71.323847,42.63277,63.4],[-71.325092,42.635384,65.0],[-71.325094,42.640808,55.0],[-71.326192,42.644448,60.6],[-71.327438,42.647143,67.2],[-71.328675,42.648303,56.8],[-71.331315,42.650174,51.4],[-71.33548,42.652498,51.6],[-71.338932,42.654927,58.4],[-71.341906,42.658029,61.6],[-71.344632,42.661375,68.8],[-71.346329,42.663718,79.6],[-71.349521,42.667879,73.4],[-71.351525,42.673578,51.6],[-71.35268,42.678866,54.4],[-71.354309,42.682372,60.6],[-71.35533,42.682454,61.0],[-71.360784,42.680007,57.8],[-71.36514,42.679554,66.8],[-71.369214,42.682256,70.0],[-71.372559,42.685256,76.4],[-71.376146,42.688475,77.0],[-71.379895,42.690216,90.6],[-71.382088,42.691469,100.2],[-71.38422,42.69253,108.6],[-71.386322,42.695143,114.0],[-71.388096,42.698946,114.6],[-71.394018,42.704081,90.2],[-71.401312,42.707938,71.4],[-71.408502,42.712216,61.4],[-71.412667,42.714945,69.0],[-71.416805,42.717678,69.8],[-71.420073,42.721564,68.4],[-71.423575,42.725247,65.4],[-71.424907,42.726342,66.0],[-71.424449,42.725763,65.0],[-71.424828,42.72919,69.6],[-71.425194,42.731538,73.8],[-71.426219,42.73158,70.4],[-71.431322,42.730074,59.2],[-71.431939,42.726843,60.0],[-71.434888,42.72542,62.6],[-71.43962,42.724279,61.4],[-71.441705,42.727531,57.4],[-71.44442,42.730516,60.2],[-71.447882,42.734116,63.2],[-71.451822,42.737114,70.4],[-71.455276,42.739812,78.4],[-71.457207,42.74198,85.6],[-71.458845,42.744448,75.0],[-71.460755,42.750955,58.4],[-71.463084,42.756182,62.4],[-71.465126,42.760753,63.0],[-71.467417,42.765384,64.2],[-71.466646,42.768962,74.8],[-71.465788,42.773502,74.2],[-71.465341,42.778421,75.4],[-71.466918,42.783589,75.6],[-71.468805,42.788815,73.0],[-71.471268,42.795017,66.0],[-71.47281,42.79867,77.0],[-71.477183,42.803456,68.4],[-71.482421,42.807761,72.2],[-71.484925,42.811884,78.0],[-71.485605,42.817066,78.4],[-71.488916,42.823491,67.8],[-71.491042,42.828996,66.8],[-71.490889,42.834635,68.2],[-71.490811,42.840313,65.2],[-71.493213,42.84666,61.6],[-71.492261,42.850665,67.6],[-71.491438,42.855358,66.2],[-71.492568,42.860504,59.0],[-71.493401,42.86543,67.8],[-71.493353,42.868701,76.6],[-71.495092,42.873243,75.4],[-71.496439,42.877078,79.4],[-71.500368,42.88103,78.8],[-71.503864,42.885149,79.6],[-71.505165,42.888817,84.6],[-71.508363,42.893079,84.8],[-71.511079,42.897543,82.2],[-71.514165,42.902574,77.4],[-71.516397,42.905564,83.6],[-71.516211,42.909971,84.4],[-71.516469,42.914041,89.2],[-71.518225,42.9187,87.6],[-71.519771,42.922642,93.6],[-71.521381,42.926314,98.4],[-71.522445,42.930243,105.8],[-71.525713,42.934502,97.0],[-71.52688,42.93977,99.4],[-71.527725,42.943554,105.0],[-71.527932,42.945007,120.6],[-71.528565,42.946517,131.2],[-71.529496,42.948448,139.2],[-71.530764,42.950651,148.8],[-71.532032,42.953179,152.4],[-71.534645,42.956437,157.6],[-71.54067,42.961998,137.6],[-71.542918,42.964102,150.6],[-71.544182,42.965548,158.8],[-71.545764,42.966961,169.6],[-71.547359,42.968208,180.2],[-71.548796,42.970702,181.6],[-71.551417,42.973233,190.6],[-71.552795,42.976822,194.8],[-71.553706,42.982789,180.2],[-71.555252,42.986173,187.8],[-71.556664,42.989499,192.8],[-71.55836,42.991174,204.0],[-71.560153,42.992621,215.0],[-71.566189,42.995552,193.8],[-71.573812,43.000277,173.6],[-71.580313,43.006304,150.8],[-71.585698,43.013636,116.0],[-71.591428,43.015228,115.2],[-71.597638,43.015829,116.8],[-71.599581,43.018913,112.6],[-71.599908,43.018374,111.6],[-71.600106,43.018452,102.4],[-71.599909,43.018606,102.8],[-71.602366,43.021315,105.4],[-71.607653,43.022544,108.6],[-71.613524,43.024023,109.0],[-71.619523,43.02492,111.0],[-71.62663,43.025109,106.4],[-71.633645,43.023542,103.8],[-71.640023,43.023892,105.4],[-71.644518,43.027027,108.4],[-71.648829,43.030239,111.6],[-71.652569,43.033922,114.2],[-71.654012,43.036781,125.0],[-71.65667,43.039354,130.6],[-71.661634,43.039027,133.0],[-71.667238,43.039066,134.4],[-71.670476,43.041363,139.8],[-71.678981,43.043203,126.2],[-71.683472,43.045898,129.2],[-71.687811,43.048989,131.6],[-71.692552,43.050502,140.2],[-71.695156,43.050692,152.4],[-71.697522,43.051245,164.8],[-71.69945,43.051677,178.2],[-71.701966,43.051825,186.2],[-71.704524,43.052368,198.2],[-71.708359,43.0529,202.2],[-71.71366,43.055651,200.6],[-71.714973,43.057982,213.2],[-71.7153,43.060361,223.2],[-71.716435,43.06272,231.4],[-71.718387,43.064981,239.8],[-71.720029,43.067312,252.2],[-71.720685,43.069864,266.0],[-71.721013,43.072781,273.6],[-71.723067,43.079291,255.8],[-71.727874,43.087614,213.6],[-71.7301,43.094845,211.0],[-71.734656,43.099855,208.2],[-71.741367,43.104491,203.8],[-71.747939,43.108358,198.0],[-71.754037,43.111999,196.0],[-71.756771,43.115108,204.6],[-71.758524,43.118074,214.6],[-71.75986,43.12212,214.0],[-71.760887,43.124883,229.0],[-71.761017,43.129503,225.4],[-71.762852,43.136357,210.4],[-71.766127,43.143573,186.8],[-71.769547,43.151224,155.0],[-71.772729,43.155614,160.4],[-71.774635,43.159624,165.2],[-71.778635,43.162911,164.6],[-71.78476,43.1658,163.4],[-71.791828,43.168804,158.0],[-71.797958,43.172477,155.6],[-71.80497,43.17432,152.2],[-71.810705,43.172758,153.6],[-71.816598,43.172784,157.6],[-71.821304,43.175114,159.2],[-71.822268,43.179662,155.2],[-71.823947,43.182406,168.8],[-71.825518,43.185007,178.2],[-71.826969,43.187449,188.6],[-71.828207,43.189778,198.2],[-71.829172,43.192368,206.8],[-71.831668,43.195068,212.6],[-71.835365,43.198663,209.8],[-71.840354,43.202581,205.8],[-71.84567,43.204742,210.4],[-71.85005,43.206349,217.4],[-71.854798,43.20798,221.2],[-71.858977,43.20933,225.8],[-71.863646,43.210723,230.2],[-71.868371,43.213647,229.2],[-71.872199,43.216652,233.0],[-71.876839,43.21727,237.2],[-71.88121,43.220408,235.8],[-71.884554,43.224139,236.4],[-71.889987,43.227581,220.8],[-71.895949,43.2306,221.8],[-71.900186,43.232388,229.2],[-71.90582,43.234307,223.4],[-71.913138,43.235794,218.2],[-71.915138,43.237286,219.4],[-71.918192,43.239155,225.6],[-71.921329,43.241491,231.4],[-71.92242,43.244187,237.6],[-71.925044,43.250073,220.0],[-71.927824,43.253324,222.6],[-71.934016,43.256275,221.2],[-71.940663,43.257965,216.4],[-71.945952,43.259806,218.6],[-71.949731,43.262956,217.8],[-71.954289,43.265492,221.8],[-71.958034,43.268048,225.0],[-71.960114,43.271598,230.0],[-71.964916,43.273413,228.6],[-71.970311,43.275466,233.2],[-71.974075,43.278604,235.6],[-71.975776,43.282456,238.2],[-71.980244,43.285625,239.6],[-71.985101,43.288218,242.8],[-71.991085,43.290289,239.6],[-71.994451,43.294644,239.6],[-71.99795,43.297763,243.2],[-72.002307,43.300146,249.8],[-72.00651,43.302234,254.6],[-72.01049,43.304232,260.6],[-72.012098,43.305274,268.2],[-72.013951,43.306865,281.6],[-72.016443,43.308459,290.0],[-72.019174,43.309962,298.6],[-72.022074,43.311108,306.4],[-72.02496,43.311895,316.4],[-72.026696,43.312548,330.2],[-72.028359,43.313269,342.2],[-72.030033,43.314022,353.8],[-72.031849,43.314875,363.4],[-72.034031,43.318413,359.2],[-72.035057,43.322458,359.0],[-72.035046,43.325014,367.4],[-72.035225,43.329021,367.8],[-72.035637,43.333332,372.8],[-72.036152,43.335998,383.8],[-72.036949,43.338061,394.6],[-72.037418,43.340316,400.4],[-72.037963,43.344007,404.6],[-72.039126,43.348676,401.6],[-72.040466,43.351791,410.2],[-72.040741,43.353377,423.8],[-72.039506,43.355038,430.6],[-72.035834,43.357708,426.0],[-72.033023,43.363373,391.8],[-72.03453,43.370713,377.8],[-72.034938,43.372653,394.8],[-72.035213,43.373817,410.2],[-72.035538,43.375196,422.2],[-72.036093,43.378105,416.0],[-72.03108,43.385214,376.0],[-72.029121,43.387578,389.4],[-72.028051,43.388884,403.2],[-72.026712,43.39053,407.2],[-72.025512,43.394953,403.6],[-72.030414,43.400278,384.2],[-72.032254,43.405944,377.4],[-72.032548,43.411309,364.6],[-72.035184,43.414354,369.4],[-72.035861,43.417148,381.0],[-72.037277,43.41953,389.2],[-72.039,43.42093,399.2],[-72.038034,43.422412,400.6],[-72.035977,43.424147,401.4],[-72.03477,43.42695,406.4],[-72.035039,43.43083,404.8],[-72.032285,43.433125,406.8],[-72.030286,43.433924,403.4],[-72.027346,43.435846,405.4],[-72.023355,43.43787,398.0],[-72.022118,43.438961,409.6],[-72.023641,43.440225,420.4],[-72.024315,43.442348,426.0],[-72.025538,43.444287,435.2],[-72.026324,43.445768,446.2],[-72.026772,43.446741,451.0],[-72.026853,43.448459,459.8],[-72.026957,43.450132,466.8],[-72.028038,43.451219,477.2],[-72.029727,43.451839,486.0],[-72.03583,43.451562,467.0],[-72.040482,43.456426,446.2],[-72.04071,43.458716,461.0],[-72.040176,43.463056,457.2],[-72.041117,43.465648,468.8],[-72.04174,43.46722,478.8],[-72.04219,43.468541,491.0],[-72.042915,43.470693,492.4],[-72.042472,43.477045,465.0],[-72.039815,43.482844,459.0],[-72.044783,43.487546,447.4],[-72.047108,43.491007,449.4],[-72.04956,43.494914,441.2],[-72.057775,43.498604,417.6],[-72.062393,43.503229,400.4],[-72.064211,43.507268,403.2],[-72.068384,43.510098,399.6],[-72.073611,43.51362,384.0],[-72.076795,43.517299,389.8],[-72.078499,43.521547,381.4],[-72.080933,43.525952,370.8],[-72.081179,43.527456,379.4],[-72.081092,43.529008,388.0],[-72.079371,43.531981,388.0],[-72.079437,43.533616,396.2],[-72.079842,43.535048,406.2],[-72.080261,43.536578,412.2],[-72.080477,43.538035,424.0],[-72.081882,43.541147,421.6],[-72.082237,43.545943,415.2],[-72.082443,43.548056,427.4],[-72.082676,43.55121,422.2],[-72.082864,43.555657,423.0],[-72.081366,43.560617,417.0],[-72.081777,43.562801,428.8],[-72.08261,43.56489,436.0],[-72.083707,43.567006,440.8],[-72.085684,43.570934,431.2],[-72.090839,43.578221,360.8],[-72.094652,43.58191,326.2],[-72.10135,43.581329,319.4],[-72.106817,43.584879,295.0],[-72.109762,43.589833,279.8],[-72.112982,43.594067,272.2],[-72.115009,43.597867,264.8],[-72.112662,43.59893,277.2],[-72.114021,43.600779,283.2],[-72.116508,43.602872,286.4],[-72.114686,43.606268,285.4],[-72.113471,43.610432,287.2],[-72.114795,43.61481,285.2],[-72.116301,43.618581,286.0],[-72.117764,43.621665,295.2],[-72.120017,43.624057,301.8],[-72.122474,43.625277,311.0],[-72.125413,43.62691,314.8],[-72.130035,43.62987,303.0],[-72.136275,43.635435,270.4],[-72.140975,43.638718,272.8],[-72.144176,43.64148,265.6],[-72.147063,43.642561,273.2],[-72.149613,43.642743,274.4],[-72.15182,43.643224,286.6],[-72.153164,43.644021,297.4],[-72.154796,43.644842,306.0],[-72.156957,43.645938,309.8],[-72.163403,43.646836,282.8],[-72.171548,43.649069,261.4],[-72.173247,43.650733,265.6],[-72.172615,43.652728,271.2],[-72.172011,43.65418,278.2],[-72.171684,43.6555,287.8],[-72.171725,43.6557,288.4],[-72.172692,43.657354,296.8],[-72.172408,43.658534,305.6],[-72.171867,43.6603,314.6],[-72.172425,43.661765,321.6],[-72.172325,43.663325,330.4],[-72.172264,43.664747,340.6],[-72.173135,43.666078,350.6],[-72.173921,43.667533,356.0],[-72.174951,43.669148,364.2],[-72.176308,43.670476,370.8],[-72.177247,43.672289,377.6],[-72.177284,43.673844,387.6],[-72.177132,43.675118,402.4],[-72.176948,43.676328,414.0],[-72.176315,43.67756,424.0],[-72.174956,43.679894,428.2],[-72.177232,43.683934,420.4],[-72.17917,43.684105,433.4],[-72.180894,43.684574,443.2],[-72.182603,43.684502,454.0],[-72.18432,43.684086,466.4],[-72.186423,43.68362,471.2],[-72.189485,43.685131,475.0],[-72.19465,43.686345,468.4],[-72.195427,43.686565,468.8],[-72.204402,43.687794,405.8],[-72.211273,43.692245,358.6],[-72.217338,43.694484,277.0],[-72.222099,43.692799,268.2],[-72.227929,43.691635,247.4],[-72.232773,43.688462,236.4],[-72.239356,43.68951,223.2],[-72.244277,43.68898,223.2],[-72.248312,43.690846,223.6],[-72.253635,43.690337,219.0],[-72.261648,43.691051,204.0],[-72.266081,43.691775,208.6],[-72.271123,43.692744,196.8],[-72.276655,43.693539,197.8],[-72.279555,43.69544,195.8],[-72.280976,43.697883,183.0],[-72.281532,43.700852,182.8],[-72.282279,43.704129,182.2],[-72.283035,43.707365,183.8],[-72.285795,43.707063,189.2],[-72.287767,43.704714,189.2],[-72.287918,43.704308,189.0],[-72.289557,43.703232,189.2],[-72.289528,43.701,185.4]]}},{"type":"Feature","properties":{"date":"2022-06-13","source_file":"2.gpx","dist_m":161198,"vert_up_m":1911,"vert_down_m":1850,"points":436},"geometry":{"type":"LineString","coordinates":[[-72.280678,43.697517,158.4],[-72.283994,43.699911,157.6],[-72.288193,43.700954,162.8],[-72.289339,43.702254,169.0],[-72.296403,43.702898,144.0],[-72.303179,43.704389,140.4],[-72.306061,43.705666,148.2],[-72.30783,43.707946,154.8],[-72.310745,43.704608,158.6],[-72.313248,43.702898,169.2],[-72.316509,43.699885,169.4],[-72.318807,43.696552,176.2],[-72.319658,43.692656,173.6],[-72.320547,43.688985,175.6],[-72.321646,43.683871,160.4],[-72.322258,43.681729,179.0],[-72.322891,43.679383,187.2],[-72.323532,43.676846,195.2],[-72.324934,43.671615,173.0],[-72.325882,43.668329,178.6],[-72.326253,43.666793,189.0],[-72.327177,43.66549,197.6],[-72.33013,43.663237,187.2],[-72.337042,43.661548,128.8],[-72.342465,43.661339,126.4],[-72.349129,43.66319,114.2],[-72.353899,43.666059,115.8],[-72.360043,43.667205,114.0],[-72.364216,43.668989,119.2],[-72.368128,43.66927,126.6],[-72.37113,43.669968,134.4],[-72.376208,43.671079,130.4],[-72.380843,43.673397,132.0],[-72.385653,43.675966,133.6],[-72.390962,43.680251,121.8],[-72.395899,43.682851,123.2],[-72.398556,43.685876,127.6],[-72.400089,43.690131,124.0],[-72.401841,43.694128,125.6],[-72.404614,43.698291,123.2],[-72.406915,43.702326,125.0],[-72.410941,43.703973,131.4],[-72.414105,43.705659,132.8],[-72.416423,43.710231,127.4],[-72.417984,43.712162,129.2],[-72.419468,43.714872,128.4],[-72.421301,43.718318,131.4],[-72.424993,43.721197,129.0],[-72.42839,43.720848,136.4],[-72.429984,43.71971,146.6],[-72.432002,43.718619,154.4],[-72.436479,43.719314,155.0],[-72.438663,43.720287,168.0],[-72.440578,43.722022,173.2],[-72.442888,43.724083,183.6],[-72.446053,43.724447,192.6],[-72.450188,43.725119,197.0],[-72.454185,43.724449,202.2],[-72.457021,43.724258,212.8],[-72.459975,43.72387,219.8],[-72.463495,43.724118,227.6],[-72.467156,43.724969,231.4],[-72.469575,43.72563,243.6],[-72.472671,43.725781,249.8],[-72.476662,43.725373,253.4],[-72.478815,43.72358,261.8],[-72.479975,43.72221,275.2],[-72.481327,43.720404,281.4],[-72.485054,43.718901,288.0],[-72.488701,43.720171,290.2],[-72.491596,43.721287,302.4],[-72.493853,43.721447,311.8],[-72.495683,43.721984,324.4],[-72.498156,43.723036,329.2],[-72.501144,43.722991,335.2],[-72.502275,43.721235,348.8],[-72.503241,43.719646,355.8],[-72.504294,43.717948,362.6],[-72.505137,43.716672,370.8],[-72.506263,43.71506,375.0],[-72.507828,43.714005,386.6],[-72.508627,43.712639,395.6],[-72.509647,43.710325,399.6],[-72.511855,43.708313,408.8],[-72.513599,43.706708,416.0],[-72.515775,43.704431,409.2],[-72.519451,43.699574,368.0],[-72.52006,43.69266,329.4],[-72.521505,43.68622,311.6],[-72.524917,43.682072,303.4],[-72.531116,43.675844,269.6],[-72.53543,43.670552,253.4],[-72.538635,43.664745,233.4],[-72.538757,43.664757,234.2],[-72.537217,43.662435,233.2],[-72.533519,43.659969,234.6],[-72.529823,43.656378,232.2],[-72.527338,43.651868,225.8],[-72.52597,43.647372,224.4],[-72.525565,43.642716,223.8],[-72.525189,43.638554,224.6],[-72.528218,43.64123,224.0],[-72.531871,43.643924,227.8],[-72.535336,43.646216,231.4],[-72.539576,43.647186,233.8],[-72.542724,43.646271,242.0],[-72.5463,43.644589,244.6],[-72.549932,43.644077,252.2],[-72.553557,43.645169,258.4],[-72.556408,43.64715,262.8],[-72.558799,43.648373,269.0],[-72.561065,43.650121,275.0],[-72.56418,43.653296,273.4],[-72.567317,43.656324,276.2],[-72.56993,43.659049,277.0],[-72.572424,43.661466,281.2],[-72.573727,43.664429,285.4],[-72.575984,43.667528,286.4],[-72.576675,43.66973,294.6],[-72.578201,43.671828,303.2],[-72.580112,43.673917,308.0],[-72.582487,43.675505,314.0],[-72.585035,43.67663,321.0],[-72.586955,43.677297,332.2],[-72.588587,43.677838,342.4],[-72.590305,43.678452,352.8],[-72.592021,43.679063,360.0],[-72.595034,43.680835,355.8],[-72.598204,43.68366,353.8],[-72.601543,43.68645,358.8],[-72.604036,43.688382,366.4],[-72.606211,43.689866,373.8],[-72.607866,43.690759,383.2],[-72.609423,43.692202,390.4],[-72.611693,43.694098,398.2],[-72.614267,43.695543,404.4],[-72.615174,43.697015,417.0],[-72.615709,43.698133,427.2],[-72.616724,43.699098,436.4],[-72.618394,43.70007,447.2],[-72.619515,43.701215,459.2],[-72.619277,43.702466,469.2],[-72.618454,43.703676,480.2],[-72.618408,43.704934,489.4],[-72.618728,43.706346,499.4],[-72.619111,43.708884,505.0],[-72.623261,43.713018,486.6],[-72.622252,43.720092,457.6],[-72.619275,43.727354,420.4],[-72.624941,43.733755,367.6],[-72.630921,43.740023,335.4],[-72.632897,43.746249,318.8],[-72.633141,43.753684,290.8],[-72.633767,43.75955,280.2],[-72.636513,43.763448,278.4],[-72.63739,43.767903,273.0],[-72.636581,43.772679,266.0],[-72.63636,43.777848,261.2],[-72.637848,43.782951,252.8],[-72.642503,43.786244,240.8],[-72.645829,43.788811,245.0],[-72.648539,43.791761,247.0],[-72.649467,43.796028,247.2],[-72.653213,43.802743,207.4],[-72.651139,43.808917,198.8],[-72.645465,43.810256,195.2],[-72.639177,43.81251,186.4],[-72.6363,43.815451,192.2],[-72.634111,43.819128,188.0],[-72.63153,43.823735,183.4],[-72.630907,43.828002,183.2],[-72.632506,43.830337,194.4],[-72.633412,43.831192,192.0],[-72.633614,43.831673,191.6],[-72.63504,43.832405,197.0],[-72.637541,43.830855,199.2],[-72.641507,43.83297,188.6],[-72.64554,43.836145,186.8],[-72.64845,43.838801,191.6],[-72.649695,43.841882,193.4],[-72.649244,43.844037,204.8],[-72.647295,43.84855,191.2],[-72.647019,43.854232,187.6],[-72.650947,43.853909,196.2],[-72.654214,43.853308,204.0],[-72.657094,43.854725,212.2],[-72.660508,43.855456,222.4],[-72.664025,43.855435,231.2],[-72.66672,43.854475,242.4],[-72.669086,43.852563,249.8],[-72.670441,43.849896,256.6],[-72.671738,43.84755,268.8],[-72.67524,43.845963,275.6],[-72.678415,43.844365,283.0],[-72.68197,43.844478,292.6],[-72.684637,43.844199,305.4],[-72.686391,43.844442,318.4],[-72.68831,43.845456,327.0],[-72.690254,43.846761,337.8],[-72.691672,43.848868,341.8],[-72.695618,43.850256,344.6],[-72.699292,43.850349,351.0],[-72.702744,43.849817,359.0],[-72.70566,43.850437,366.6],[-72.707709,43.85127,379.4],[-72.709255,43.851668,392.6],[-72.711142,43.851935,402.6],[-72.713251,43.852543,414.0],[-72.716025,43.853551,420.6],[-72.718949,43.853342,434.0],[-72.720566,43.852529,447.4],[-72.721507,43.851849,465.2],[-72.722277,43.850975,479.2],[-72.723049,43.849952,489.2],[-72.724151,43.849195,500.0],[-72.725568,43.849424,516.0],[-72.727342,43.849655,522.4],[-72.728929,43.849645,521.2],[-72.730413,43.84942,534.0],[-72.731712,43.8492,547.6],[-72.732963,43.849099,560.6],[-72.734138,43.849576,573.8],[-72.735067,43.850178,585.8],[-72.736185,43.850706,597.6],[-72.737474,43.851175,608.2],[-72.738815,43.851575,618.6],[-72.740226,43.851776,631.2],[-72.741432,43.851892,643.4],[-72.742838,43.851223,652.0],[-72.747546,43.84941,637.6],[-72.749826,43.849295,649.8],[-72.751311,43.851447,649.6],[-72.754389,43.854356,647.8],[-72.758618,43.858572,610.8],[-72.763292,43.863615,551.2],[-72.77064,43.868219,489.6],[-72.774592,43.870887,489.2],[-72.778957,43.87345,485.0],[-72.783729,43.877144,459.2],[-72.789512,43.87811,414.2],[-72.79866,43.878342,345.0],[-72.805458,43.87465,283.8],[-72.80743,43.874441,276.2],[-72.808365,43.875305,274.4],[-72.808258,43.876095,271.4],[-72.808708,43.875423,275.4],[-72.806666,43.878612,267.2],[-72.808577,43.882177,270.0],[-72.811817,43.885716,268.6],[-72.816127,43.889001,270.0],[-72.818386,43.891509,276.2],[-72.819165,43.895382,275.0],[-72.82305,43.899023,267.8],[-72.82612,43.901971,273.4],[-72.828378,43.905504,274.6],[-72.830537,43.909507,274.8],[-72.833788,43.912917,277.6],[-72.838159,43.914077,281.2],[-72.840556,43.91786,279.2],[-72.840231,43.921886,283.6],[-72.841025,43.92551,287.0],[-72.841398,43.92956,288.0],[-72.842009,43.933991,289.6],[-72.8427,43.938066,291.6],[-72.841414,43.941748,292.6],[-72.840485,43.945697,288.0],[-72.840419,43.949328,295.8],[-72.839244,43.953863,292.4],[-72.840115,43.957803,291.6],[-72.841368,43.961207,293.6],[-72.842273,43.965128,294.8],[-72.842906,43.968638,298.6],[-72.843132,43.972465,297.0],[-72.841911,43.97553,301.0],[-72.842214,43.978994,302.8],[-72.843015,43.982203,306.6],[-72.845867,43.984382,309.8],[-72.848819,43.986405,313.6],[-72.851855,43.989715,314.2],[-72.852554,43.993454,317.0],[-72.852191,43.997313,319.0],[-72.853058,44.00109,322.8],[-72.851196,44.003532,327.2],[-72.848623,44.005754,332.0],[-72.847707,44.009135,337.6],[-72.849709,44.011653,346.2],[-72.851285,44.013963,355.0],[-72.850688,44.016463,364.6],[-72.848994,44.018666,373.2],[-72.845498,44.020362,379.6],[-72.842609,44.02148,390.8],[-72.840358,44.021952,403.4],[-72.837848,44.023009,409.6],[-72.836134,44.023908,423.8],[-72.834196,44.024942,429.8],[-72.834191,44.027804,433.0],[-72.833123,44.030842,439.2],[-72.832252,44.031967,446.2],[-72.831411,44.035101,441.4],[-72.832415,44.039561,440.6],[-72.831273,44.0442,440.2],[-72.830057,44.048983,436.8],[-72.834467,44.053384,426.4],[-72.839649,44.056831,421.4],[-72.847623,44.059281,401.0],[-72.852889,44.062564,398.4],[-72.857879,44.067348,377.6],[-72.860546,44.073294,368.4],[-72.858921,44.079776,353.0],[-72.859484,44.082842,363.6],[-72.86178,44.086939,353.6],[-72.862896,44.092885,337.6],[-72.861173,44.098681,324.2],[-72.86043,44.10362,316.2],[-72.858881,44.108465,313.2],[-72.857695,44.112161,311.2],[-72.857667,44.118292,294.0],[-72.85382,44.122261,292.0],[-72.850766,44.128216,273.4],[-72.848135,44.132151,267.6],[-72.846253,44.136599,265.6],[-72.845613,44.140206,263.6],[-72.841605,44.143632,259.8],[-72.839725,44.148574,252.0],[-72.837657,44.152396,252.8],[-72.836079,44.155127,260.4],[-72.835071,44.15913,257.6],[-72.833067,44.163715,252.0],[-72.831483,44.168962,239.2],[-72.832736,44.173268,235.2],[-72.834874,44.177288,233.2],[-72.839067,44.180246,236.0],[-72.84094,44.181312,243.6],[-72.84345,44.181118,245.8],[-72.846805,44.182449,252.2],[-72.850702,44.183244,257.0],[-72.85496,44.183035,262.8],[-72.859454,44.182448,268.0],[-72.863628,44.182139,275.2],[-72.867488,44.183039,281.8],[-72.871078,44.184299,286.8],[-72.873931,44.186364,294.2],[-72.87764,44.186745,304.6],[-72.881575,44.189122,305.0],[-72.885173,44.191776,308.8],[-72.888573,44.193168,316.4],[-72.891148,44.195722,323.8],[-72.893316,44.197898,334.2],[-72.89503,44.200464,340.2],[-72.896159,44.202726,352.8],[-72.897248,44.203901,366.2],[-72.898937,44.204095,379.4],[-72.900607,44.204571,392.8],[-72.902279,44.204827,405.0],[-72.903819,44.204387,415.4],[-72.905689,44.204166,428.2],[-72.90835,44.204042,438.4],[-72.909509,44.203056,452.8],[-72.910768,44.202419,466.2],[-72.912073,44.201988,480.2],[-72.913622,44.201969,495.0],[-72.915644,44.201905,503.2],[-72.915586,44.202809,514.8],[-72.913938,44.20339,529.0],[-72.914238,44.204537,542.4],[-72.915505,44.205357,554.0],[-72.917077,44.205753,568.4],[-72.918702,44.205898,580.8],[-72.920167,44.206207,594.4],[-72.921724,44.206112,607.8],[-72.921669,44.205005,619.6],[-72.922402,44.205563,633.6],[-72.923692,44.206391,647.0],[-72.92521,44.206914,659.6],[-72.926584,44.207348,673.2],[-72.927941,44.207749,687.8],[-72.928864,44.208504,703.6],[-72.929764,44.209397,716.8],[-72.930351,44.210533,728.2],[-72.930838,44.210979,732.0],[-72.935989,44.213977,650.4],[-72.940283,44.216188,583.0],[-72.950803,44.21991,476.0],[-72.958162,44.216665,432.8],[-72.963585,44.21553,388.4],[-72.966786,44.217167,360.0],[-72.965081,44.222255,357.0],[-72.96466,44.229072,336.6],[-72.964832,44.232617,346.2],[-72.965331,44.237362,340.8],[-72.964123,44.244274,303.2],[-72.960643,44.251332,272.6],[-72.962745,44.257202,264.4],[-72.959901,44.262503,253.6],[-72.958594,44.265592,265.0],[-72.961366,44.271404,249.6],[-72.963561,44.276619,243.8],[-72.964844,44.282429,233.4],[-72.9643,44.287583,226.6],[-72.963241,44.292134,227.8],[-72.966883,44.296262,224.2],[-72.970239,44.300537,220.4],[-72.975716,44.302433,215.2],[-72.982135,44.304183,211.0],[-72.984766,44.308101,210.2],[-72.987298,44.31175,209.2],[-72.988968,44.31568,215.0],[-72.989484,44.318928,220.6],[-72.988318,44.323808,211.8],[-72.987378,44.326248,197.6],[-72.988408,44.32885,192.0],[-72.989754,44.331526,195.6],[-72.99337,44.333161,190.6],[-72.996786,44.33623,188.4],[-72.998067,44.340107,185.0],[-72.99758,44.341637,186.2],[-72.998193,44.341286,187.4],[-72.998094,44.341221,181.4],[-72.997701,44.338094,179.2],[-72.99523,44.334734,183.6],[-72.991326,44.332251,187.4],[-72.988477,44.328746,184.6],[-72.986862,44.325196,191.0],[-72.985239,44.327364,188.6],[-72.98506,44.330385,192.2],[-72.984623,44.332961,201.2],[-72.983396,44.334771,210.0],[-72.981949,44.336412,219.8],[-72.980004,44.338047,226.6],[-72.977789,44.340494,231.6],[-72.975577,44.342126,232.2],[-72.974037,44.342444,247.0],[-72.972369,44.342315,259.4],[-72.970112,44.342136,267.2],[-72.967043,44.34227,274.8],[-72.964877,44.34257,287.0]]}},{"type":"Feature","properties":{"date":"2022-06-14","source_file":"3.gpx","dist_m":188497,"vert_up_m":556,"vert_down_m":848,"points":445},"geometry":{"type":"LineString","coordinates":[[-72.963989,44.342342,310.8],[-72.965963,44.342518,302.2],[-72.969802,44.342197,288.8],[-72.973563,44.34254,271.8],[-72.976149,44.342108,248.0],[-72.977872,44.340485,253.2],[-72.980139,44.33801,248.6],[-72.98322,44.335081,233.6],[-72.985108,44.331448,216.0],[-72.985335,44.327538,208.2],[-72.98681,44.325623,210.6],[-72.988467,44.32906,205.0],[-72.990164,44.331844,209.8],[-72.99433,44.33401,205.6],[-72.997393,44.337482,200.2],[-72.997791,44.341389,201.8],[-72.99303,44.344845,194.2],[-72.992281,44.349306,192.6],[-72.992412,44.354508,188.6],[-72.993165,44.359161,183.8],[-72.993938,44.362456,187.6],[-72.995423,44.364043,200.4],[-72.996686,44.365508,212.6],[-72.999557,44.368901,205.2],[-72.999611,44.37055,216.0],[-73.000231,44.373089,219.4],[-73.001419,44.37523,230.6],[-73.002832,44.37742,238.6],[-73.003357,44.37916,249.4],[-73.00448,44.383035,243.4],[-73.00721,44.388963,211.4],[-73.013792,44.395099,154.8],[-73.014765,44.398087,134.0],[-73.016787,44.399125,149.4],[-73.019472,44.399319,160.2],[-73.021913,44.399315,171.6],[-73.02462,44.398991,183.0],[-73.027239,44.39917,194.8],[-73.030085,44.399597,201.8],[-73.035387,44.400387,202.0],[-73.041443,44.401966,196.2],[-73.04377,44.40242,210.6],[-73.046174,44.402813,220.8],[-73.050645,44.403668,212.0],[-73.053254,44.405594,222.6],[-73.054573,44.407009,235.8],[-73.05629,44.408608,246.6],[-73.05941,44.410633,254.8],[-73.060761,44.411278,262.4],[-73.062637,44.413158,271.8],[-73.065924,44.418377,246.0],[-73.067749,44.423003,230.8],[-73.065181,44.427749,219.4],[-73.0649,44.433155,185.4],[-73.069746,44.433407,196.4],[-73.06937,44.436176,182.4],[-73.067984,44.437751,175.4],[-73.065396,44.440957,173.2],[-73.063275,44.444916,173.8],[-73.060918,44.449234,173.6],[-73.062636,44.451521,176.4],[-73.067584,44.452862,179.6],[-73.072698,44.454285,185.8],[-73.077367,44.455696,194.0],[-73.083908,44.458318,180.6],[-73.091996,44.461647,160.4],[-73.101765,44.46494,127.6],[-73.108157,44.464921,131.2],[-73.112455,44.465038,139.6],[-73.11296,44.468109,145.4],[-73.113129,44.472598,139.8],[-73.114465,44.479768,111.0],[-73.113988,44.48557,116.8],[-73.112074,44.488973,125.2],[-73.111276,44.490465,126.2],[-73.111418,44.493859,129.0],[-73.113086,44.498597,120.0],[-73.114606,44.501931,122.4],[-73.116136,44.505351,122.6],[-73.117815,44.50892,122.8],[-73.119928,44.511877,124.6],[-73.122043,44.514861,125.2],[-73.123285,44.517992,131.0],[-73.123716,44.521848,125.0],[-73.126,44.526696,121.0],[-73.130647,44.529575,121.0],[-73.133499,44.533508,120.4],[-73.138637,44.537522,106.8],[-73.144141,44.540722,103.4],[-73.14844,44.544,102.6],[-73.154899,44.546474,96.0],[-73.161699,44.548801,88.2],[-73.163002,44.553452,76.8],[-73.161649,44.558709,74.8],[-73.158484,44.564049,55.0],[-73.15504,44.569127,53.4],[-73.157507,44.573225,54.4],[-73.159298,44.577487,58.4],[-73.160267,44.579897,73.0],[-73.163174,44.582285,78.4],[-73.165552,44.585149,85.4],[-73.1665,44.589013,87.4],[-73.168513,44.58976,89.8],[-73.174587,44.591089,91.8],[-73.180601,44.592698,91.0],[-73.187214,44.594457,82.8],[-73.194269,44.596118,82.8],[-73.199562,44.598777,80.0],[-73.204625,44.603596,65.2],[-73.206755,44.607547,75.4],[-73.208908,44.609636,83.0],[-73.211953,44.613892,75.0],[-73.211448,44.619507,68.6],[-73.215965,44.623593,55.4],[-73.223587,44.624211,54.0],[-73.230876,44.624829,53.8],[-73.237843,44.625445,53.2],[-73.243925,44.627608,54.0],[-73.250388,44.629768,54.2],[-73.255857,44.631539,55.8],[-73.262488,44.633755,53.0],[-73.267963,44.636792,57.0],[-73.272963,44.63803,64.8],[-73.276645,44.639937,76.6],[-73.278979,44.642325,89.0],[-73.282023,44.645377,92.0],[-73.292568,44.646708,65.6],[-73.30092,44.645961,66.6],[-73.308122,44.645344,61.8],[-73.314651,44.647075,57.4],[-73.317107,44.651786,56.8],[-73.320559,44.655662,62.4],[-73.321564,44.657524,69.6],[-73.322006,44.66081,69.8],[-73.322354,44.662975,64.0],[-73.322433,44.668753,56.4],[-73.320518,44.673021,59.4],[-73.319013,44.675859,70.6],[-73.317462,44.677965,80.2],[-73.315422,44.680679,87.2],[-73.312481,44.685007,85.2],[-73.30948,44.689426,86.4],[-73.306621,44.694113,79.2],[-73.304919,44.697847,86.2],[-73.302765,44.702741,77.2],[-73.300295,44.708407,69.4],[-73.298297,44.71281,71.8],[-73.296361,44.716965,74.8],[-73.293802,44.721241,76.4],[-73.292365,44.726614,69.6],[-73.291267,44.732149,65.8],[-73.290096,44.73781,61.4],[-73.289139,44.742517,64.0],[-73.287982,44.748451,53.6],[-73.287101,44.752746,60.4],[-73.28651,44.755873,69.4],[-73.285637,44.760194,68.0],[-73.288599,44.765064,55.6],[-73.292851,44.769127,51.6],[-73.29398,44.774143,52.6],[-73.293652,44.77843,56.8],[-73.293335,44.782487,61.2],[-73.292992,44.786642,61.6],[-73.292648,44.791558,59.0],[-73.292279,44.796467,59.2],[-73.291951,44.801023,57.2],[-73.291641,44.805696,59.4],[-73.292057,44.811103,52.2],[-73.290477,44.815823,50.6],[-73.288568,44.819923,53.0],[-73.283338,44.822241,50.4],[-73.278337,44.824169,50.2],[-73.275533,44.828132,50.0],[-73.273675,44.832007,53.6],[-73.270967,44.836578,48.4],[-73.268678,44.841385,49.8],[-73.266753,44.845311,54.6],[-73.264334,44.848501,59.0],[-73.260221,44.85245,53.0],[-73.259088,44.856978,51.0],[-73.259031,44.861026,56.2],[-73.264207,44.863918,55.0],[-73.268384,44.867527,49.8],[-73.270246,44.871542,51.0],[-73.271689,44.87553,50.8],[-73.271698,44.879645,51.6],[-73.272092,44.883816,50.8],[-73.276445,44.886001,53.8],[-73.280772,44.887468,53.8],[-73.28676,44.887476,50.2],[-73.292739,44.887457,52.4],[-73.297215,44.887425,57.2],[-73.302845,44.88852,51.6],[-73.305034,44.892856,51.2],[-73.304509,44.896141,58.4],[-73.303616,44.898618,64.6],[-73.306252,44.90361,49.2],[-73.312169,44.904409,49.8],[-73.31266,44.906975,55.0],[-73.313893,44.911595,50.0],[-73.3127,44.915433,52.0],[-73.311161,44.919381,50.6],[-73.308992,44.923321,50.0],[-73.308009,44.927267,50.6],[-73.309813,44.930666,49.8],[-73.31187,44.934215,49.4],[-73.312462,44.938263,49.4],[-73.311729,44.942429,48.6],[-73.310162,44.946237,49.2],[-73.307979,44.94991,48.6],[-73.305872,44.953813,48.8],[-73.305527,44.958188,50.0],[-73.305085,44.962511,50.4],[-73.303091,44.965797,54.2],[-73.302584,44.969107,54.2],[-73.301684,44.973184,54.0],[-73.300069,44.976396,55.0],[-73.298566,44.979493,56.8],[-73.297507,44.981582,59.0],[-73.296863,44.984454,59.6],[-73.295988,44.987622,61.2],[-73.298724,44.990904,55.2],[-73.305037,44.991191,51.6],[-73.311459,44.991046,51.4],[-73.317684,44.990826,51.4],[-73.320557,44.993327,55.0],[-73.320673,44.997113,58.2],[-73.325679,44.999234,51.2],[-73.332289,44.999121,51.0],[-73.337628,44.998736,51.6],[-73.342732,44.998379,56.0],[-73.346887,44.998503,66.6],[-73.351352,44.999057,67.6],[-73.359661,44.999763,52.2],[-73.365899,44.999595,53.4],[-73.367252,45.001116,54.0],[-73.368565,45.00453,52.8],[-73.370122,45.008445,53.0],[-73.370688,45.011948,54.8],[-73.370728,45.013055,55.8],[-73.370934,45.016941,54.4],[-73.370942,45.020746,54.4],[-73.370956,45.024755,55.6],[-73.370964,45.028779,56.8],[-73.370787,45.033116,57.8],[-73.368164,45.036786,60.6],[-73.364188,45.040771,59.2],[-73.361355,45.044964,59.6],[-73.359464,45.049325,60.0],[-73.358146,45.053263,62.4],[-73.357052,45.057583,64.0],[-73.354828,45.061926,61.6],[-73.349734,45.064789,60.6],[-73.352951,45.066225,61.2],[-73.358086,45.068077,62.2],[-73.363352,45.06996,63.8],[-73.369062,45.07208,62.8],[-73.372931,45.073473,65.6],[-73.37729,45.075065,69.4],[-73.383185,45.077192,69.0],[-73.38894,45.079288,70.6],[-73.393919,45.081102,71.2],[-73.399491,45.083147,72.0],[-73.404371,45.084665,72.6],[-73.410085,45.085759,74.2],[-73.415275,45.086756,75.8],[-73.421386,45.087888,77.4],[-73.427726,45.089067,77.2],[-73.434003,45.090245,79.0],[-73.439676,45.091294,82.2],[-73.445203,45.09232,83.0],[-73.446922,45.096149,85.0],[-73.448197,45.100301,84.6],[-73.448067,45.104495,86.4],[-73.44796,45.10787,91.6],[-73.447876,45.110933,97.6],[-73.447723,45.115515,91.2],[-73.447509,45.12099,82.6],[-73.447296,45.125983,80.4],[-73.447082,45.131053,75.2],[-73.446419,45.135946,73.6],[-73.445832,45.140455,74.6],[-73.445679,45.14526,75.2],[-73.446755,45.149401,75.6],[-73.446168,45.152554,77.2],[-73.445381,45.155728,82.0],[-73.444397,45.159916,79.0],[-73.44265,45.164448,76.2],[-73.441719,45.168724,76.8],[-73.442307,45.173054,76.4],[-73.446433,45.176227,76.0],[-73.447998,45.17955,78.8],[-73.448212,45.1832,80.0],[-73.448486,45.187601,76.6],[-73.448173,45.191973,79.0],[-73.448562,45.194808,81.0],[-73.44927,45.196164,80.8],[-73.451543,45.199226,80.6],[-73.452202,45.203167,80.2],[-73.451615,45.207095,80.4],[-73.450191,45.210871,83.4],[-73.452712,45.212262,79.8],[-73.458526,45.211816,76.4],[-73.461236,45.21346,76.8],[-73.460497,45.217589,76.2],[-73.459817,45.221844,75.4],[-73.459138,45.226174,74.8],[-73.458429,45.230495,73.0],[-73.457642,45.235055,73.4],[-73.456925,45.239148,73.2],[-73.4562,45.243054,73.8],[-73.455423,45.247351,71.8],[-73.454644,45.251752,69.4],[-73.453897,45.256205,68.2],[-73.453103,45.260612,67.2],[-73.452417,45.264601,65.8],[-73.451868,45.268665,65.8],[-73.451425,45.272787,65.2],[-73.452554,45.276462,64.6],[-73.45488,45.28005,64.8],[-73.457203,45.283628,64.2],[-73.459072,45.286448,63.6],[-73.461047,45.289485,62.8],[-73.463335,45.292991,62.8],[-73.465524,45.296327,61.4],[-73.467532,45.299435,60.8],[-73.46966,45.302722,60.4],[-73.47178,45.305912,59.6],[-73.47436,45.308855,58.6],[-73.477206,45.311646,58.2],[-73.479804,45.314373,57.6],[-73.48234,45.317251,57.8],[-73.484399,45.320319,56.8],[-73.48611,45.323087,56.8],[-73.487673,45.32568,56.8],[-73.489753,45.32824,56.0],[-73.492517,45.330748,56.8],[-73.492162,45.332972,55.8],[-73.490765,45.335848,55.4],[-73.489964,45.338697,54.0],[-73.491371,45.340862,56.2],[-73.491972,45.343713,53.2],[-73.493379,45.345962,55.6],[-73.495302,45.349029,53.8],[-73.497407,45.352474,54.4],[-73.498872,45.355794,53.0],[-73.501146,45.359529,50.4],[-73.504654,45.362343,50.4],[-73.507545,45.363499,55.2],[-73.507425,45.366965,49.2],[-73.506319,45.370071,47.2],[-73.506163,45.370658,47.6],[-73.505724,45.372472,54.6],[-73.50486,45.375077,48.2],[-73.504097,45.377423,46.4],[-73.505592,45.37959,46.2],[-73.507038,45.381555,47.0],[-73.506186,45.384695,45.0],[-73.507534,45.387545,45.0],[-73.511127,45.389475,45.2],[-73.514329,45.391371,45.0],[-73.512963,45.393727,44.0],[-73.509646,45.396777,43.4],[-73.50842,45.400617,41.6],[-73.507703,45.404896,40.6],[-73.50582,45.408246,36.0],[-73.502583,45.408888,36.8],[-73.500565,45.411926,35.2],[-73.50044,45.414492,34.4],[-73.498384,45.417137,34.4],[-73.497897,45.419085,34.6],[-73.496102,45.421983,34.4],[-73.492984,45.424471,33.0],[-73.488935,45.426163,32.6],[-73.486194,45.428136,33.6],[-73.485854,45.431013,32.6],[-73.484145,45.432568,34.2],[-73.484744,45.434398,34.4],[-73.484624,45.436716,33.6],[-73.484253,45.439704,35.2],[-73.484823,45.443353,36.0],[-73.485334,45.447434,36.4],[-73.485469,45.450895,36.4],[-73.485247,45.455027,36.8],[-73.486302,45.457077,36.8],[-73.490999,45.45724,36.2],[-73.493245,45.45766,36.2],[-73.493406,45.46111,36.0],[-73.494243,45.464625,35.2],[-73.496575,45.467386,32.6],[-73.498431,45.470763,32.4],[-73.500261,45.474446,32.4],[-73.502936,45.477037,33.4],[-73.500785,45.478739,35.2],[-73.502623,45.481296,35.4],[-73.505444,45.484321,35.4],[-73.508709,45.486917,34.2],[-73.510906,45.490115,34.4],[-73.512822,45.492824,35.8],[-73.514129,45.49259,35.6],[-73.517138,45.492207,39.2],[-73.518097,45.492474,37.6],[-73.513126,45.493256,41.4],[-73.51328,45.494083,34.8],[-73.514465,45.497115,34.8],[-73.516057,45.500098,35.2],[-73.517436,45.503479,35.2],[-73.517514,45.505609,34.6],[-73.51765,45.508978,34.8],[-73.517818,45.512419,33.4],[-73.518528,45.515635,33.6],[-73.516776,45.51736,34.6],[-73.514736,45.519265,37.4],[-73.515053,45.519397,36.8],[-73.51581,45.520845,43.8],[-73.518917,45.521906,48.8],[-73.521899,45.521687,58.4],[-73.524797,45.521448,67.8],[-73.529238,45.521055,61.6],[-73.534755,45.520597,61.8],[-73.534609,45.519142,55.4],[-73.534635,45.519219,55.0],[-73.536699,45.520826,63.4],[-73.539346,45.521135,72.0],[-73.540594,45.521313,76.6],[-73.54389,45.521958,79.8],[-73.549077,45.523652,65.0],[-73.554228,45.525493,46.8],[-73.556202,45.524609,45.8],[-73.559136,45.524698,45.4],[-73.562835,45.526398,52.2],[-73.565742,45.527763,63.6],[-73.569423,45.529482,64.8],[-73.572162,45.527957,65.6],[-73.573543,45.526552,64.6],[-73.576289,45.524018,65.6],[-73.578125,45.522017,66.0],[-73.581469,45.523381,67.0],[-73.586775,45.525781,74.4],[-73.591084,45.527718,81.2],[-73.595535,45.529812,85.0],[-73.598152,45.531005,84.8],[-73.602175,45.532352,83.0],[-73.605336,45.529769,83.0],[-73.609783,45.531805,79.8]]}},{"type":"Feature","properties":{"date":"2022-06-17","source_file":"4.gpx","dist_m":179202,"vert_up_m":526,"vert_down_m":531,"points":411},"geometry":{"type":"LineString","coordinates":[[-73.573143,45.494007,57.2],[-73.570924,45.494168,49.6],[-73.572146,45.492605,49.4],[-73.569796,45.491263,38.6],[-73.568091,45.489081,42.6],[-73.56644,45.485753,43.6],[-73.565071,45.484313,40.8],[-73.566234,45.482779,41.2],[-73.563216,45.480286,40.2],[-73.561721,45.477143,40.0],[-73.561835,45.473784,42.0],[-73.56271,45.470628,41.2],[-73.559869,45.471424,42.4],[-73.554104,45.470934,45.8],[-73.54794,45.470533,48.8],[-73.546707,45.469892,41.2],[-73.543913,45.472625,39.6],[-73.540958,45.471986,42.4],[-73.537732,45.47086,44.4],[-73.53543,45.470584,51.2],[-73.530506,45.470489,57.4],[-73.525094,45.470241,65.8],[-73.519631,45.469905,72.6],[-73.513869,45.469442,78.0],[-73.507514,45.468792,81.2],[-73.500107,45.46802,77.4],[-73.490717,45.466954,53.6],[-73.492028,45.467475,47.2],[-73.496739,45.467841,44.4],[-73.496242,45.466431,39.8],[-73.493878,45.463849,42.6],[-73.493377,45.460171,43.0],[-73.493164,45.456945,42.8],[-73.487941,45.456836,42.2],[-73.485283,45.454751,42.6],[-73.485474,45.451169,42.2],[-73.485397,45.447654,42.6],[-73.484977,45.444401,41.2],[-73.48455,45.441115,41.6],[-73.4847,45.438431,41.2],[-73.484721,45.43559,40.2],[-73.484718,45.434635,40.0],[-73.485082,45.432203,40.4],[-73.486688,45.429527,39.0],[-73.487269,45.426646,37.4],[-73.491513,45.425321,38.6],[-73.495058,45.423249,39.2],[-73.497324,45.420647,40.4],[-73.498383,45.417834,39.6],[-73.499245,45.418824,41.4],[-73.500841,45.415452,39.8],[-73.503902,45.41221,40.0],[-73.506365,45.408963,42.0],[-73.506356,45.408348,41.6],[-73.507501,45.405797,46.2],[-73.508225,45.402403,46.6],[-73.508805,45.398935,48.0],[-73.510515,45.395941,48.0],[-73.513276,45.393558,48.2],[-73.51545,45.39191,49.0],[-73.51255,45.390049,51.8],[-73.508132,45.387847,52.2],[-73.506248,45.384925,51.4],[-73.506936,45.381683,53.0],[-73.505484,45.379516,52.8],[-73.504425,45.376369,52.0],[-73.504753,45.375416,53.6],[-73.505509,45.373119,62.4],[-73.504866,45.370521,53.4],[-73.499636,45.371935,51.4],[-73.493286,45.373775,50.6],[-73.487182,45.371315,51.8],[-73.48346,45.368167,52.2],[-73.483147,45.364259,53.8],[-73.48098,45.361203,53.4],[-73.477944,45.358136,59.2],[-73.475342,45.354745,60.0],[-73.473176,45.350976,59.2],[-73.471627,45.347696,60.0],[-73.470421,45.343996,59.4],[-73.467844,45.340208,58.6],[-73.465958,45.336591,60.4],[-73.46265,45.333124,61.2],[-73.458871,45.329539,60.2],[-73.455335,45.326071,61.0],[-73.451015,45.323581,60.6],[-73.448077,45.321114,61.4],[-73.445497,45.315624,63.2],[-73.444024,45.311485,62.4],[-73.442122,45.307913,62.8],[-73.440309,45.304378,63.8],[-73.440146,45.300355,63.8],[-73.439092,45.296315,65.2],[-73.435681,45.292761,66.8],[-73.432118,45.288956,66.6],[-73.430552,45.285953,65.4],[-73.431777,45.282621,66.2],[-73.432464,45.278929,67.4],[-73.433104,45.275529,68.4],[-73.433776,45.271985,72.4],[-73.434477,45.268343,72.4],[-73.435209,45.264564,72.2],[-73.435515,45.262922,72.8],[-73.436133,45.259543,75.8],[-73.437268,45.256622,75.0],[-73.436995,45.254034,74.2],[-73.437758,45.249842,74.8],[-73.438453,45.2459,75.2],[-73.439192,45.241925,76.6],[-73.439879,45.238147,76.6],[-73.44055,45.234475,76.0],[-73.441192,45.23076,78.8],[-73.441825,45.226813,78.2],[-73.442549,45.222958,77.6],[-73.443243,45.219521,77.8],[-73.443998,45.215697,78.2],[-73.444663,45.212212,77.2],[-73.445402,45.208608,78.0],[-73.446194,45.20488,80.4],[-73.447049,45.20084,83.2],[-73.448101,45.196994,83.4],[-73.445228,45.195175,82.0],[-73.435988,45.19551,78.0],[-73.425967,45.195835,80.2],[-73.416713,45.194306,79.2],[-73.416012,45.193809,77.6],[-73.410269,45.192204,76.2],[-73.406182,45.188335,76.0],[-73.403237,45.184866,79.2],[-73.398692,45.181156,77.0],[-73.393951,45.177363,74.2],[-73.388357,45.174107,74.2],[-73.383173,45.170917,74.6],[-73.378183,45.167611,75.0],[-73.374796,45.163707,77.0],[-73.370811,45.160293,79.8],[-73.369446,45.15607,79.4],[-73.367449,45.151815,77.2],[-73.363859,45.147573,77.0],[-73.362593,45.143068,77.4],[-73.362367,45.138894,78.0],[-73.363308,45.135298,79.6],[-73.363922,45.131474,80.4],[-73.363869,45.127281,80.6],[-73.363897,45.12308,80.0],[-73.364103,45.118883,81.0],[-73.365195,45.114656,78.8],[-73.3674,45.110908,75.6],[-73.368707,45.107236,82.8],[-73.369928,45.102697,75.6],[-73.371262,45.098605,75.0],[-73.372813,45.094207,74.2],[-73.373533,45.089773,72.6],[-73.373705,45.087379,72.2],[-73.373192,45.084256,69.0],[-73.370769,45.08098,68.2],[-73.364257,45.079905,63.2],[-73.358663,45.078428,64.4],[-73.352508,45.07688,60.4],[-73.347435,45.074633,61.6],[-73.343578,45.070788,61.6],[-73.34249,45.067672,57.6],[-73.338785,45.066179,53.8],[-73.333427,45.064989,63.6],[-73.328791,45.063952,68.4],[-73.319812,45.063396,54.8],[-73.312581,45.063465,58.8],[-73.304887,45.063559,62.2],[-73.299049,45.062408,59.8],[-73.29908,45.057641,56.4],[-73.299098,45.052896,54.2],[-73.295701,45.049504,54.2],[-73.29148,45.046925,61.0],[-73.291359,45.043678,64.8],[-73.291356,45.040482,67.6],[-73.29239,45.036683,69.2],[-73.292343,45.032576,71.4],[-73.292477,45.02844,72.0],[-73.293493,45.024257,67.8],[-73.294229,45.020015,68.8],[-73.295297,45.015901,65.8],[-73.29654,45.012115,60.0],[-73.296724,45.011516,59.8],[-73.295242,45.00901,62.6],[-73.295415,45.005405,64.0],[-73.296124,45.001223,65.2],[-73.296158,44.996899,67.6],[-73.295917,44.992043,67.6],[-73.296154,44.98738,62.4],[-73.297448,44.982897,61.8],[-73.299127,44.978447,59.2],[-73.301591,44.973976,57.6],[-73.302658,44.969351,58.4],[-73.302085,44.9653,57.4],[-73.29456,44.965229,58.0],[-73.286819,44.965271,59.6],[-73.281053,44.962403,61.0],[-73.280428,44.962128,61.6],[-73.277276,44.959808,63.6],[-73.273332,44.956349,61.2],[-73.270982,44.952079,59.0],[-73.273031,44.948123,60.4],[-73.274421,44.944324,64.4],[-73.27482,44.940064,60.4],[-73.273221,44.935727,61.4],[-73.273756,44.932951,66.8],[-73.27448,44.928486,59.0],[-73.274167,44.924229,58.6],[-73.274734,44.920077,53.8],[-73.276977,44.916333,52.0],[-73.279042,44.912853,51.8],[-73.28006,44.909539,52.4],[-73.278047,44.906048,52.8],[-73.273658,44.903795,52.2],[-73.273863,44.90115,53.8],[-73.275208,44.898432,55.6],[-73.276912,44.895342,54.6],[-73.278216,44.891261,51.6],[-73.278579,44.887422,54.8],[-73.274383,44.885124,57.4],[-73.272039,44.880881,52.4],[-73.272036,44.876345,53.0],[-73.270421,44.871721,52.0],[-73.268521,44.867528,51.4],[-73.264834,44.864134,56.6],[-73.259649,44.861699,57.0],[-73.259148,44.857124,52.8],[-73.260061,44.852986,55.0],[-73.26287,44.850017,55.2],[-73.265719,44.847051,59.0],[-73.268282,44.842545,52.6],[-73.270349,44.838177,51.4],[-73.272477,44.834389,55.6],[-73.274165,44.830573,54.2],[-73.276832,44.826418,51.6],[-73.279552,44.823022,50.4],[-73.283974,44.822276,51.0],[-73.288464,44.820291,53.8],[-73.290099,44.817011,53.6],[-73.291971,44.812579,53.6],[-73.291805,44.808263,53.4],[-73.291804,44.804768,61.0],[-73.292107,44.800441,59.0],[-73.292429,44.796065,61.2],[-73.292765,44.791463,61.4],[-73.293116,44.786982,62.8],[-73.293442,44.782503,63.0],[-73.293839,44.777394,58.2],[-73.293898,44.772451,54.6],[-73.292136,44.767924,56.0],[-73.291714,44.767514,57.2],[-73.287766,44.764306,58.8],[-73.285561,44.761436,69.2],[-73.286327,44.757368,70.4],[-73.287252,44.752658,62.8],[-73.288296,44.747497,55.4],[-73.289104,44.743324,61.6],[-73.28989,44.739243,65.2],[-73.290859,44.734752,63.4],[-73.29166,44.730641,67.8],[-73.292438,44.726744,71.2],[-73.293283,44.722572,73.4],[-73.295358,44.71883,77.0],[-73.297667,44.71452,75.2],[-73.299798,44.709786,70.2],[-73.301618,44.705707,70.6],[-73.303122,44.702336,77.2],[-73.304172,44.699989,86.8],[-73.305755,44.696347,83.2],[-73.30793,44.691845,78.0],[-73.310035,44.688844,84.8],[-73.312592,44.685083,82.0],[-73.31491,44.681649,87.0],[-73.317981,44.67749,77.0],[-73.321183,44.671786,54.4],[-73.323006,44.667455,56.0],[-73.322578,44.664123,58.8],[-73.322127,44.660784,67.0],[-73.321103,44.656908,66.6],[-73.317875,44.652263,55.6],[-73.315258,44.647783,56.2],[-73.3114,44.645253,58.8],[-73.304938,44.645532,62.6],[-73.298084,44.646131,63.8],[-73.290966,44.646779,66.6],[-73.287014,44.647006,75.8],[-73.283672,44.64617,85.6],[-73.281575,44.644718,91.8],[-73.278676,44.641805,86.6],[-73.272109,44.637702,62.0],[-73.265386,44.634914,53.2],[-73.259648,44.632687,54.4],[-73.25395,44.630798,56.6],[-73.247603,44.628733,53.8],[-73.241604,44.626647,53.8],[-73.235778,44.625114,53.6],[-73.230489,44.624652,53.8],[-73.224123,44.624117,53.4],[-73.218129,44.623638,55.0],[-73.212612,44.622418,57.0],[-73.211594,44.620205,64.8],[-73.211915,44.617854,70.6],[-73.212249,44.614591,74.2],[-73.210796,44.611286,81.2],[-73.207305,44.607966,79.2],[-73.204328,44.602569,68.8],[-73.202351,44.600122,80.0],[-73.198991,44.598248,82.8],[-73.194802,44.596173,87.4],[-73.188384,44.594584,81.8],[-73.183252,44.593325,90.2],[-73.178283,44.59194,93.0],[-73.171713,44.590248,93.8],[-73.16703,44.589519,90.6],[-73.165364,44.584608,86.2],[-73.160358,44.57989,74.2],[-73.157789,44.57376,55.0],[-73.15516,44.569099,56.6],[-73.157923,44.564977,55.0],[-73.159829,44.562475,66.4],[-73.161187,44.560263,75.6],[-73.162141,44.557312,75.2],[-73.163109,44.553476,79.2],[-73.163895,44.551047,87.2],[-73.163734,44.55069,86.8],[-73.16227,44.548855,89.2],[-73.158145,44.547616,95.6],[-73.153801,44.545948,98.8],[-73.149789,44.544411,104.2],[-73.14666,44.542023,107.4],[-73.142166,44.539624,106.0],[-73.139261,44.537675,111.4],[-73.135011,44.53547,117.8],[-73.133057,44.532372,122.6],[-73.130288,44.529179,124.0],[-73.126261,44.526831,124.2],[-73.124497,44.523309,127.2],[-73.123161,44.520367,132.0],[-73.123482,44.51726,132.6],[-73.120538,44.512575,125.0],[-73.117067,44.509984,127.2],[-73.114688,44.506588,124.0],[-73.112604,44.502544,124.6],[-73.11161,44.49794,119.8],[-73.111077,44.495021,125.2],[-73.109431,44.493032,126.6],[-73.110456,44.490934,126.2],[-73.112539,44.488403,125.0],[-73.114217,44.485475,117.6],[-73.11497,44.480393,105.0],[-73.11387,44.478415,120.2],[-73.113457,44.476062,128.2],[-73.113724,44.475018,132.2],[-73.113313,44.472909,138.8],[-73.113159,44.469793,144.8],[-73.112923,44.465781,142.0],[-73.1129,44.465311,141.2],[-73.10576,44.465142,129.0],[-73.098894,44.463882,130.4],[-73.095166,44.462578,141.8],[-73.092826,44.461858,152.2],[-73.090229,44.460866,166.0],[-73.086786,44.459457,171.4],[-73.082695,44.457756,181.0],[-73.078461,44.456046,192.4],[-73.073854,44.454506,186.4],[-73.065714,44.452257,177.6],[-73.060676,44.449725,172.2],[-73.063189,44.445251,169.8],[-73.065468,44.44103,170.4],[-73.068467,44.437347,172.4],[-73.070278,44.435059,188.2],[-73.070458,44.433389,198.0],[-73.062917,44.431994,183.8],[-73.064016,44.430054,200.6],[-73.064947,44.428319,212.0],[-73.066112,44.426207,220.2],[-73.06731,44.423935,225.6],[-73.067818,44.421363,228.0],[-73.067033,44.420109,233.6],[-73.065784,44.418036,241.8],[-73.064404,44.415778,253.2],[-73.063919,44.414998,258.2],[-73.062575,44.412838,267.0],[-73.055982,44.40819,242.6],[-73.049181,44.402889,208.6],[-73.044726,44.40257,215.0],[-73.038512,44.400937,193.0],[-73.033707,44.400043,204.8],[-73.026094,44.398957,191.0],[-73.014633,44.397983,138.4],[-73.010124,44.399151,122.8],[-73.003238,44.399281,120.4],[-72.997087,44.397993,124.4],[-72.990047,44.397571,121.2],[-72.983405,44.397139,128.2],[-72.977481,44.394686,125.2],[-72.972237,44.393038,132.0],[-72.966095,44.390303,121.8],[-72.958883,44.388284,121.6],[-72.951738,44.386145,122.0],[-72.946646,44.383889,128.6],[-72.942392,44.381113,127.0],[-72.936355,44.381019,125.6],[-72.930603,44.379655,126.0],[-72.925745,44.37949,136.0],[-72.919267,44.378747,127.6],[-72.913284,44.377093,130.6],[-72.909404,44.374403,133.4],[-72.90647,44.37251,137.2],[-72.905909,44.370774,144.2]]}},{"type":"Feature","properties":{"date":"2022-06-18","source_file":"5.gpx","dist_m":328704,"vert_up_m":2125,"vert_down_m":2323,"points":772},"geometry":{"type":"LineString","coordinates":[[-72.905975,44.37022,152.4],[-72.905781,44.37085,146.4],[-72.905838,44.371199,144.6],[-72.906621,44.373154,139.4],[-72.909383,44.374452,137.6],[-72.912775,44.376747,137.2],[-72.917277,44.378248,134.4],[-72.916291,44.378754,132.8],[-72.914095,44.378573,133.6],[-72.912224,44.378969,136.2],[-72.909117,44.378705,136.4],[-72.904335,44.377952,144.6],[-72.898382,44.377147,137.2],[-72.890803,44.375266,135.8],[-72.884562,44.373498,141.2],[-72.87874,44.373122,141.4],[-72.872782,44.371352,144.0],[-72.865375,44.369414,140.8],[-72.859405,44.367853,144.8],[-72.853185,44.366217,140.4],[-72.846936,44.364572,141.8],[-72.842295,44.363192,149.0],[-72.837819,44.362422,155.0],[-72.832944,44.36191,157.4],[-72.828095,44.361258,159.4],[-72.823516,44.359618,163.4],[-72.819819,44.359764,172.8],[-72.816948,44.360661,182.2],[-72.814055,44.361403,189.4],[-72.81089,44.361594,196.0],[-72.806117,44.36198,189.6],[-72.798801,44.359092,166.0],[-72.793131,44.356614,161.4],[-72.788147,44.354309,161.6],[-72.784178,44.353007,172.4],[-72.778214,44.352127,166.6],[-72.773861,44.349522,169.0],[-72.769795,44.346773,169.0],[-72.764772,44.344458,163.4],[-72.760114,44.342103,163.0],[-72.75977,44.34166,163.0],[-72.75656,44.340198,165.8],[-72.753983,44.337682,168.8],[-72.749884,44.334595,164.2],[-72.748837,44.332714,166.0],[-72.750279,44.331741,163.2],[-72.746738,44.329105,163.0],[-72.744724,44.325623,165.0],[-72.742588,44.323531,174.6],[-72.738012,44.32168,168.0],[-72.732966,44.320235,168.8],[-72.728883,44.317833,168.4],[-72.725834,44.315368,173.4],[-72.721707,44.312441,165.6],[-72.717123,44.311386,168.8],[-72.712511,44.312075,170.4],[-72.707685,44.313316,171.4],[-72.702521,44.312727,168.8],[-72.698508,44.31061,170.2],[-72.69715,44.307488,172.2],[-72.694861,44.30423,171.2],[-72.693207,44.30158,176.0],[-72.691256,44.300177,187.8],[-72.689733,44.298822,197.2],[-72.687736,44.297655,206.4],[-72.683342,44.295023,192.0],[-72.679614,44.293022,194.8],[-72.673477,44.291732,183.2],[-72.668598,44.290387,184.0],[-72.664906,44.287873,184.8],[-72.662926,44.285289,189.0],[-72.660844,44.281969,187.0],[-72.658354,44.278518,187.8],[-72.653103,44.276477,187.0],[-72.649458,44.275573,197.8],[-72.647353,44.27579,200.8],[-72.642127,44.275802,190.4],[-72.638532,44.273293,192.2],[-72.635167,44.271881,203.8],[-72.631882,44.270751,210.6],[-72.62727,44.268865,206.2],[-72.622294,44.265588,193.0],[-72.617771,44.263483,192.4],[-72.613185,44.261435,193.0],[-72.607975,44.258899,189.2],[-72.602126,44.257848,189.2],[-72.596271,44.256475,189.8],[-72.592654,44.258762,190.2],[-72.588752,44.261794,189.4],[-72.585054,44.261299,190.8],[-72.581332,44.260036,193.6],[-72.579904,44.259921,192.0],[-72.576878,44.258534,192.6],[-72.576167,44.257383,193.4],[-72.572624,44.254387,194.6],[-72.570386,44.25208,195.4],[-72.570968,44.250893,199.4],[-72.569845,44.249605,210.2],[-72.568785,44.24843,222.8],[-72.567962,44.247366,235.8],[-72.567222,44.246248,245.6],[-72.566505,44.245134,256.0],[-72.565602,44.243855,263.6],[-72.564375,44.242582,279.4],[-72.563354,44.241282,288.0],[-72.563276,44.238494,282.4],[-72.555479,44.237062,219.4],[-72.554185,44.235506,201.0],[-72.55361,44.231573,196.8],[-72.552533,44.227813,199.0],[-72.551099,44.224384,201.4],[-72.546877,44.221584,199.6],[-72.542597,44.219263,201.2],[-72.542641,44.219135,201.4],[-72.542641,44.219135,201.4],[-72.542641,44.219135,201.4],[-72.542641,44.219135,201.4],[-72.542641,44.219135,201.4],[-72.542641,44.219135,201.4],[-72.542641,44.219135,201.4],[-72.542641,44.219135,201.4],[-72.542641,44.219135,201.4],[-72.542641,44.219135,201.4],[-72.542641,44.219135,201.4],[-72.542641,44.219135,201.4],[-72.542641,44.219135,201.4],[-72.542641,44.219135,201.4],[-72.542641,44.219135,201.4],[-72.542641,44.219135,201.2],[-72.542641,44.219135,201.2],[-72.542641,44.219135,201.4],[-72.542641,44.219135,201.4],[-72.542641,44.219135,201.4],[-72.542641,44.219135,201.4],[-72.542641,44.219135,201.4],[-72.542641,44.219135,201.4],[-72.542641,44.219135,201.4],[-72.542641,44.219135,201.4],[-72.542641,44.219135,201.4],[-72.542641,44.219135,201.4],[-72.542641,44.219135,201.4],[-72.542641,44.219135,201.4],[-72.541941,44.219106,201.4],[-72.537958,44.217244,204.2],[-72.534343,44.214643,208.2],[-72.529042,44.213627,205.0],[-72.523235,44.213055,208.0],[-72.518772,44.211114,210.4],[-72.514262,44.208533,207.4],[-72.510487,44.20518,210.0],[-72.505916,44.204091,212.4],[-72.50451,44.202746,224.8],[-72.502111,44.199879,214.6],[-72.498309,44.199121,219.8],[-72.49584,44.197268,221.6],[-72.492831,44.196515,235.6],[-72.491159,44.195924,250.6],[-72.490491,44.194432,256.8],[-72.489605,44.192769,264.2],[-72.487696,44.192547,284.4],[-72.486117,44.192364,300.2],[-72.484545,44.192097,313.4],[-72.482563,44.191887,323.2],[-72.480865,44.191555,329.2],[-72.479824,44.188595,335.6],[-72.476667,44.186132,344.8],[-72.473336,44.185255,354.4],[-72.46907,44.184834,357.4],[-72.465716,44.184387,359.8],[-72.46371,44.179088,348.4],[-72.461384,44.176941,358.6],[-72.459907,44.175006,371.2],[-72.457424,44.173555,382.0],[-72.455221,44.170344,379.6],[-72.450567,44.166888,376.4],[-72.447272,44.164017,387.4],[-72.449537,44.160275,368.8],[-72.450432,44.15863,377.8],[-72.448934,44.156861,384.2],[-72.446875,44.155331,393.4],[-72.444671,44.153738,395.8],[-72.441108,44.15111,389.4],[-72.437492,44.148481,395.2],[-72.43645,44.147714,400.4],[-72.434442,44.14486,404.8],[-72.433591,44.141507,409.0],[-72.432429,44.13665,406.8],[-72.431317,44.132402,408.8],[-72.430165,44.127432,402.6],[-72.430605,44.123104,408.6],[-72.431802,44.120921,420.8],[-72.433476,44.117313,422.0],[-72.433745,44.1128,421.6],[-72.433293,44.107412,417.4],[-72.433191,44.104455,428.4],[-72.435005,44.103223,440.6],[-72.436859,44.102187,453.0],[-72.439242,44.102097,464.6],[-72.441749,44.101646,475.4],[-72.443589,44.100525,487.4],[-72.445301,44.099016,500.0],[-72.447918,44.09775,508.6],[-72.45046,44.097113,518.6],[-72.453128,44.0966,527.2],[-72.454888,44.095437,537.6],[-72.457112,44.093375,544.8],[-72.459526,44.088702,535.4],[-72.462181,44.081914,498.6],[-72.461697,44.07483,468.0],[-72.465235,44.0693,446.6],[-72.467346,44.063894,440.6],[-72.463406,44.058985,418.8],[-72.468215,44.053751,394.6],[-72.474146,44.048834,364.0],[-72.474403,44.042361,342.8],[-72.474744,44.036234,329.2],[-72.473727,44.031078,327.0],[-72.471475,44.025812,319.2],[-72.467826,44.020737,313.2],[-72.464427,44.015456,304.6],[-72.462577,44.010341,299.6],[-72.459124,44.005527,293.8],[-72.454419,44.001007,287.8],[-72.449376,43.998418,291.6],[-72.446966,43.993524,279.4],[-72.447833,43.988656,276.4],[-72.448367,43.984212,272.2],[-72.447675,43.979151,272.0],[-72.450832,43.974843,264.8],[-72.454924,43.971417,262.6],[-72.45964,43.968145,264.2],[-72.463691,43.963745,255.6],[-72.46508,43.958344,246.4],[-72.463819,43.953427,247.0],[-72.46177,43.950515,251.2],[-72.459857,43.947147,251.8],[-72.462676,43.942146,239.2],[-72.467208,43.938417,226.4],[-72.466507,43.933903,225.8],[-72.466637,43.928849,224.6],[-72.46645,43.924535,223.8],[-72.471311,43.921257,216.6],[-72.473042,43.917689,222.4],[-72.476344,43.915657,223.8],[-72.481885,43.911992,210.2],[-72.483255,43.906714,207.6],[-72.485689,43.901966,208.0],[-72.485882,43.897691,210.8],[-72.485753,43.89375,214.4],[-72.490981,43.891115,205.6],[-72.493593,43.888106,208.6],[-72.497952,43.88344,196.0],[-72.501688,43.881148,207.8],[-72.499168,43.876335,192.6],[-72.498994,43.870779,192.8],[-72.499174,43.865879,190.8],[-72.499716,43.861309,191.6],[-72.501357,43.856631,189.6],[-72.5043,43.853691,194.4],[-72.507244,43.852073,197.0],[-72.511133,43.847888,187.4],[-72.511668,43.842612,186.8],[-72.514099,43.84012,192.2],[-72.514668,43.836838,198.6],[-72.512089,43.832492,187.4],[-72.516462,43.829161,189.8],[-72.51875,43.824258,183.2],[-72.521018,43.820959,185.4],[-72.517573,43.818197,180.4],[-72.51327,43.814993,185.0],[-72.510967,43.811016,182.6],[-72.50807,43.806803,178.0],[-72.504927,43.803128,176.2],[-72.503685,43.798265,172.2],[-72.499838,43.794562,170.6],[-72.496539,43.7923,177.4],[-72.492365,43.790027,181.2],[-72.486259,43.786546,172.6],[-72.480818,43.784648,176.6],[-72.476913,43.782363,184.8],[-72.470777,43.780276,170.6],[-72.464109,43.779549,165.2],[-72.459438,43.782057,167.0],[-72.458008,43.783457,181.6],[-72.452944,43.784178,175.8],[-72.446966,43.78098,163.6],[-72.445545,43.776225,165.6],[-72.445877,43.77401,180.8],[-72.446537,43.772376,189.0],[-72.447117,43.770199,201.4],[-72.446659,43.768014,209.0],[-72.449453,43.761624,162.8],[-72.450746,43.756523,161.6],[-72.44877,43.751744,161.2],[-72.445451,43.747834,165.4],[-72.442911,43.744479,169.0],[-72.439224,43.740091,162.4],[-72.435305,43.736251,160.6],[-72.434714,43.731674,158.2],[-72.43363,43.727306,159.0],[-72.429684,43.723818,159.6],[-72.423006,43.72231,155.6],[-72.418687,43.719312,156.4],[-72.418138,43.714853,155.0],[-72.416498,43.710288,153.6],[-72.415081,43.706539,154.2],[-72.412116,43.704278,163.0],[-72.405658,43.701172,149.8],[-72.403577,43.696274,150.8],[-72.400982,43.692247,154.2],[-72.399812,43.68796,153.4],[-72.397432,43.684332,155.8],[-72.392308,43.680962,151.8],[-72.388408,43.677449,152.6],[-72.385128,43.675536,164.0],[-72.380809,43.673261,162.0],[-72.375229,43.670564,160.4],[-72.368311,43.669153,160.2],[-72.36016,43.667129,144.6],[-72.353599,43.665749,144.4],[-72.348836,43.662856,144.4],[-72.345261,43.661462,155.0],[-72.340517,43.661031,154.2],[-72.334104,43.658217,141.2],[-72.329321,43.655481,146.0],[-72.322933,43.653235,142.2],[-72.317696,43.651487,140.0],[-72.311932,43.650126,145.0],[-72.310241,43.647282,150.8],[-72.308731,43.643899,162.2],[-72.307658,43.642693,176.4],[-72.306386,43.64159,188.6],[-72.304649,43.640072,199.8],[-72.300431,43.637064,196.8],[-72.29728,43.636746,205.8],[-72.29159,43.640701,175.0],[-72.28699,43.643334,180.0],[-72.280959,43.645141,179.0],[-72.278313,43.644531,191.2],[-72.275016,43.643117,196.8],[-72.269694,43.641323,189.8],[-72.265417,43.639115,197.8],[-72.261074,43.639496,205.2],[-72.257072,43.640792,210.0],[-72.252454,43.641883,210.0],[-72.251556,43.642731,212.4],[-72.250785,43.643088,214.0],[-72.247589,43.644258,214.6],[-72.243614,43.644077,217.6],[-72.238522,43.644118,220.6],[-72.232164,43.642951,218.6],[-72.228869,43.641058,229.4],[-72.225848,43.63976,239.2],[-72.221911,43.638389,230.2],[-72.216778,43.637758,231.8],[-72.211503,43.636634,233.6],[-72.207257,43.634925,241.6],[-72.204946,43.635224,253.2],[-72.20336,43.636273,266.4],[-72.20156,43.637421,278.2],[-72.197803,43.638524,282.8],[-72.19173,43.639634,281.4],[-72.189186,43.641877,288.2],[-72.187039,43.647667,267.0],[-72.182263,43.647889,264.8],[-72.177287,43.644108,260.8],[-72.171144,43.641912,264.0],[-72.167681,43.637747,260.0],[-72.164784,43.634264,263.8],[-72.158985,43.631304,263.4],[-72.154165,43.627168,261.2],[-72.14981,43.622828,262.2],[-72.146927,43.6192,271.0],[-72.145646,43.614937,276.6],[-72.140555,43.611224,275.2],[-72.133911,43.608402,262.6],[-72.128082,43.604488,260.4],[-72.123557,43.600925,263.6],[-72.118981,43.597588,267.6],[-72.114471,43.595203,273.8],[-72.111504,43.592373,283.0],[-72.109558,43.588658,287.4],[-72.107689,43.585625,298.0],[-72.105546,43.583443,312.2],[-72.103325,43.58123,325.2],[-72.09958,43.582057,328.8],[-72.094621,43.581825,333.6],[-72.090928,43.580819,344.2],[-72.091026,43.580262,348.2],[-72.091217,43.578755,358.2],[-72.090569,43.577782,375.0],[-72.089669,43.576459,388.4],[-72.088959,43.575444,400.4],[-72.088089,43.574113,412.8],[-72.087326,43.572877,424.6],[-72.086252,43.571505,437.8],[-72.085405,43.570109,448.2],[-72.084123,43.56761,455.0],[-72.08195,43.563155,444.6],[-72.082335,43.557565,433.6],[-72.083336,43.553787,435.2],[-72.082619,43.549576,438.8],[-72.082238,43.544649,425.4],[-72.081767,43.540764,435.4],[-72.080339,43.536548,426.2],[-72.080637,43.529677,387.2],[-72.081086,43.526207,385.6],[-72.078537,43.522762,383.0],[-72.078553,43.52085,394.4],[-72.077457,43.518376,401.0],[-72.07432,43.514157,392.6],[-72.071231,43.511837,405.2],[-72.068357,43.510021,412.4],[-72.064629,43.507494,415.4],[-72.062556,43.503391,412.4],[-72.059559,43.500652,423.4],[-72.057448,43.49843,432.0],[-72.05319,43.496565,435.8],[-72.050618,43.495559,447.8],[-72.048932,43.494084,461.4],[-72.04822,43.493252,464.6],[-72.047055,43.490533,464.8],[-72.04339,43.486404,462.2],[-72.040052,43.483349,469.0],[-72.040136,43.480263,474.4],[-72.042548,43.477002,477.4],[-72.042909,43.475201,491.8],[-72.042947,43.473405,501.8],[-72.042999,43.470638,507.6],[-72.04143,43.466085,486.0],[-72.040667,43.459709,470.0],[-72.04,43.454576,460.8],[-72.037179,43.451501,472.0],[-72.035157,43.451653,487.4],[-72.031757,43.451789,498.0],[-72.027316,43.450708,489.2],[-72.025025,43.443032,440.2],[-72.018487,43.439024,409.2],[-72.011354,43.438081,408.8],[-72.00481,43.438652,408.6],[-72.002398,43.434713,409.8],[-72.001103,43.432362,424.4],[-71.999843,43.431111,434.2],[-71.998405,43.429719,444.0],[-71.996476,43.427736,449.2],[-71.993809,43.423796,440.8],[-71.990178,43.41813,420.4],[-71.985667,43.414726,423.2],[-71.981583,43.412917,434.0],[-71.978374,43.411349,445.4],[-71.974491,43.409057,445.0],[-71.969056,43.404128,427.8],[-71.961465,43.399093,381.6],[-71.953528,43.394171,335.8],[-71.949894,43.389019,336.8],[-71.946978,43.38503,336.0],[-71.945204,43.379537,319.8],[-71.944395,43.375737,333.0],[-71.942735,43.370238,318.4],[-71.940384,43.364728,306.4],[-71.938171,43.36035,306.0],[-71.938778,43.355503,303.0],[-71.938817,43.350585,303.8],[-71.934995,43.346367,305.6],[-71.936155,43.340934,292.8],[-71.940056,43.336034,276.2],[-71.946943,43.331467,252.4],[-71.94991,43.328196,254.4],[-71.948819,43.323946,250.0],[-71.942716,43.323303,251.8],[-71.937647,43.320421,250.6],[-71.933932,43.317166,248.8],[-71.931839,43.314984,261.2],[-71.928704,43.313222,264.6],[-71.927712,43.312252,261.2],[-71.922116,43.309818,243.6],[-71.913362,43.307148,218.4],[-71.908438,43.303437,211.0],[-71.906254,43.298619,203.4],[-71.900801,43.295202,194.4],[-71.895356,43.292069,191.4],[-71.888669,43.290769,190.4],[-71.884498,43.289233,192.2],[-71.879272,43.291635,183.4],[-71.87251,43.291201,184.2],[-71.867288,43.288638,186.4],[-71.861589,43.288601,188.0],[-71.85565,43.290234,184.4],[-71.848774,43.290233,179.6],[-71.841417,43.289645,173.0],[-71.833695,43.288789,162.2],[-71.82964,43.287526,176.4],[-71.826208,43.285483,181.0],[-71.820677,43.282517,169.6],[-71.81394,43.279605,164.8],[-71.807345,43.276426,157.8],[-71.802967,43.274071,168.2],[-71.79863,43.27422,170.4],[-71.792946,43.272891,164.4],[-71.789363,43.26974,173.2],[-71.782749,43.267586,157.0],[-71.775699,43.264991,153.8],[-71.77211,43.262508,161.4],[-71.76814,43.258971,163.2],[-71.76447,43.255587,163.0],[-71.760233,43.251699,160.2],[-71.756179,43.247758,159.4],[-71.750827,43.246305,157.8],[-71.745097,43.247154,155.0],[-71.742701,43.242905,163.4],[-71.739865,43.241076,174.2],[-71.734853,43.238089,171.8],[-71.729078,43.234039,154.8],[-71.724181,43.230403,157.6],[-71.71921,43.226693,146.0],[-71.714282,43.223016,142.2],[-71.713165,43.22216,142.6],[-71.708226,43.221407,148.0],[-71.703993,43.220379,156.6],[-71.701463,43.219683,168.0],[-71.698876,43.218886,181.4],[-71.697171,43.217347,192.4],[-71.695283,43.214731,197.4],[-71.691858,43.210131,190.8],[-71.690388,43.208133,210.8],[-71.688462,43.206822,221.2],[-71.686815,43.205733,234.2],[-71.684851,43.203145,235.4],[-71.679231,43.196759,199.0],[-71.674778,43.191569,187.8],[-71.669843,43.190286,189.4],[-71.662884,43.188796,187.2],[-71.658674,43.186588,192.6],[-71.65531,43.187106,207.2],[-71.652484,43.186285,209.8],[-71.649468,43.183062,213.8],[-71.647377,43.178377,207.4],[-71.645522,43.174574,214.8],[-71.641494,43.168298,173.4],[-71.637351,43.161888,148.4],[-71.633755,43.158341,148.2],[-71.630913,43.154611,151.0],[-71.630319,43.151881,154.6],[-71.629849,43.14989,169.4],[-71.62921,43.146935,169.4],[-71.627867,43.142031,161.4],[-71.62466,43.137021,148.8],[-71.621398,43.134831,161.2],[-71.620625,43.133664,173.0],[-71.61988,43.132468,185.2],[-71.619084,43.131388,197.2],[-71.618311,43.130269,207.2],[-71.617591,43.128933,219.2],[-71.616925,43.12772,231.0],[-71.616361,43.12649,241.8],[-71.616074,43.125244,253.4],[-71.616244,43.123921,266.6],[-71.616671,43.122577,279.4],[-71.617106,43.12097,288.2],[-71.616948,43.11861,296.4],[-71.616592,43.115946,304.8],[-71.618549,43.112069,294.0],[-71.618017,43.106091,281.4],[-71.616295,43.101089,282.4],[-71.615786,43.09636,276.2],[-71.616656,43.089519,244.6],[-71.618184,43.08621,258.2],[-71.617526,43.081808,254.4],[-71.61512,43.076447,250.0],[-71.614007,43.073786,264.2],[-71.612747,43.07201,278.4],[-71.609567,43.069313,279.8],[-71.604628,43.064285,259.2],[-71.600747,43.057511,228.0],[-71.597319,43.053815,236.2],[-71.599729,43.048702,221.2],[-71.601442,43.043696,222.0],[-71.59837,43.037669,201.0],[-71.600192,43.031306,189.2],[-71.600311,43.023539,142.0],[-71.599777,43.018147,123.4],[-71.595008,43.017124,125.8],[-71.589914,43.015515,124.4],[-71.585752,43.013564,126.2],[-71.584112,43.01096,135.2],[-71.582963,43.009267,146.2],[-71.581697,43.007392,157.2],[-71.579746,43.005489,165.6],[-71.577379,43.003305,176.2],[-71.574682,43.000873,185.0],[-71.572529,42.998054,189.2],[-71.569897,42.996756,204.6],[-71.566134,42.995469,208.4],[-71.56333,42.994353,224.0],[-71.561068,42.993056,230.2],[-71.555942,42.988243,202.4],[-71.55415,42.983394,194.4],[-71.553145,42.979013,200.2],[-71.552996,42.976529,212.6],[-71.550899,42.972143,208.8],[-71.546892,42.967604,198.0],[-71.543679,42.964642,173.8],[-71.53792,42.959424,156.8],[-71.535806,42.957239,170.8],[-71.534267,42.956048,179.2],[-71.53241,42.953504,176.6],[-71.529316,42.947882,158.6],[-71.527286,42.941269,121.6],[-71.526293,42.937564,116.2],[-71.52543,42.933205,119.2],[-71.522373,42.929925,126.6],[-71.520805,42.924556,115.8],[-71.519022,42.919438,114.4],[-71.51685,42.914436,113.0],[-71.51638,42.909854,109.0],[-71.51626,42.904944,109.2],[-71.512996,42.900396,100.8],[-71.510804,42.896872,108.6],[-71.508754,42.893358,111.6],[-71.506136,42.889934,108.6],[-71.504268,42.886073,107.6],[-71.501342,42.881866,104.4],[-71.497527,42.878028,104.8],[-71.495266,42.873452,103.0],[-71.493515,42.86845,101.2],[-71.493584,42.86172,83.4],[-71.491273,42.857996,90.6],[-71.491746,42.853528,87.8],[-71.493307,42.849068,85.2],[-71.492842,42.843326,80.0],[-71.490875,42.839637,86.4],[-71.49096,42.836913,89.4],[-71.491241,42.832292,88.6],[-71.491086,42.827726,87.0],[-71.489193,42.823434,87.4],[-71.486753,42.818969,88.2],[-71.485886,42.816116,97.6],[-71.485265,42.812075,97.4],[-71.484666,42.807841,93.6],[-71.486192,42.804371,99.2],[-71.487807,42.801131,101.8],[-71.486176,42.796484,95.8],[-71.484717,42.791696,90.8],[-71.482085,42.787602,89.2],[-71.479034,42.783702,88.8],[-71.477706,42.781031,89.4],[-71.476286,42.778257,95.6],[-71.475089,42.774847,96.0],[-71.471218,42.772423,88.6],[-71.468009,42.768279,88.0],[-71.467612,42.765252,81.8],[-71.465751,42.761632,78.4],[-71.464088,42.757918,78.4],[-71.462036,42.753428,79.2],[-71.461074,42.751342,75.0],[-71.459991,42.747978,81.2],[-71.458961,42.744766,89.0],[-71.459679,42.741714,91.4],[-71.457511,42.737437,85.8],[-71.453019,42.734822,88.2],[-71.44957,42.730645,93.0],[-71.446495,42.726078,87.6],[-71.443764,42.7221,80.6],[-71.442688,42.71791,87.2],[-71.442825,42.714653,76.8],[-71.44249,42.71188,85.0],[-71.441544,42.707532,81.2],[-71.440957,42.70171,79.4],[-71.440095,42.698575,80.4],[-71.435811,42.693803,79.2],[-71.431765,42.687851,71.4],[-71.429345,42.684313,84.2],[-71.425311,42.679855,80.6],[-71.422471,42.674428,66.8],[-71.418126,42.670381,64.8],[-71.413141,42.667017,65.8],[-71.409312,42.663432,69.8],[-71.406997,42.659682,71.8],[-71.406503,42.657781,77.8],[-71.403593,42.65471,76.2],[-71.401752,42.650582,68.6],[-71.399723,42.64724,75.8],[-71.3964,42.643468,70.2],[-71.389963,42.64147,63.0],[-71.384763,42.639918,69.8],[-71.381543,42.637791,72.8],[-71.376763,42.63358,63.0],[-71.373015,42.630145,66.8],[-71.369626,42.627045,68.6],[-71.367343,42.625175,78.6],[-71.367323,42.622258,80.8],[-71.365616,42.618788,76.8],[-71.362716,42.615341,80.6],[-71.358925,42.611962,83.6],[-71.357365,42.607978,85.2],[-71.35408,42.603387,79.0],[-71.352612,42.597977,73.4],[-71.352437,42.595127,75.2],[-71.350351,42.591562,78.8],[-71.348101,42.587613,74.4],[-71.345623,42.58388,77.2],[-71.341352,42.579935,68.6],[-71.337313,42.577212,74.2],[-71.335049,42.575486,81.4],[-71.333434,42.572571,83.0],[-71.330519,42.569378,84.2],[-71.329104,42.568284,95.4],[-71.327546,42.567066,106.4],[-71.324963,42.564303,99.8],[-71.321188,42.560658,100.0],[-71.317408,42.557143,100.2],[-71.313862,42.553703,101.0],[-71.30962,42.549257,90.0],[-71.306764,42.545267,93.2],[-71.304776,42.541427,89.2],[-71.301211,42.535982,71.0],[-71.297516,42.533356,80.2],[-71.294731,42.530543,84.2],[-71.291783,42.526772,78.2],[-71.289439,42.523695,87.4],[-71.287844,42.521425,92.8],[-71.285253,42.516874,80.4],[-71.284539,42.512981,83.0],[-71.285332,42.509313,89.6],[-71.284399,42.505883,91.4],[-71.281405,42.503637,98.0],[-71.277834,42.500959,85.8],[-71.278202,42.497253,86.4],[-71.278519,42.493404,88.0],[-71.279329,42.490552,84.8],[-71.277778,42.486181,70.8],[-71.273079,42.484412,69.0],[-71.269024,42.480745,69.2],[-71.264969,42.477118,70.6],[-71.261729,42.474139,71.8],[-71.258021,42.471433,72.8],[-71.252936,42.469061,72.8],[-71.248058,42.46684,78.8],[-71.243853,42.463831,83.8],[-71.239444,42.461375,89.6],[-71.234199,42.460508,94.6],[-71.231501,42.457322,99.0],[-71.230814,42.45272,101.6],[-71.228631,42.449132,102.2],[-71.223196,42.447099,99.8],[-71.218559,42.445607,96.2],[-71.213776,42.441442,92.0],[-71.210636,42.437623,92.6],[-71.207093,42.433352,93.2],[-71.202842,42.429125,88.2],[-71.196854,42.426959,87.4],[-71.191057,42.425792,83.2],[-71.184862,42.425203,82.8],[-71.179623,42.425594,76.8],[-71.173532,42.425259,71.8],[-71.168703,42.421994,66.0],[-71.162414,42.420507,60.6],[-71.157351,42.418479,55.4],[-71.15312,42.416161,52.0],[-71.149326,42.412859,46.8],[-71.146329,42.408856,47.8],[-71.141249,42.404861,46.6],[-71.136205,42.400909,41.8],[-71.131092,42.397985,43.8],[-71.126569,42.393996,46.4],[-71.123121,42.391175,46.8],[-71.118733,42.38827,49.8],[-71.112152,42.384687,46.4],[-71.106184,42.383088,45.0],[-71.101357,42.381716,45.0],[-71.0964,42.379552,43.2],[-71.094993,42.374839,40.6]]}}]}