{"type":"FeatureCollection","features":[{"type":"Feature","properties":{"date":"2023-09-01","source_file":"1.gpx","dist_m":16995,"vert_up_m":252,"vert_down_m":160,"points":267},"geometry":{"type":"LineString","coordinates":[[-123.569813,47.572799,187.1],[-123.569234,47.573337,193.7],[-123.569556,47.573617,200.2],[-123.569209,47.574119,207.0],[-123.568591,47.574566,207.1],[-123.568671,47.574919,209.1],[-123.568552,47.575504,215.4],[-123.567776,47.575808,219.0],[-123.567464,47.576227,224.1],[-123.567334,47.576751,229.8],[-123.567,47.577566,234.1],[-123.566264,47.578135,237.9],[-123.565679,47.578493,237.3],[-123.565538,47.578511,237.1],[-123.56502,47.578842,236.5],[-123.56482,47.579413,235.6],[-123.56444,47.579649,234.6],[-123.564202,47.579803,233.5],[-123.563638,47.580362,231.8],[-123.563091,47.580796,229.7],[-123.562222,47.581382,231.4],[-123.561573,47.581908,239.5],[-123.561,47.582382,246.0],[-123.560203,47.58278,255.9],[-123.559646,47.582908,263.0],[-123.559592,47.583308,270.7],[-123.559392,47.5836,277.6],[-123.559293,47.584184,286.3],[-123.559516,47.584988,294.3],[-123.559473,47.585171,297.2],[-123.559051,47.585619,306.5],[-123.559022,47.585734,311.4],[-123.558883,47.586082,317.9],[-123.558416,47.586554,321.8],[-123.557812,47.587015,325.7],[-123.557244,47.587679,329.4],[-123.556196,47.588012,335.6],[-123.55598,47.588003,339.0],[-123.555568,47.588184,342.2],[-123.555067,47.58838,346.2],[-123.554758,47.588522,349.4],[-123.55389,47.588849,354.2],[-123.553216,47.588881,358.3],[-123.552265,47.589289,356.6],[-123.551222,47.589143,356.0],[-123.550296,47.589356,354.9],[-123.549894,47.589871,356.2],[-123.549544,47.590207,360.0],[-123.549008,47.590456,363.2],[-123.548463,47.5909,367.9],[-123.548523,47.591265,372.4],[-123.548596,47.591768,376.8],[-123.548769,47.591892,376.5],[-123.548295,47.592422,370.4],[-123.547634,47.592856,365.8],[-123.54688,47.593198,358.8],[-123.546419,47.593689,358.4],[-123.546276,47.594023,354.3],[-123.545707,47.59434,346.8],[-123.545273,47.59469,342.2],[-123.544939,47.595123,334.5],[-123.545168,47.595332,328.5],[-123.544759,47.595424,321.7],[-123.544124,47.595414,309.1],[-123.543701,47.595585,302.0],[-123.542939,47.595549,294.2],[-123.542442,47.595734,287.9],[-123.542156,47.595759,281.7],[-123.541151,47.595702,280.8],[-123.541196,47.595805,281.4],[-123.541121,47.595852,278.6],[-123.541124,47.596153,276.7],[-123.541228,47.596515,274.1],[-123.54161,47.596537,279.7],[-123.541526,47.596721,287.4],[-123.542125,47.59706,296.0],[-123.541513,47.597244,301.7],[-123.540745,47.597189,302.6],[-123.54041,47.597262,300.5],[-123.540031,47.597472,300.1],[-123.539237,47.597558,297.7],[-123.53843,47.597661,298.5],[-123.537597,47.597828,298.8],[-123.536857,47.598069,297.2],[-123.536206,47.598264,291.0],[-123.535618,47.598495,288.9],[-123.534845,47.598484,290.9],[-123.534137,47.598191,288.8],[-123.533677,47.597807,288.0],[-123.533002,47.59769,290.6],[-123.531896,47.597749,291.9],[-123.530829,47.597844,293.1],[-123.530061,47.598178,296.3],[-123.529364,47.598373,297.5],[-123.52851,47.598551,301.1],[-123.527604,47.598749,295.2],[-123.526624,47.598741,293.0],[-123.52565,47.598438,293.3],[-123.524836,47.598378,295.6],[-123.524373,47.598434,298.3],[-123.524391,47.5982,296.7],[-123.523774,47.597773,293.4],[-123.522697,47.597645,293.8],[-123.521862,47.597987,295.0],[-123.521418,47.598552,298.1],[-123.520831,47.598982,305.6],[-123.520319,47.599316,307.7],[-123.519569,47.599763,308.7],[-123.518554,47.599583,307.2],[-123.51766,47.599184,307.7],[-123.516759,47.599552,309.2],[-123.515916,47.599683,311.3],[-123.51544,47.599479,312.6],[-123.514528,47.599601,316.7],[-123.513718,47.599726,318.7],[-123.513043,47.600065,322.4],[-123.512663,47.600588,331.2],[-123.512482,47.600643,334.6],[-123.512373,47.600763,340.1],[-123.511753,47.600991,347.1],[-123.511673,47.601022,349.2],[-123.511258,47.601219,353.8],[-123.511262,47.601252,355.3],[-123.510831,47.601434,355.2],[-123.510241,47.601086,351.9],[-123.509632,47.601651,343.9],[-123.508392,47.601477,329.5],[-123.507905,47.601696,327.0],[-123.507433,47.601881,326.9],[-123.506463,47.602081,324.6],[-123.505349,47.602354,319.4],[-123.504737,47.602635,317.9],[-123.503727,47.602981,316.8],[-123.502546,47.603378,316.1],[-123.501611,47.603808,315.2],[-123.500597,47.604177,318.4],[-123.499517,47.60438,324.0],[-123.49847,47.604471,326.8],[-123.497495,47.604893,327.4],[-123.496756,47.605197,325.4],[-123.496002,47.605551,327.9],[-123.494952,47.605879,325.8],[-123.493992,47.606205,324.5],[-123.493531,47.606467,324.1],[-123.493367,47.606995,325.0],[-123.493241,47.607632,328.7],[-123.492654,47.607977,324.6],[-123.492523,47.608271,324.8],[-123.492185,47.608691,329.6],[-123.491691,47.608992,328.8],[-123.491128,47.609313,327.5],[-123.490827,47.609652,329.3],[-123.490936,47.609705,332.7],[-123.490823,47.609739,335.3],[-123.490441,47.609965,332.6],[-123.490086,47.609906,327.7],[-123.489873,47.609946,327.9],[-123.4899,47.61002,328.1],[-123.489939,47.610074,328.4],[-123.489882,47.610004,328.8],[-123.489754,47.610046,328.9],[-123.489826,47.610003,328.9],[-123.48915,47.610376,329.8],[-123.488235,47.610614,331.9],[-123.487338,47.610867,336.7],[-123.487175,47.611271,342.7],[-123.487239,47.61166,348.3],[-123.487288,47.612132,352.6],[-123.487045,47.612448,356.4],[-123.48643,47.61265,360.5],[-123.486113,47.613275,355.9],[-123.485698,47.613875,357.1],[-123.485177,47.614447,360.3],[-123.484252,47.614549,365.0],[-123.483178,47.614573,367.2],[-123.482391,47.614776,365.5],[-123.481694,47.614477,357.5],[-123.481,47.614413,357.8],[-123.480733,47.614479,361.2],[-123.480651,47.614451,361.9],[-123.480305,47.614786,368.0],[-123.479742,47.615168,374.8],[-123.479301,47.615408,379.1],[-123.478766,47.615846,385.4],[-123.47803,47.615859,386.4],[-123.4773,47.615885,383.8],[-123.476826,47.615871,381.8],[-123.476788,47.615839,382.6],[-123.476059,47.616111,385.1],[-123.475128,47.616567,383.8],[-123.474607,47.617164,389.0],[-123.474432,47.617448,393.7],[-123.473477,47.617815,397.4],[-123.472613,47.618068,399.2],[-123.47161,47.618099,396.2],[-123.470664,47.61798,390.6],[-123.470055,47.61838,386.8],[-123.469105,47.618338,383.8],[-123.468081,47.618351,376.3],[-123.467514,47.618727,376.8],[-123.46648,47.61907,374.6],[-123.466153,47.619475,375.2],[-123.465877,47.619979,380.1],[-123.465709,47.619803,386.0],[-123.465703,47.619882,394.0],[-123.465668,47.620029,398.3],[-123.465274,47.620277,400.6],[-123.465014,47.620558,400.9],[-123.464383,47.620776,403.1],[-123.463778,47.621024,406.0],[-123.463727,47.621033,406.5],[-123.463133,47.621203,406.8],[-123.462609,47.621478,406.8],[-123.462105,47.621624,406.0],[-123.462136,47.621707,407.1],[-123.462063,47.621632,408.1],[-123.461217,47.621864,409.1],[-123.46064,47.622281,406.9],[-123.45997,47.622644,405.6],[-123.459326,47.62311,403.4],[-123.458466,47.623497,407.4],[-123.45777,47.623705,408.7],[-123.457255,47.624081,411.7],[-123.456679,47.624436,417.2],[-123.456325,47.624885,421.9],[-123.455946,47.625527,425.8],[-123.455196,47.625809,429.5],[-123.454285,47.626179,432.0],[-123.453423,47.626241,429.7],[-123.452645,47.626579,424.8],[-123.45242,47.626981,421.8],[-123.452343,47.627053,422.5],[-123.452096,47.6271,423.2],[-123.4516,47.627389,421.5],[-123.451416,47.628143,414.8],[-123.450713,47.628659,413.3],[-123.449809,47.629081,416.1],[-123.449321,47.629453,417.8],[-123.448876,47.630002,419.5],[-123.448326,47.630622,421.1],[-123.447177,47.631011,420.5],[-123.446256,47.631494,421.9],[-123.446163,47.631993,426.3],[-123.445586,47.632363,427.3],[-123.444969,47.632724,423.3],[-123.44418,47.633171,420.9],[-123.443094,47.633354,423.2],[-123.442426,47.633827,426.9],[-123.442379,47.634069,430.1],[-123.44241,47.634186,433.1],[-123.442572,47.634726,438.6],[-123.442505,47.635177,445.8],[-123.44228,47.635193,447.4],[-123.441837,47.635573,450.0],[-123.441447,47.636014,451.8],[-123.440818,47.636471,447.6],[-123.440215,47.636847,446.2],[-123.439436,47.637162,440.1],[-123.439045,47.637316,438.7],[-123.438156,47.63776,433.1],[-123.437654,47.638256,435.5],[-123.43706,47.638842,435.8],[-123.436247,47.639293,436.1],[-123.435314,47.639588,438.2],[-123.434341,47.639476,440.1],[-123.433934,47.639246,441.1],[-123.434066,47.638952,441.5]]}},{"type":"Feature","properties":{"date":"2023-09-03","source_file":"2.gpx","dist_m":5783,"vert_up_m":6,"vert_down_m":60,"points":98},"geometry":{"type":"LineString","coordinates":[[-123.434046,47.638957,442.1],[-123.433948,47.639417,441.2],[-123.433991,47.639526,441.1],[-123.434675,47.639617,440.1],[-123.435349,47.639466,438.4],[-123.436385,47.639259,436.2],[-123.437018,47.638868,435.7],[-123.437701,47.63828,435.5],[-123.437968,47.637902,432.9],[-123.438845,47.637557,436.2],[-123.439391,47.637175,439.5],[-123.439507,47.637107,440.1],[-123.439875,47.636934,444.2],[-123.440562,47.636682,446.6],[-123.441251,47.636188,450.5],[-123.441754,47.635547,450.1],[-123.442338,47.635221,447.5],[-123.442367,47.63483,441.0],[-123.442325,47.634443,437.3],[-123.442365,47.63377,429.5],[-123.443227,47.633364,424.9],[-123.443222,47.633358,424.3],[-123.443819,47.633209,421.9],[-123.444719,47.632985,421.4],[-123.445415,47.632409,426.2],[-123.445989,47.632077,426.1],[-123.44631,47.631495,422.4],[-123.446954,47.631103,420.9],[-123.447809,47.630903,420.6],[-123.448611,47.630553,421.0],[-123.448783,47.629876,419.4],[-123.449405,47.629528,417.8],[-123.449635,47.629185,417.5],[-123.449892,47.628998,416.7],[-123.449903,47.628975,416.2],[-123.45048,47.628627,414.1],[-123.450603,47.628664,413.8],[-123.450792,47.628563,413.3],[-123.451092,47.628312,413.2],[-123.451094,47.628288,413.3],[-123.451223,47.628192,414.6],[-123.451222,47.628336,415.7],[-123.451197,47.628356,415.8],[-123.451141,47.628339,416.3],[-123.451206,47.628388,416.7],[-123.451152,47.628282,418.2],[-123.451112,47.628236,419.2],[-123.451339,47.62767,423.2],[-123.451821,47.627218,421.5],[-123.452242,47.627048,422.4],[-123.452391,47.627008,423.5],[-123.452193,47.626784,425.4],[-123.452437,47.626398,428.2],[-123.453451,47.626228,431.6],[-123.454258,47.62617,431.9],[-123.455231,47.625757,427.4],[-123.455919,47.625244,423.9],[-123.456412,47.624695,420.4],[-123.456774,47.624303,414.5],[-123.457458,47.623978,409.7],[-123.457796,47.623713,407.9],[-123.458916,47.623276,404.5],[-123.459669,47.622753,406.3],[-123.460594,47.62222,409.1],[-123.461439,47.621759,406.0],[-123.462496,47.621488,406.8],[-123.463459,47.621137,404.7],[-123.464421,47.620669,401.0],[-123.465338,47.620208,392.0],[-123.46587,47.619755,377.5],[-123.466036,47.619077,375.4],[-123.466915,47.618656,375.0],[-123.467604,47.618306,376.4],[-123.468529,47.618142,380.2],[-123.469595,47.618208,386.7],[-123.470172,47.617802,389.3],[-123.470804,47.617866,393.7],[-123.471705,47.617907,398.1],[-123.472788,47.617884,399.0],[-123.473626,47.617523,395.8],[-123.473982,47.617428,394.3],[-123.474518,47.617141,389.9],[-123.474901,47.616552,384.0],[-123.475675,47.616091,384.5],[-123.476548,47.615724,382.8],[-123.476164,47.61541,377.4],[-123.475378,47.615203,372.8],[-123.474918,47.614735,369.5],[-123.474598,47.615274,364.5],[-123.47387,47.615531,361.0],[-123.47334,47.615813,361.9],[-123.47275,47.615974,363.2],[-123.472319,47.616243,363.8],[-123.472549,47.616279,363.7],[-123.472545,47.616247,363.7],[-123.47272,47.616133,363.6],[-123.473121,47.615797,362.7],[-123.473673,47.616035,362.0]]}},{"type":"Feature","properties":{"date":"2023-09-04","source_file":"3.gpx","dist_m":11400,"vert_up_m":160,"vert_down_m":319,"points":142},"geometry":{"type":"LineString","coordinates":[[-123.472746,47.616096,363.5],[-123.472784,47.615986,363.1],[-123.473644,47.615578,361.4],[-123.474513,47.615323,362.9],[-123.474879,47.614908,369.0],[-123.475585,47.615322,373.7],[-123.476408,47.615495,378.7],[-123.4769,47.615736,381.6],[-123.477695,47.615759,386.4],[-123.478533,47.615736,386.4],[-123.479105,47.615372,381.1],[-123.47974,47.615067,374.9],[-123.480267,47.614549,366.6],[-123.481242,47.614352,358.5],[-123.4819,47.614386,357.5],[-123.482531,47.614482,365.6],[-123.48381,47.614398,366.3],[-123.485001,47.614333,360.3],[-123.485557,47.613764,356.3],[-123.486033,47.613199,358.1],[-123.486406,47.612482,356.6],[-123.486972,47.612046,349.8],[-123.487056,47.611436,338.1],[-123.487097,47.611121,333.6],[-123.487847,47.610768,330.1],[-123.488927,47.610421,328.8],[-123.489901,47.609996,327.7],[-123.490335,47.609965,334.3],[-123.490768,47.609518,331.1],[-123.491508,47.60918,327.8],[-123.49221,47.608803,330.0],[-123.492542,47.608204,324.8],[-123.493112,47.607702,326.7],[-123.493338,47.607055,326.5],[-123.493669,47.606411,324.1],[-123.494792,47.605963,325.5],[-123.495886,47.605654,327.4],[-123.496761,47.605222,325.8],[-123.497709,47.604866,327.7],[-123.498845,47.604552,326.5],[-123.500098,47.60431,321.3],[-123.501277,47.603941,315.6],[-123.502398,47.603489,316.0],[-123.503604,47.603075,316.9],[-123.504816,47.602651,319.7],[-123.50584,47.602301,325.8],[-123.506949,47.601982,327.0],[-123.507781,47.601759,333.9],[-123.508122,47.601526,341.3],[-123.508597,47.601571,347.0],[-123.50958,47.601701,350.4],[-123.510641,47.601505,355.6],[-123.511258,47.601291,352.1],[-123.512264,47.600843,340.3],[-123.512954,47.600398,326.3],[-123.513279,47.599749,319.9],[-123.514575,47.599621,316.7],[-123.51587,47.599599,311.5],[-123.516929,47.599277,309.1],[-123.518196,47.599303,307.4],[-123.519193,47.599571,309.1],[-123.520162,47.599383,307.5],[-123.520841,47.599002,307.9],[-123.521625,47.598308,296.4],[-123.522475,47.597729,294.3],[-123.523587,47.597722,293.1],[-123.524328,47.598207,296.8],[-123.524512,47.598426,297.6],[-123.525239,47.598255,293.8],[-123.525633,47.598381,293.3],[-123.526833,47.598735,293.0],[-123.527692,47.598197,297.0],[-123.528612,47.598302,301.1],[-123.529855,47.598239,296.4],[-123.53084,47.597834,293.1],[-123.532229,47.597673,291.8],[-123.532833,47.597669,290.7],[-123.533507,47.597734,288.3],[-123.534205,47.598162,289.2],[-123.535058,47.598205,291.1],[-123.535881,47.597861,291.8],[-123.536223,47.598357,298.2],[-123.537002,47.598094,299.6],[-123.537882,47.597585,297.8],[-123.538882,47.597478,300.3],[-123.540008,47.597259,302.6],[-123.541185,47.597137,298.1],[-123.541886,47.59699,290.0],[-123.541537,47.596416,277.9],[-123.541571,47.596461,276.0],[-123.540968,47.596188,276.4],[-123.541163,47.595671,281.5],[-123.542327,47.595353,281.3],[-123.543083,47.595399,290.6],[-123.544034,47.595251,301.6],[-123.544791,47.595325,312.1],[-123.545069,47.59524,318.3],[-123.54487,47.594987,327.2],[-123.545074,47.594622,336.0],[-123.545605,47.594257,344.6],[-123.546239,47.593854,352.2],[-123.546489,47.593397,358.4],[-123.547167,47.592886,361.8],[-123.548029,47.592469,369.3],[-123.548413,47.59194,375.7],[-123.548446,47.591231,374.8],[-123.548631,47.590531,367.7],[-123.549603,47.590036,360.8],[-123.550352,47.589185,354.6],[-123.551709,47.589089,355.8],[-123.552651,47.5891,357.7],[-123.553771,47.588791,356.3],[-123.554729,47.588495,350.2],[-123.555453,47.58822,343.2],[-123.556356,47.587855,336.2],[-123.557285,47.58767,329.1],[-123.557972,47.586837,324.1],[-123.558654,47.585908,316.4],[-123.559127,47.585347,304.2],[-123.559198,47.584373,289.4],[-123.558985,47.583586,280.6],[-123.559529,47.582928,266.9],[-123.560337,47.582407,251.9],[-123.561238,47.5816,239.6],[-123.562143,47.581135,230.8],[-123.563277,47.580608,230.8],[-123.563895,47.579999,232.6],[-123.5647,47.579501,235.0],[-123.56516,47.57869,236.5],[-123.566212,47.578096,237.6],[-123.567107,47.577422,234.3],[-123.567212,47.576536,229.4],[-123.567746,47.575434,217.7],[-123.568454,47.575137,214.4],[-123.568298,47.574431,207.0],[-123.568596,47.574128,208.1],[-123.569226,47.573864,203.2],[-123.569215,47.573289,193.0],[-123.569265,47.572945,187.1],[-123.570179,47.572856,189.4],[-123.571017,47.572764,188.0],[-123.570881,47.572504,186.9]]}}]}