{"type":"FeatureCollection","features":[{"type":"Feature","properties":{"date":"2026-07-03","source_file":"1.gpx","dist_m":18269,"vert_up_m":1133,"vert_down_m":90,"points":332},"geometry":{"type":"LineString","coordinates":[[-121.288102,47.665854,504.2],[-121.288184,47.666016,504.8],[-121.288182,47.665246,507.1],[-121.288095,47.66494,507.4],[-121.288366,47.664901,507.3],[-121.288207,47.664915,507.3],[-121.288072,47.664744,508.3],[-121.287302,47.664259,510.3],[-121.286494,47.663931,511.8],[-121.286387,47.663948,514.1],[-121.286035,47.663001,514.6],[-121.28576,47.662272,517.2],[-121.285658,47.6615,517.8],[-121.285481,47.660674,520.5],[-121.285215,47.659946,523.3],[-121.284876,47.659263,526.0],[-121.284315,47.658405,528.6],[-121.283834,47.657743,530.8],[-121.283397,47.657102,533.2],[-121.282844,47.656349,535.9],[-121.282283,47.655764,538.1],[-121.281635,47.655195,541.1],[-121.280884,47.654749,543.9],[-121.280153,47.654757,554.3],[-121.279939,47.65447,558.6],[-121.279353,47.653832,551.1],[-121.278376,47.653302,555.6],[-121.277677,47.653034,558.0],[-121.27683,47.652743,561.6],[-121.275775,47.652192,566.5],[-121.275067,47.652017,571.7],[-121.274341,47.65183,578.7],[-121.273624,47.651565,588.3],[-121.272889,47.651296,596.3],[-121.27242,47.651115,600.8],[-121.272026,47.650598,608.5],[-121.271384,47.650445,620.5],[-121.270738,47.650127,627.8],[-121.270088,47.649712,630.0],[-121.269299,47.649479,624.9],[-121.268642,47.649182,624.9],[-121.268127,47.648906,625.9],[-121.267368,47.648466,632.5],[-121.26669,47.648008,627.9],[-121.266028,47.647654,624.7],[-121.265305,47.647124,624.1],[-121.264957,47.646593,617.2],[-121.264371,47.64624,620.4],[-121.2637,47.64566,612.7],[-121.262944,47.645252,615.1],[-121.262515,47.644597,615.0],[-121.262268,47.644182,619.0],[-121.261734,47.643463,614.7],[-121.261068,47.643285,616.9],[-121.260426,47.643082,616.9],[-121.260173,47.642474,608.8],[-121.259591,47.641804,603.4],[-121.25921,47.641398,599.1],[-121.259165,47.640963,598.1],[-121.258849,47.640214,601.9],[-121.258979,47.63984,600.5],[-121.258605,47.639438,598.4],[-121.258375,47.639048,598.8],[-121.258365,47.638253,600.6],[-121.258029,47.637768,602.3],[-121.257817,47.637349,603.2],[-121.257636,47.636884,606.1],[-121.256886,47.636518,608.9],[-121.256485,47.63634,610.5],[-121.256157,47.636181,611.9],[-121.256088,47.635433,613.9],[-121.256174,47.635098,616.7],[-121.255784,47.634768,622.3],[-121.255789,47.634288,626.4],[-121.255507,47.63386,632.3],[-121.255676,47.633272,628.5],[-121.255838,47.633105,625.8],[-121.256051,47.632402,630.1],[-121.256232,47.631698,635.0],[-121.25635,47.631136,642.5],[-121.256416,47.630655,646.0],[-121.25629,47.630414,641.9],[-121.256644,47.630277,642.6],[-121.256091,47.63041,643.2],[-121.255313,47.630001,649.1],[-121.25502,47.629891,649.9],[-121.254162,47.629578,649.5],[-121.253864,47.629292,648.8],[-121.253296,47.62873,648.4],[-121.252699,47.628249,649.8],[-121.252222,47.627932,651.1],[-121.251935,47.627405,650.9],[-121.251296,47.626994,656.5],[-121.251069,47.626292,655.0],[-121.251139,47.6258,656.0],[-121.251105,47.625077,657.9],[-121.251024,47.624463,654.6],[-121.251271,47.623981,653.5],[-121.251177,47.623645,653.2],[-121.25065,47.622997,659.2],[-121.250013,47.622505,660.4],[-121.249094,47.622279,660.1],[-121.248796,47.621702,660.3],[-121.248141,47.621349,661.4],[-121.24778,47.620826,662.1],[-121.247497,47.620069,663.3],[-121.246616,47.619727,664.3],[-121.24589,47.619003,665.7],[-121.245465,47.618845,666.7],[-121.245168,47.618365,667.3],[-121.245347,47.617751,666.0],[-121.244883,47.617172,664.4],[-121.244587,47.61648,662.2],[-121.244224,47.615798,659.6],[-121.244474,47.615076,657.8],[-121.244979,47.61467,658.5],[-121.244726,47.614707,658.9],[-121.24471,47.61452,659.1],[-121.244265,47.613706,660.0],[-121.244262,47.612962,661.5],[-121.244168,47.612532,661.9],[-121.243674,47.612171,661.1],[-121.243654,47.611943,661.5],[-121.243637,47.611965,661.8],[-121.243581,47.61202,662.0],[-121.243544,47.612107,662.3],[-121.243668,47.612062,662.5],[-121.243695,47.612106,662.8],[-121.243775,47.611968,662.9],[-121.243809,47.612069,663.1],[-121.244026,47.612015,663.4],[-121.244157,47.612062,663.5],[-121.244066,47.612122,663.7],[-121.243815,47.612114,664.1],[-121.244014,47.611742,665.1],[-121.244119,47.611351,665.9],[-121.244154,47.611122,668.3],[-121.243837,47.610764,663.1],[-121.24381,47.61061,662.9],[-121.243996,47.610508,665.8],[-121.244153,47.61042,669.3],[-121.244298,47.610334,672.5],[-121.244252,47.610475,669.9],[-121.244093,47.610492,666.0],[-121.243859,47.610682,658.6],[-121.243852,47.610873,656.4],[-121.244233,47.610929,662.8],[-121.244495,47.611013,668.3],[-121.244505,47.61109,667.1],[-121.244486,47.611194,670.9],[-121.244354,47.611036,681.0],[-121.244331,47.610987,683.5],[-121.244531,47.611042,689.3],[-121.24428,47.611046,693.0],[-121.244629,47.611237,702.0],[-121.244872,47.611361,707.2],[-121.245076,47.611129,715.2],[-121.245246,47.610786,723.0],[-121.245425,47.61044,731.3],[-121.245635,47.610002,742.3],[-121.24599,47.609636,752.9],[-121.24636,47.609197,760.7],[-121.246794,47.608865,765.4],[-121.246814,47.60838,768.7],[-121.247143,47.608022,780.7],[-121.247881,47.607788,795.7],[-121.248398,47.607779,808.4],[-121.248841,47.607894,815.1],[-121.249492,47.607893,821.8],[-121.249867,47.607874,826.0],[-121.250443,47.607902,834.8],[-121.251313,47.607784,851.9],[-121.251876,47.607847,868.5],[-121.252354,47.607912,882.8],[-121.252937,47.607905,896.7],[-121.253489,47.607835,907.0],[-121.253848,47.607781,912.1],[-121.254633,47.607467,919.2],[-121.255418,47.607392,930.8],[-121.256034,47.607239,936.1],[-121.256599,47.606883,945.9],[-121.257013,47.606492,951.6],[-121.257338,47.605998,953.7],[-121.257868,47.605648,957.5],[-121.258187,47.605343,957.0],[-121.258616,47.605131,965.2],[-121.258808,47.604591,966.4],[-121.259353,47.604341,978.4],[-121.259592,47.604005,988.6],[-121.259762,47.603495,995.5],[-121.259992,47.602997,989.2],[-121.260103,47.60247,991.6],[-121.26053,47.602007,994.2],[-121.260363,47.601378,996.1],[-121.260407,47.600662,997.5],[-121.261107,47.60016,1004.5],[-121.261209,47.59992,1009.7],[-121.260942,47.599614,1019.3],[-121.261434,47.599514,1030.2],[-121.261122,47.599097,1042.6],[-121.261574,47.599013,1053.2],[-121.261865,47.598749,1065.1],[-121.262197,47.598563,1073.5],[-121.262455,47.598285,1086.1],[-121.262545,47.598099,1092.3],[-121.263013,47.597866,1106.7],[-121.263273,47.597769,1114.7],[-121.263332,47.597787,1118.6],[-121.263351,47.597747,1122.0],[-121.263702,47.597448,1129.5],[-121.263714,47.597082,1135.7],[-121.263838,47.596656,1144.9],[-121.263978,47.596344,1152.6],[-121.264191,47.595914,1162.5],[-121.26432,47.595505,1170.7],[-121.264565,47.595147,1177.3],[-121.264518,47.594987,1181.2],[-121.264851,47.594758,1188.1],[-121.264358,47.594637,1197.8],[-121.26418,47.594306,1206.9],[-121.26406,47.593692,1220.7],[-121.263969,47.593199,1225.0],[-121.263359,47.592722,1234.3],[-121.262853,47.59235,1246.8],[-121.262437,47.591877,1253.7],[-121.26226,47.591562,1262.7],[-121.261871,47.591177,1275.4],[-121.261763,47.591089,1279.4],[-121.261673,47.590835,1283.6],[-121.261526,47.590594,1284.1],[-121.260866,47.590306,1294.9],[-121.260339,47.589994,1305.9],[-121.260088,47.589731,1309.9],[-121.259233,47.589428,1318.6],[-121.258841,47.589173,1327.5],[-121.258952,47.588793,1340.8],[-121.258866,47.588517,1348.5],[-121.258781,47.588136,1356.1],[-121.258906,47.587642,1365.7],[-121.258731,47.58731,1375.9],[-121.258681,47.587041,1388.1],[-121.258393,47.586715,1399.6],[-121.258131,47.58612,1405.0],[-121.257832,47.585739,1402.8],[-121.257605,47.58538,1403.4],[-121.257291,47.58498,1404.0],[-121.256997,47.584489,1404.7],[-121.256983,47.584125,1405.3],[-121.256744,47.583524,1406.9],[-121.256837,47.583284,1408.2],[-121.257382,47.583126,1416.2],[-121.25759,47.582626,1427.3],[-121.257666,47.582152,1436.1],[-121.257369,47.581756,1447.0],[-121.256957,47.581085,1453.5],[-121.25695,47.580607,1456.9],[-121.256643,47.580308,1452.6],[-121.256195,47.57985,1446.0],[-121.255677,47.579231,1446.2],[-121.255646,47.578677,1453.3],[-121.255445,47.578258,1457.4],[-121.255022,47.577665,1462.7],[-121.254729,47.577048,1467.3],[-121.254661,47.576599,1470.2],[-121.253623,47.576141,1469.1],[-121.253104,47.575612,1472.4],[-121.252983,47.574717,1475.2],[-121.252857,47.573961,1476.6],[-121.252516,47.573175,1480.0],[-121.252038,47.57284,1487.2],[-121.251306,47.572676,1477.4],[-121.251447,47.572676,1480.2],[-121.25207,47.572767,1487.0],[-121.252539,47.573122,1483.5],[-121.252673,47.573355,1480.8],[-121.252784,47.573454,1478.9],[-121.252651,47.573365,1480.8],[-121.252294,47.572983,1487.6],[-121.251643,47.572722,1479.3],[-121.251106,47.572831,1474.0],[-121.25078,47.57301,1471.9],[-121.250666,47.573175,1470.5],[-121.25086,47.572719,1473.8],[-121.250893,47.572339,1477.2],[-121.250962,47.571706,1482.9],[-121.250896,47.571334,1493.2],[-121.250845,47.571156,1501.7],[-121.250811,47.570745,1517.6],[-121.251202,47.570486,1529.0],[-121.251194,47.570145,1538.5],[-121.251331,47.569891,1543.3],[-121.251617,47.56966,1546.3],[-121.251583,47.569311,1548.3],[-121.251618,47.569288,1548.6],[-121.251489,47.569143,1550.0],[-121.25132,47.56892,1553.2],[-121.251079,47.568642,1559.6],[-121.251001,47.568391,1566.9],[-121.250887,47.568356,1568.9],[-121.251162,47.568253,1576.1],[-121.251341,47.568299,1579.8],[-121.251275,47.568189,1583.3],[-121.251385,47.567829,1593.5],[-121.251791,47.567723,1602.5],[-121.25213,47.567583,1611.6],[-121.252514,47.567455,1620.7],[-121.252969,47.567264,1634.0],[-121.253366,47.567144,1645.3],[-121.253609,47.566936,1654.7],[-121.253952,47.566615,1668.3],[-121.254226,47.566346,1679.4],[-121.254542,47.565978,1692.1],[-121.255093,47.565644,1704.4],[-121.255681,47.565408,1714.6],[-121.256122,47.565122,1721.8],[-121.256492,47.564873,1727.8],[-121.257083,47.564607,1733.9],[-121.257805,47.564427,1740.4],[-121.25818,47.56423,1744.0],[-121.258977,47.564087,1748.9],[-121.259726,47.56408,1752.2],[-121.259981,47.564295,1753.5],[-121.260419,47.564222,1755.9],[-121.260982,47.563954,1759.5],[-121.261719,47.563872,1764.3],[-121.262184,47.563541,1772.4],[-121.262529,47.563168,1778.2],[-121.262664,47.562931,1778.3],[-121.263117,47.562436,1777.2],[-121.263139,47.562391,1776.4],[-121.263893,47.562142,1771.7],[-121.264514,47.561748,1769.1]]}},{"type":"Feature","properties":{"date":"2026-07-04","source_file":"2.gpx","dist_m":23374,"vert_up_m":595,"vert_down_m":1730,"points":512},"geometry":{"type":"LineString","coordinates":[[-121.266143,47.561441,1770.3],[-121.265685,47.561446,1770.4],[-121.265033,47.56122,1769.2],[-121.265439,47.560681,1768.4],[-121.265291,47.560114,1766.5],[-121.265015,47.559542,1757.8],[-121.264833,47.559473,1757.1],[-121.2644,47.559251,1759.7],[-121.264257,47.559163,1759.2],[-121.264105,47.559047,1754.9],[-121.263874,47.558739,1751.1],[-121.264044,47.558534,1746.8],[-121.264331,47.558307,1745.2],[-121.264694,47.557875,1743.2],[-121.264952,47.557413,1741.8],[-121.265099,47.557058,1741.2],[-121.265501,47.556615,1745.6],[-121.265387,47.556618,1746.1],[-121.265172,47.556009,1744.7],[-121.265126,47.555395,1739.1],[-121.265251,47.555008,1728.5],[-121.265385,47.554572,1715.2],[-121.266289,47.554345,1720.6],[-121.266965,47.554558,1718.7],[-121.267396,47.554844,1716.7],[-121.267645,47.555137,1713.6],[-121.267977,47.55545,1702.9],[-121.268027,47.555729,1691.4],[-121.26839,47.555988,1674.5],[-121.268572,47.556003,1664.1],[-121.268689,47.556108,1659.2],[-121.269249,47.555784,1654.2],[-121.269598,47.555169,1652.4],[-121.269943,47.55488,1647.4],[-121.270201,47.554448,1645.2],[-121.269973,47.553822,1634.5],[-121.271013,47.553654,1633.1],[-121.271571,47.553387,1627.4],[-121.271575,47.552932,1621.7],[-121.272429,47.552624,1612.3],[-121.272634,47.552641,1607.3],[-121.272963,47.552818,1597.0],[-121.273159,47.552994,1589.5],[-121.273399,47.553268,1574.3],[-121.27343,47.553444,1567.6],[-121.273628,47.553514,1561.9],[-121.273991,47.553822,1551.3],[-121.274094,47.55377,1550.4],[-121.274492,47.553895,1551.7],[-121.275043,47.553993,1558.2],[-121.275027,47.554013,1559.8],[-121.275128,47.554051,1565.8],[-121.275248,47.55416,1567.6],[-121.275459,47.554362,1576.5],[-121.275583,47.554213,1576.5],[-121.275669,47.554009,1578.5],[-121.275705,47.553919,1579.0],[-121.275797,47.553902,1581.2],[-121.275923,47.553889,1582.1],[-121.276043,47.55413,1583.9],[-121.276244,47.554323,1596.1],[-121.276121,47.554558,1594.9],[-121.276035,47.554719,1590.8],[-121.276223,47.55456,1596.4],[-121.276462,47.554473,1607.1],[-121.276795,47.554459,1621.4],[-121.277108,47.554436,1630.3],[-121.277364,47.554749,1644.4],[-121.277478,47.554976,1647.8],[-121.277471,47.554985,1647.7],[-121.27783,47.554889,1644.2],[-121.27804,47.555111,1639.9],[-121.278104,47.555193,1638.3],[-121.278142,47.555339,1635.6],[-121.278577,47.555488,1635.3],[-121.278983,47.555613,1639.1],[-121.279317,47.555601,1639.0],[-121.279755,47.555694,1636.6],[-121.280062,47.55582,1637.0],[-121.280366,47.556027,1632.0],[-121.280605,47.556182,1631.7],[-121.281042,47.556376,1640.6],[-121.281155,47.556591,1647.0],[-121.281125,47.556861,1646.6],[-121.281489,47.556708,1642.9],[-121.281868,47.556751,1644.0],[-121.282241,47.556851,1648.1],[-121.282335,47.556937,1650.6],[-121.28248,47.557019,1653.8],[-121.282622,47.557172,1659.7],[-121.282905,47.557388,1671.2],[-121.283062,47.557665,1678.9],[-121.282961,47.557951,1683.9],[-121.283036,47.558175,1686.9],[-121.282813,47.55817,1687.6],[-121.282402,47.558486,1682.5],[-121.282646,47.558932,1672.6],[-121.282757,47.558987,1670.0],[-121.282715,47.559137,1666.8],[-121.282827,47.559075,1665.1],[-121.282976,47.559149,1664.7],[-121.282966,47.559203,1664.7],[-121.283058,47.55928,1665.3],[-121.283223,47.559332,1666.1],[-121.283274,47.55929,1666.2],[-121.283307,47.559257,1666.1],[-121.283311,47.559306,1664.8],[-121.283359,47.559349,1663.5],[-121.283001,47.559501,1654.2],[-121.282932,47.559533,1651.1],[-121.28314,47.559405,1651.5],[-121.283265,47.559312,1654.5],[-121.283418,47.559151,1661.5],[-121.283566,47.559239,1666.8],[-121.283684,47.559367,1671.9],[-121.283767,47.559419,1674.3],[-121.284037,47.559339,1678.8],[-121.284229,47.559327,1680.8],[-121.28449,47.559214,1682.7],[-121.284724,47.559198,1683.5],[-121.284916,47.559244,1683.7],[-121.285183,47.559235,1684.2],[-121.285444,47.559362,1686.2],[-121.285667,47.559405,1688.3],[-121.285948,47.559493,1690.6],[-121.286292,47.559656,1691.8],[-121.286594,47.559651,1692.5],[-121.287048,47.559622,1693.8],[-121.287461,47.559509,1695.7],[-121.287939,47.559369,1695.5],[-121.288442,47.559349,1693.5],[-121.288545,47.559271,1692.3],[-121.288711,47.559226,1691.0],[-121.288791,47.558964,1689.4],[-121.289007,47.558892,1688.6],[-121.289176,47.558718,1685.0],[-121.289364,47.558504,1681.2],[-121.289917,47.558279,1678.3],[-121.290152,47.558372,1675.8],[-121.29032,47.558234,1673.6],[-121.290629,47.558251,1672.7],[-121.290833,47.558307,1673.6],[-121.291103,47.558524,1676.9],[-121.291163,47.558584,1678.6],[-121.291357,47.55856,1681.2],[-121.291546,47.558569,1682.6],[-121.29182,47.558475,1683.2],[-121.292125,47.558534,1681.7],[-121.292346,47.558637,1679.3],[-121.292393,47.559054,1676.9],[-121.292427,47.559395,1674.9],[-121.292609,47.559709,1673.2],[-121.292632,47.559824,1672.3],[-121.292641,47.560227,1670.7],[-121.292624,47.56024,1670.5],[-121.292704,47.560281,1670.1],[-121.292964,47.560506,1668.5],[-121.293133,47.560609,1666.5],[-121.293146,47.560626,1664.8],[-121.293011,47.560788,1662.5],[-121.29307,47.560825,1661.9],[-121.29328,47.561088,1660.6],[-121.293377,47.561168,1660.5],[-121.293513,47.561019,1660.4],[-121.293614,47.560922,1660.4],[-121.293825,47.560895,1660.6],[-121.294196,47.560835,1661.5],[-121.294366,47.560897,1662.1],[-121.29464,47.561057,1664.2],[-121.294896,47.561111,1666.4],[-121.295142,47.561274,1669.0],[-121.295251,47.561049,1672.1],[-121.295331,47.560532,1671.2],[-121.295335,47.56039,1669.7],[-121.295411,47.560292,1667.6],[-121.295627,47.560183,1665.7],[-121.295822,47.560036,1665.0],[-121.29606,47.560089,1664.6],[-121.296231,47.560065,1664.3],[-121.296583,47.559895,1663.2],[-121.296623,47.559782,1662.0],[-121.296668,47.559503,1661.3],[-121.296807,47.559077,1661.1],[-121.29684,47.558954,1660.9],[-121.297092,47.558772,1660.9],[-121.297292,47.558712,1660.0],[-121.297469,47.558523,1658.1],[-121.297859,47.558489,1660.1],[-121.298068,47.558506,1665.2],[-121.298072,47.558506,1664.6],[-121.298072,47.558506,1663.8],[-121.298412,47.558384,1655.3],[-121.298885,47.558423,1638.8],[-121.298897,47.558425,1637.2],[-121.299331,47.558084,1633.0],[-121.299801,47.55799,1621.9],[-121.30011,47.55805,1615.2],[-121.300243,47.558122,1611.3],[-121.300581,47.558157,1603.3],[-121.301061,47.558047,1595.9],[-121.30163,47.558182,1585.4],[-121.302183,47.558081,1576.4],[-121.302491,47.55795,1570.3],[-121.302675,47.557935,1566.2],[-121.302965,47.558072,1560.5],[-121.303207,47.558133,1556.7],[-121.303649,47.558333,1550.7],[-121.304324,47.558511,1543.3],[-121.304844,47.558627,1538.7],[-121.305342,47.558747,1536.1],[-121.30585,47.559103,1530.5],[-121.305965,47.558758,1523.2],[-121.306754,47.558761,1513.1],[-121.306938,47.558754,1508.4],[-121.307098,47.558726,1508.9],[-121.307871,47.558658,1502.1],[-121.308288,47.558858,1499.8],[-121.308352,47.558838,1499.9],[-121.308357,47.559049,1498.8],[-121.308309,47.559475,1487.6],[-121.308303,47.559886,1490.0],[-121.308322,47.559911,1490.2],[-121.308278,47.559955,1490.8],[-121.308137,47.560013,1498.2],[-121.308533,47.56021,1510.5],[-121.308817,47.560263,1518.7],[-121.30901,47.56014,1525.3],[-121.308854,47.559856,1533.6],[-121.309334,47.559862,1540.8],[-121.310263,47.560361,1546.0],[-121.310612,47.560574,1552.0],[-121.311097,47.560694,1559.3],[-121.311695,47.561135,1574.5],[-121.311886,47.561335,1581.5],[-121.312362,47.56142,1591.7],[-121.312425,47.561689,1601.1],[-121.312713,47.561838,1612.5],[-121.312892,47.561955,1619.3],[-121.313071,47.562061,1623.7],[-121.313371,47.562249,1629.9],[-121.313919,47.56254,1630.2],[-121.314268,47.56305,1633.1],[-121.314428,47.563352,1638.5],[-121.315176,47.5632,1645.2],[-121.315459,47.563418,1638.9],[-121.315595,47.563692,1632.8],[-121.315627,47.563994,1624.5],[-121.315739,47.56417,1615.1],[-121.315423,47.56442,1604.2],[-121.315277,47.564399,1599.3],[-121.315174,47.564609,1591.9],[-121.315319,47.564807,1587.3],[-121.315324,47.564834,1586.7],[-121.315208,47.565172,1583.0],[-121.31523,47.565619,1580.0],[-121.314938,47.566012,1574.8],[-121.314889,47.566136,1571.1],[-121.314817,47.566437,1565.6],[-121.314657,47.56681,1558.7],[-121.314523,47.566985,1554.6],[-121.31435,47.567402,1548.5],[-121.314389,47.567865,1545.1],[-121.31421,47.568322,1538.7],[-121.314394,47.568918,1531.3],[-121.314211,47.569209,1519.3],[-121.313956,47.569488,1510.6],[-121.313658,47.569782,1502.1],[-121.31336,47.570227,1501.5],[-121.313297,47.570676,1493.7],[-121.312922,47.570911,1487.2],[-121.312962,47.571184,1490.3],[-121.312829,47.571678,1493.4],[-121.312828,47.571868,1498.1],[-121.312611,47.572253,1512.4],[-121.312111,47.572405,1524.1],[-121.312341,47.572601,1528.9],[-121.312736,47.572593,1534.9],[-121.312636,47.57282,1542.4],[-121.312683,47.572779,1545.1],[-121.313072,47.572953,1557.6],[-121.312982,47.573021,1560.3],[-121.312992,47.573084,1561.7],[-121.312943,47.573159,1566.6],[-121.312953,47.573348,1572.2],[-121.312918,47.573668,1577.9],[-121.312649,47.574058,1579.8],[-121.312427,47.574393,1583.9],[-121.312207,47.574667,1588.4],[-121.312064,47.574897,1593.9],[-121.311975,47.575198,1601.4],[-121.311998,47.575303,1604.6],[-121.311768,47.575139,1609.2],[-121.311558,47.575161,1611.7],[-121.3116,47.575163,1611.7],[-121.311531,47.575213,1610.9],[-121.311521,47.575486,1608.7],[-121.311437,47.575577,1612.3],[-121.311476,47.575551,1614.2],[-121.311624,47.575621,1622.5],[-121.311596,47.575761,1624.2],[-121.311578,47.575844,1623.7],[-121.311577,47.576016,1621.5],[-121.311555,47.576239,1620.9],[-121.311578,47.576697,1614.5],[-121.311513,47.576962,1606.2],[-121.311506,47.57721,1599.0],[-121.311377,47.577559,1584.3],[-121.311185,47.57753,1577.0],[-121.311172,47.577517,1572.2],[-121.311022,47.577518,1557.7],[-121.311041,47.577873,1547.2],[-121.310883,47.57817,1535.3],[-121.310846,47.578333,1527.1],[-121.310946,47.578647,1512.0],[-121.310873,47.578991,1496.1],[-121.311165,47.579357,1486.9],[-121.311685,47.579739,1477.2],[-121.312024,47.580017,1475.4],[-121.312505,47.580193,1482.2],[-121.312726,47.580311,1489.5],[-121.312704,47.580382,1492.6],[-121.312701,47.580509,1500.2],[-121.31268,47.580514,1506.1],[-121.312682,47.580422,1510.1],[-121.312744,47.580216,1515.5],[-121.312881,47.580202,1518.4],[-121.31313,47.580318,1520.0],[-121.313676,47.580352,1513.9],[-121.314455,47.580219,1507.0],[-121.315087,47.580259,1500.9],[-121.315398,47.580771,1485.5],[-121.315411,47.58099,1479.1],[-121.315356,47.581187,1473.9],[-121.315743,47.581336,1465.5],[-121.315863,47.581617,1458.2],[-121.316359,47.581699,1449.8],[-121.316657,47.581949,1440.4],[-121.31694,47.582425,1436.1],[-121.317237,47.583062,1427.0],[-121.317883,47.58288,1415.1],[-121.318626,47.583413,1403.1],[-121.318646,47.58372,1393.5],[-121.318999,47.584152,1385.6],[-121.31919,47.584087,1385.9],[-121.319291,47.584264,1386.3],[-121.31935,47.584318,1386.7],[-121.319335,47.584516,1391.8],[-121.319656,47.584591,1399.4],[-121.319946,47.584969,1404.6],[-121.319938,47.585566,1409.1],[-121.32013,47.586001,1416.4],[-121.320353,47.586705,1415.6],[-121.320816,47.587266,1419.8],[-121.320852,47.587952,1415.1],[-121.320193,47.588394,1417.6],[-121.319947,47.588795,1424.9],[-121.320109,47.588879,1436.4],[-121.320601,47.588899,1445.6],[-121.320713,47.589122,1458.1],[-121.320156,47.589514,1469.6],[-121.320079,47.589791,1474.2],[-121.32006,47.589815,1474.7],[-121.319976,47.590434,1485.3],[-121.319796,47.591069,1497.3],[-121.319447,47.591666,1496.0],[-121.319357,47.592213,1493.0],[-121.319961,47.592365,1483.9],[-121.320444,47.592407,1479.6],[-121.321386,47.592472,1465.2],[-121.322178,47.592826,1453.0],[-121.322511,47.592988,1447.6],[-121.323178,47.593235,1438.2],[-121.322913,47.593328,1430.2],[-121.32296,47.593563,1420.5],[-121.323025,47.593843,1409.9],[-121.322659,47.594274,1399.9],[-121.322981,47.594771,1393.3],[-121.323523,47.595365,1381.5],[-121.323982,47.595944,1377.2],[-121.324759,47.59586,1386.6],[-121.325531,47.5954,1381.9],[-121.326523,47.595203,1374.9],[-121.327117,47.595295,1361.8],[-121.327262,47.59497,1350.7],[-121.32749,47.59476,1340.8],[-121.326982,47.5944,1328.9],[-121.327368,47.5942,1321.3],[-121.326936,47.594009,1310.9],[-121.327583,47.593683,1300.6],[-121.328134,47.593435,1291.8],[-121.328694,47.593468,1285.3],[-121.329261,47.593901,1278.7],[-121.329477,47.594331,1269.5],[-121.329582,47.59506,1264.9],[-121.329686,47.595779,1262.2],[-121.330261,47.596316,1252.5],[-121.330687,47.597223,1244.9],[-121.330678,47.597734,1241.2],[-121.330952,47.598389,1233.4],[-121.330762,47.599007,1227.9],[-121.330599,47.599462,1227.1],[-121.330312,47.600083,1226.6],[-121.32987,47.600481,1218.8],[-121.329486,47.600666,1213.1],[-121.329073,47.601027,1213.7],[-121.328706,47.601615,1216.6],[-121.328249,47.602181,1215.4],[-121.327892,47.60287,1210.5],[-121.327409,47.603567,1212.9],[-121.327673,47.60401,1218.0],[-121.327679,47.604432,1225.1],[-121.328083,47.605024,1226.5],[-121.328004,47.605765,1221.9],[-121.327625,47.606464,1217.9],[-121.32841,47.606854,1214.1],[-121.328852,47.607467,1209.5],[-121.329106,47.607555,1207.0],[-121.329771,47.608148,1207.6],[-121.330351,47.608295,1205.8],[-121.330809,47.608825,1204.2],[-121.331226,47.6093,1200.8],[-121.332235,47.609578,1199.4],[-121.332743,47.610228,1203.6],[-121.33281,47.610591,1196.9],[-121.333075,47.611121,1185.1],[-121.33243,47.611142,1174.6],[-121.332156,47.610639,1168.5],[-121.331869,47.610348,1160.9],[-121.331775,47.610301,1153.2],[-121.331949,47.610756,1146.8],[-121.331615,47.610922,1136.4],[-121.331215,47.610949,1130.3],[-121.330643,47.611439,1125.3],[-121.330295,47.611877,1118.6],[-121.330587,47.61239,1109.5],[-121.330456,47.61299,1096.6],[-121.330661,47.613247,1089.8],[-121.330177,47.613675,1083.1],[-121.329681,47.61406,1070.6],[-121.329588,47.613902,1063.0],[-121.329152,47.614229,1054.3],[-121.328357,47.614298,1042.7],[-121.328263,47.614073,1031.6],[-121.327568,47.614066,1018.8],[-121.32723,47.614095,1012.3],[-121.327465,47.614004,1007.6],[-121.327955,47.613708,997.4],[-121.327245,47.613653,986.5],[-121.327038,47.613575,976.1],[-121.326016,47.613584,960.7],[-121.32604,47.613412,947.0],[-121.325467,47.613458,938.9],[-121.324616,47.613442,928.9],[-121.323642,47.613354,913.8],[-121.32417,47.613164,905.9],[-121.324103,47.612802,881.1],[-121.322935,47.612869,866.5],[-121.322772,47.612709,856.6],[-121.32156,47.612896,850.8],[-121.322092,47.612404,831.7],[-121.321413,47.612316,820.4],[-121.320803,47.612329,811.3],[-121.320229,47.612194,803.5],[-121.319438,47.612332,792.5],[-121.31942,47.612043,783.3],[-121.31894,47.612318,778.8],[-121.318037,47.612765,764.6],[-121.317487,47.613325,755.2],[-121.317329,47.612976,742.1],[-121.317026,47.612495,723.1],[-121.316654,47.613003,713.0],[-121.316376,47.613703,703.6],[-121.315943,47.614201,681.0],[-121.315769,47.614778,667.7],[-121.315705,47.615294,655.7],[-121.315776,47.615772,646.7],[-121.315687,47.616476,632.9],[-121.315478,47.617065,636.1],[-121.314823,47.617559,631.2],[-121.314156,47.618279,630.2],[-121.313548,47.618982,630.6],[-121.313717,47.619754,631.5],[-121.314081,47.619977,636.5],[-121.314084,47.620658,630.7],[-121.313971,47.621445,633.2],[-121.314187,47.622231,625.0],[-121.31417,47.622927,604.8],[-121.314595,47.623732,600.1],[-121.314501,47.624282,583.4],[-121.314335,47.624785,569.2],[-121.314227,47.625201,560.4],[-121.314088,47.626042,555.9],[-121.313455,47.626663,548.8],[-121.312807,47.626348,541.4],[-121.311974,47.626256,536.5],[-121.310544,47.626488,537.1],[-121.309544,47.627177,546.5],[-121.308515,47.628248,566.2],[-121.308525,47.628267,565.8],[-121.308005,47.628728,573.1],[-121.307319,47.629635,570.0],[-121.306566,47.630371,577.6],[-121.306589,47.630969,572.5],[-121.306119,47.631761,553.1],[-121.306963,47.631962,546.1],[-121.30707,47.632327,533.8],[-121.307023,47.632772,522.8],[-121.306474,47.633252,518.9],[-121.305883,47.633792,516.7],[-121.305192,47.634204,515.2],[-121.304383,47.63445,512.9],[-121.303414,47.634643,512.0]]}}]}