{"type":"FeatureCollection","features":[{"type":"Feature","properties":{"date":"2023-05-26","source_file":"1.gpx","dist_m":140541,"vert_up_m":741,"vert_down_m":797,"points":303},"geometry":{"type":"LineString","coordinates":[[-122.320763,47.627396,104.6],[-122.320311,47.626078,103.8],[-122.320923,47.624836,103.6],[-122.321005,47.621463,101.6],[-122.320938,47.619688,101.6],[-122.320839,47.615762,96.0],[-122.320702,47.610919,100.6],[-122.320717,47.607677,110.6],[-122.320718,47.603211,91.8],[-122.323322,47.601775,70.2],[-122.33117,47.601581,17.4],[-122.334096,47.601721,9.2],[-122.334288,47.599203,9.2],[-122.336043,47.598127,6.2],[-122.336361,47.593392,4.4],[-122.33822,47.589071,4.4],[-122.340195,47.584977,3.4],[-122.340157,47.579265,3.2],[-122.339966,47.573888,2.4],[-122.34312,47.571677,3.0],[-122.34805,47.57161,3.6],[-122.350743,47.571343,8.0],[-122.356186,47.571323,13.4],[-122.361284,47.5707,11.4],[-122.361174,47.569527,23.4],[-122.363121,47.568356,12.4],[-122.363696,47.568383,10.4],[-122.368926,47.567647,14.6],[-122.371271,47.567043,33.2],[-122.37255,47.564852,47.0],[-122.374486,47.564172,55.4],[-122.377487,47.563594,66.0],[-122.378663,47.56108,75.4],[-122.381554,47.55871,79.0],[-122.381699,47.553189,77.2],[-122.38317,47.548868,74.4],[-122.387014,47.54493,63.4],[-122.390428,47.54052,45.6],[-122.390601,47.540159,45.8],[-122.392403,47.536207,40.2],[-122.392745,47.529689,28.4],[-122.393004,47.523595,1.6],[-122.394709,47.52319,-2.6],[-122.49634,47.512523,1.0],[-122.500638,47.512176,12.6],[-122.50541,47.512187,21.8],[-122.514434,47.512154,20.4],[-122.517151,47.516633,1.0],[-122.519783,47.521967,-0.2],[-122.526172,47.522877,8.6],[-122.534899,47.522067,1.6],[-122.54172,47.522102,6.4],[-122.547889,47.524899,5.0],[-122.549351,47.52616,21.0],[-122.551262,47.524735,39.8],[-122.551701,47.528517,42.6],[-122.556779,47.529468,51.6],[-122.560186,47.530327,66.2],[-122.56647,47.530304,68.2],[-122.570313,47.528624,78.4],[-122.577475,47.52576,60.4],[-122.577806,47.522431,67.2],[-122.581827,47.518135,63.8],[-122.586484,47.514718,72.2],[-122.588338,47.512872,86.6],[-122.592788,47.5121,76.0],[-122.599069,47.512183,61.0],[-122.601701,47.512093,85.6],[-122.604507,47.512154,99.4],[-122.607974,47.512077,107.4],[-122.616022,47.512147,100.6],[-122.623219,47.51218,105.4],[-122.631346,47.512311,91.0],[-122.631412,47.512291,91.0],[-122.634286,47.510781,99.6],[-122.635541,47.508613,109.0],[-122.63951,47.506599,94.0],[-122.6437,47.503218,59.0],[-122.64948,47.497779,48.2],[-122.656483,47.497083,58.0],[-122.659889,47.494742,71.8],[-122.662272,47.493596,89.8],[-122.662874,47.491143,98.2],[-122.664618,47.487494,98.6],[-122.669849,47.482582,93.6],[-122.675037,47.480246,104.2],[-122.678308,47.478875,119.6],[-122.680498,47.477063,133.0],[-122.685452,47.475225,128.8],[-122.691844,47.474882,140.6],[-122.699088,47.47453,141.0],[-122.705753,47.473085,135.4],[-122.713346,47.470743,136.6],[-122.721241,47.468058,123.6],[-122.727972,47.465085,110.6],[-122.735403,47.464027,112.0],[-122.745061,47.464322,96.8],[-122.752451,47.464566,99.8],[-122.757216,47.464337,114.6],[-122.762053,47.464787,117.4],[-122.769633,47.465286,111.2],[-122.775324,47.465127,121.4],[-122.777955,47.466686,131.0],[-122.782909,47.469821,120.0],[-122.78967,47.474199,108.6],[-122.793297,47.475745,93.2],[-122.798013,47.472493,97.6],[-122.800894,47.470518,98.8],[-122.804853,47.467779,94.4],[-122.810273,47.46409,88.6],[-122.81591,47.460161,66.8],[-122.819808,47.455078,36.6],[-122.826784,47.451548,13.0],[-122.830169,47.44675,11.4],[-122.832559,47.443082,14.4],[-122.835314,47.438775,12.6],[-122.83919,47.435423,7.6],[-122.840835,47.432728,6.8],[-122.846172,47.430379,3.8],[-122.85303,47.427929,2.0],[-122.857179,47.425522,9.6],[-122.862184,47.422358,6.8],[-122.866861,47.418485,4.8],[-122.871036,47.41533,7.2],[-122.87472,47.412003,7.6],[-122.87983,47.408124,-1.8],[-122.885943,47.406829,0.4],[-122.886023,47.406765,0.4],[-122.891448,47.404547,-2.8],[-122.895269,47.401084,-1.0],[-122.899624,47.397349,-4.2],[-122.902277,47.394593,7.0],[-122.901519,47.393265,28.2],[-122.901338,47.391617,41.2],[-122.902077,47.390271,59.4],[-122.902814,47.387716,66.6],[-122.901547,47.384019,63.8],[-122.897678,47.380876,72.0],[-122.897891,47.377426,77.0],[-122.89957,47.372872,74.0],[-122.902138,47.369211,72.4],[-122.903793,47.364702,71.2],[-122.904786,47.360309,73.4],[-122.908128,47.356458,70.4],[-122.914416,47.355197,53.6],[-122.914382,47.355214,54.4],[-122.915015,47.352433,58.4],[-122.918025,47.350631,66.6],[-122.920819,47.348302,72.4],[-122.924947,47.346506,76.8],[-122.927946,47.343096,74.4],[-122.931441,47.339425,75.8],[-122.935424,47.336833,81.6],[-122.9392,47.333293,78.6],[-122.943314,47.330162,79.2],[-122.945826,47.328259,87.2],[-122.949646,47.324366,75.2],[-122.953636,47.31803,51.2],[-122.958148,47.315553,59.0],[-122.963667,47.313878,57.8],[-122.968908,47.313011,64.2],[-122.971602,47.311421,72.8],[-122.975611,47.309862,73.6],[-122.981326,47.308673,73.6],[-122.986495,47.308205,78.2],[-122.992038,47.306377,75.0],[-122.997298,47.305105,80.6],[-123.001207,47.304187,87.0],[-123.009338,47.302455,71.6],[-123.014911,47.300418,72.0],[-123.019577,47.296996,67.0],[-123.023221,47.292921,63.8],[-123.028508,47.289944,61.0],[-123.033923,47.287552,61.0],[-123.036951,47.285878,73.2],[-123.04043,47.282755,70.8],[-123.046715,47.278394,59.2],[-123.050086,47.276949,73.0],[-123.054116,47.273098,64.6],[-123.058885,47.269621,65.4],[-123.057899,47.264947,55.4],[-123.064135,47.265389,57.6],[-123.069816,47.266565,59.0],[-123.075717,47.265238,58.6],[-123.08196,47.265266,60.6],[-123.087991,47.264307,60.4],[-123.092541,47.261702,59.4],[-123.098017,47.258721,55.0],[-123.103072,47.259074,57.8],[-123.103928,47.262271,59.0],[-123.107625,47.265915,60.0],[-123.111651,47.269173,61.4],[-123.11622,47.27306,59.6],[-123.120652,47.275763,67.6],[-123.124355,47.277994,71.0],[-123.129821,47.278589,73.0],[-123.1356,47.278332,74.0],[-123.140855,47.27808,74.8],[-123.148218,47.279234,66.4],[-123.154566,47.280176,66.2],[-123.155949,47.278414,64.2],[-123.154827,47.275493,75.8],[-123.15823,47.276535,79.8],[-123.160478,47.277502,79.4],[-123.156459,47.275713,78.6],[-123.153773,47.272795,83.2],[-123.15291,47.270532,95.6],[-123.151371,47.266514,90.0],[-123.149493,47.261612,86.0],[-123.147892,47.257457,85.4],[-123.146099,47.252709,82.2],[-123.15119,47.252163,80.4],[-123.157252,47.252209,80.6],[-123.163508,47.252336,79.0],[-123.169517,47.25311,78.0],[-123.17539,47.253469,79.0],[-123.175835,47.253345,79.6],[-123.179857,47.252365,82.0],[-123.185546,47.252438,83.0],[-123.191331,47.252521,85.2],[-123.19652,47.252545,88.0],[-123.199677,47.252698,90.6],[-123.199586,47.252585,91.0],[-123.193852,47.25248,88.4],[-123.186413,47.252415,84.0],[-123.179108,47.252331,83.2],[-123.180935,47.25037,83.0],[-123.185217,47.247724,84.0],[-123.188979,47.244157,83.0],[-123.194002,47.241895,82.4],[-123.198341,47.240332,80.6],[-123.203379,47.239639,81.2],[-123.210545,47.238179,70.4],[-123.215355,47.236863,70.4],[-123.22026,47.234708,68.4],[-123.224972,47.232672,70.8],[-123.226103,47.228514,68.4],[-123.230056,47.226945,66.8],[-123.232188,47.226818,68.8],[-123.236543,47.225682,71.4],[-123.239318,47.221394,64.8],[-123.243237,47.21782,63.8],[-123.244671,47.214042,70.8],[-123.24761,47.212519,83.4],[-123.251972,47.211287,89.8],[-123.254914,47.209185,98.4],[-123.257234,47.207372,109.4],[-123.258301,47.205137,120.8],[-123.258277,47.202622,128.0],[-123.256846,47.198196,123.2],[-123.260318,47.194006,115.8],[-123.265274,47.191308,117.4],[-123.268897,47.188635,121.8],[-123.272522,47.185105,117.8],[-123.27359,47.180381,112.4],[-123.272425,47.176516,118.2],[-123.272718,47.17287,121.6],[-123.274564,47.169026,120.8],[-123.276826,47.165728,124.0],[-123.277403,47.162329,126.6],[-123.283187,47.161041,122.8],[-123.289702,47.160923,118.6],[-123.294467,47.157686,113.2],[-123.298034,47.153517,106.6],[-123.29744,47.148644,102.0],[-123.295288,47.145492,113.6],[-123.296096,47.14152,110.6],[-123.300821,47.137275,99.8],[-123.303572,47.134735,94.8],[-123.310628,47.134704,92.6],[-123.317367,47.135169,92.6],[-123.323857,47.135493,91.6],[-123.331046,47.135871,89.2],[-123.337989,47.136215,89.8],[-123.342811,47.134112,90.2],[-123.344474,47.129873,90.8],[-123.34995,47.126764,85.0],[-123.357141,47.126054,79.2],[-123.363898,47.124256,75.8],[-123.36962,47.121607,73.2],[-123.375203,47.118922,71.4],[-123.379173,47.116403,73.2],[-123.381811,47.115468,83.2],[-123.383457,47.112757,76.2],[-123.38526,47.108906,84.2],[-123.38573,47.105516,90.6],[-123.388602,47.102664,97.0],[-123.393795,47.102058,98.2],[-123.401416,47.100171,85.4],[-123.409768,47.100788,73.0],[-123.418021,47.100857,63.2],[-123.425462,47.10083,58.4],[-123.432042,47.101061,57.4],[-123.439679,47.100153,41.2],[-123.447174,47.099452,33.0],[-123.45337,47.097246,30.8],[-123.458557,47.096895,35.4],[-123.465508,47.095262,26.2],[-123.465853,47.097735,27.0],[-123.465475,47.097793,27.0],[-123.467309,47.0975,26.2],[-123.467636,47.097233,26.6],[-123.467548,47.096451,26.2]]}},{"type":"Feature","properties":{"date":"2023-05-27","source_file":"2.gpx","dist_m":163863,"vert_up_m":504,"vert_down_m":575,"points":385},"geometry":{"type":"LineString","coordinates":[[-123.467361,47.096405,42.0],[-123.468196,47.097012,41.8],[-123.466323,47.096736,42.8],[-123.46811,47.093177,41.0],[-123.471326,47.090051,44.0],[-123.475577,47.085988,39.4],[-123.479611,47.082588,40.6],[-123.480785,47.079479,42.8],[-123.478678,47.074499,34.6],[-123.475729,47.070156,33.2],[-123.479388,47.068067,41.0],[-123.484853,47.064989,31.8],[-123.489707,47.061652,28.8],[-123.49384,47.058196,29.4],[-123.496166,47.05433,30.0],[-123.499102,47.050868,26.8],[-123.502823,47.047693,25.4],[-123.506101,47.044195,24.6],[-123.509941,47.041045,25.2],[-123.511589,47.037564,28.4],[-123.512391,47.034124,31.6],[-123.511371,47.03006,30.8],[-123.509548,47.025757,27.4],[-123.508131,47.021824,25.8],[-123.506818,47.019374,38.4],[-123.504415,47.017627,47.6],[-123.499604,47.015095,46.0],[-123.498328,47.01071,44.6],[-123.495974,47.006662,45.0],[-123.49239,47.004075,36.6],[-123.494768,47.001312,18.8],[-123.500713,46.99965,12.2],[-123.506295,46.998526,10.2],[-123.510828,46.99743,16.2],[-123.515219,46.995798,17.0],[-123.519602,46.99399,18.4],[-123.525566,46.992693,15.8],[-123.531614,46.991368,15.2],[-123.537471,46.990117,14.6],[-123.54293,46.988936,15.0],[-123.548112,46.987818,14.8],[-123.553461,46.986654,14.4],[-123.559129,46.98543,11.4],[-123.564664,46.98422,11.6],[-123.570131,46.983038,11.6],[-123.575565,46.98187,10.4],[-123.580921,46.980772,11.0],[-123.586069,46.980113,13.2],[-123.591948,46.979622,10.6],[-123.597046,46.979591,14.2],[-123.599393,46.979121,15.4],[-123.602807,46.979512,16.8],[-123.607292,46.978914,21.6],[-123.612959,46.977705,13.0],[-123.618317,46.976939,19.0],[-123.622016,46.976624,26.2],[-123.621747,46.975178,24.8],[-123.624916,46.971117,14.0],[-123.628839,46.96748,8.0],[-123.633844,46.965947,7.6],[-123.639386,46.965825,7.6],[-123.644288,46.964056,6.8],[-123.649804,46.963203,6.2],[-123.655362,46.963534,5.8],[-123.66112,46.963039,5.8],[-123.666752,46.962562,5.4],[-123.672532,46.962268,5.6],[-123.678095,46.962257,5.6],[-123.682304,46.962814,11.6],[-123.685884,46.962861,21.6],[-123.690477,46.963131,23.8],[-123.694594,46.963368,31.2],[-123.698734,46.963805,37.6],[-123.704637,46.964386,35.4],[-123.711009,46.964088,27.6],[-123.717624,46.963687,17.0],[-123.724542,46.961888,7.2],[-123.72999,46.963497,6.0],[-123.734474,46.965316,11.0],[-123.738837,46.968211,6.0],[-123.742799,46.971659,6.2],[-123.744833,46.973623,6.0],[-123.74698,46.975003,6.0],[-123.751751,46.97751,5.6],[-123.75653,46.978902,7.0],[-123.762078,46.97941,10.0],[-123.766935,46.980776,11.6],[-123.772077,46.981549,19.8],[-123.776269,46.981839,27.8],[-123.78293,46.980569,17.8],[-123.788077,46.97904,21.4],[-123.793102,46.978202,21.0],[-123.798868,46.9776,12.4],[-123.800097,46.977539,8.6],[-123.802725,46.977606,7.0],[-123.805804,46.977352,6.0],[-123.811344,46.97715,8.4],[-123.814688,46.976366,6.4],[-123.816717,46.978154,7.0],[-123.81913,46.976795,7.0],[-123.822258,46.975807,7.8],[-123.825024,46.977291,9.6],[-123.828469,46.9776,16.8],[-123.833063,46.976899,6.0],[-123.837467,46.976906,6.2],[-123.842174,46.976936,5.6],[-123.846809,46.976955,4.8],[-123.851296,46.97697,5.2],[-123.856402,46.976948,4.6],[-123.861543,46.977032,4.4],[-123.86634,46.977047,5.4],[-123.871224,46.977085,5.6],[-123.874261,46.97592,5.8],[-123.876352,46.976266,5.8],[-123.879326,46.977711,7.0],[-123.883485,46.979511,7.0],[-123.886691,46.978536,5.8],[-123.889952,46.980284,5.6],[-123.894748,46.98103,4.8],[-123.900385,46.981049,5.0],[-123.906313,46.981106,6.0],[-123.90784,46.981148,6.4],[-123.913065,46.981167,5.8],[-123.918232,46.982007,6.0],[-123.924044,46.982661,6.6],[-123.923737,46.985387,17.4],[-123.921383,46.989393,12.4],[-123.914008,46.990971,8.4],[-123.906676,46.991208,8.8],[-123.899666,46.992874,7.4],[-123.896721,46.995753,7.6],[-123.90169,46.997898,8.0],[-123.904993,47.001459,6.6],[-123.90672,47.005753,6.4],[-123.910171,47.009418,7.6],[-123.913167,47.013484,7.0],[-123.915172,47.017709,6.8],[-123.916797,47.021936,7.0],[-123.919659,47.02566,8.8],[-123.921337,47.029687,9.8],[-123.922108,47.034321,7.4],[-123.922267,47.038767,7.4],[-123.923464,47.042857,8.2],[-123.924669,47.046654,12.4],[-123.925201,47.051099,7.4],[-123.925761,47.054883,13.4],[-123.927856,47.058866,11.4],[-123.930246,47.061918,16.2],[-123.930015,47.065684,20.8],[-123.928805,47.070071,17.8],[-123.925424,47.072824,22.0],[-123.920662,47.074889,26.4],[-123.916244,47.077569,32.4],[-123.911942,47.080383,32.8],[-123.908555,47.083766,39.0],[-123.905006,47.087048,36.6],[-123.904677,47.09108,41.2],[-123.904985,47.095041,44.4],[-123.905642,47.097967,52.0],[-123.906502,47.101994,49.8],[-123.904924,47.105755,54.8],[-123.900185,47.108097,55.2],[-123.895864,47.110596,59.8],[-123.896175,47.114436,61.6],[-123.897889,47.118057,64.6],[-123.89531,47.121378,70.6],[-123.894043,47.125272,73.4],[-123.8949,47.129026,75.6],[-123.897327,47.132586,79.8],[-123.897168,47.135964,90.2],[-123.895441,47.137802,101.4],[-123.892059,47.140535,98.6],[-123.88723,47.146697,78.6],[-123.883937,47.152206,72.4],[-123.882356,47.157685,66.0],[-123.879113,47.162825,58.4],[-123.882737,47.166423,57.0],[-123.885273,47.170665,55.6],[-123.887637,47.174209,58.4],[-123.891083,47.176471,61.0],[-123.895523,47.177981,61.0],[-123.901146,47.179854,56.8],[-123.906871,47.181793,51.8],[-123.912296,47.183606,52.4],[-123.91716,47.185279,55.2],[-123.922841,47.187191,51.2],[-123.928204,47.189003,51.0],[-123.933725,47.190845,48.6],[-123.938559,47.192473,52.0],[-123.943864,47.194259,50.6],[-123.947318,47.195667,50.8],[-123.947437,47.195667,50.6],[-123.951631,47.196895,49.6],[-123.954869,47.199667,53.0],[-123.956752,47.20231,61.8],[-123.958797,47.205193,66.4],[-123.960964,47.208223,70.2],[-123.963428,47.211698,71.0],[-123.966208,47.2156,72.0],[-123.969122,47.219833,65.2],[-123.967229,47.225178,48.4],[-123.962229,47.229428,45.8],[-123.957945,47.232862,50.6],[-123.954125,47.233983,61.8],[-123.949232,47.235071,67.0],[-123.943714,47.236956,68.0],[-123.938412,47.239646,70.0],[-123.932365,47.242715,70.0],[-123.929823,47.246866,71.0],[-123.927921,47.25072,76.6],[-123.924921,47.254681,81.4],[-123.922549,47.258997,80.4],[-123.920308,47.263289,81.2],[-123.918554,47.266636,86.8],[-123.917265,47.269115,98.0],[-123.916074,47.271414,106.8],[-123.914326,47.274806,108.2],[-123.91241,47.278685,111.8],[-123.910873,47.282748,113.0],[-123.911346,47.287425,111.8],[-123.909788,47.290554,120.8],[-123.908858,47.293158,129.6],[-123.908226,47.29714,128.6],[-123.90831,47.301018,131.8],[-123.908426,47.304838,131.8],[-123.908722,47.308835,134.4],[-123.908599,47.312149,140.6],[-123.908454,47.315934,143.8],[-123.90831,47.319675,147.0],[-123.90815,47.323643,152.4],[-123.907346,47.327353,156.2],[-123.906569,47.331024,162.2],[-123.906716,47.334618,167.2],[-123.907065,47.338245,171.4],[-123.907052,47.341557,175.8],[-123.9092,47.345983,164.8],[-123.908877,47.35233,136.4],[-123.911294,47.35906,114.0],[-123.90876,47.365064,100.4],[-123.905901,47.368369,105.8],[-123.903422,47.371241,111.2],[-123.900926,47.374126,116.2],[-123.898823,47.377547,118.6],[-123.896196,47.380918,120.4],[-123.89462,47.384451,124.2],[-123.893411,47.387826,129.0],[-123.892553,47.390751,135.2],[-123.891508,47.393946,143.2],[-123.890455,47.397251,148.2],[-123.889356,47.400527,152.2],[-123.887652,47.404034,153.6],[-123.88495,47.408056,153.8],[-123.882082,47.412307,149.8],[-123.878983,47.416907,145.8],[-123.876176,47.423099,128.2],[-123.876618,47.42827,122.8],[-123.876932,47.432241,126.4],[-123.87722,47.43619,129.4],[-123.877557,47.439965,131.4],[-123.877372,47.443884,134.4],[-123.876952,47.447996,133.4],[-123.879031,47.45485,99.4],[-123.887718,47.457028,75.6],[-123.892836,47.459236,79.2],[-123.895351,47.459232,89.6],[-123.897701,47.459236,100.2],[-123.902035,47.458509,98.0],[-123.907336,47.458437,103.0],[-123.911301,47.459322,105.8],[-123.914529,47.461493,112.0],[-123.917425,47.46404,117.6],[-123.919525,47.465913,130.2],[-123.922736,47.467859,132.4],[-123.925473,47.471451,128.8],[-123.928082,47.474943,132.0],[-123.930432,47.478133,134.2],[-123.933532,47.4801,139.8],[-123.938581,47.480221,139.4],[-123.945783,47.480232,132.8],[-123.951049,47.480232,137.6],[-123.956109,47.480255,142.8],[-123.960922,47.480274,147.4],[-123.965187,47.480286,153.2],[-123.969612,47.480301,157.6],[-123.973714,47.480407,162.4],[-123.977297,47.480343,171.6],[-123.98242,47.479578,164.8],[-123.988904,47.478499,157.8],[-123.994344,47.47762,157.0],[-124.000101,47.47665,148.0],[-124.006747,47.475539,139.6],[-124.011264,47.47476,136.0],[-124.016954,47.473972,125.6],[-124.022402,47.47374,132.8],[-124.025273,47.472292,144.2],[-124.027799,47.471528,155.8],[-124.0305,47.471956,166.4],[-124.033761,47.472543,173.6],[-124.038751,47.473413,173.2],[-124.042448,47.474084,184.0],[-124.047634,47.47497,180.8],[-124.05449,47.476702,172.0],[-124.059844,47.478207,172.4],[-124.06576,47.479861,169.8],[-124.071299,47.481422,169.2],[-124.077202,47.483084,167.2],[-124.082379,47.484543,165.6],[-124.087648,47.486008,163.4],[-124.09381,47.487757,160.6],[-124.098661,47.489105,162.0],[-124.105326,47.491184,156.4],[-124.108228,47.493809,162.4],[-124.113727,47.496226,153.8],[-124.120143,47.496477,147.6],[-124.12768,47.497822,138.4],[-124.134109,47.499558,134.2],[-124.140656,47.501326,129.0],[-124.144964,47.502498,131.0],[-124.149244,47.503239,139.4],[-124.152857,47.503435,145.6],[-124.156912,47.504878,148.0],[-124.160445,47.506473,153.6],[-124.163411,47.507796,163.6],[-124.167008,47.509441,168.6],[-124.171749,47.511568,169.0],[-124.178856,47.515171,144.8],[-124.185483,47.520937,108.0],[-124.190466,47.52467,104.8],[-124.195378,47.525116,101.2],[-124.1984,47.528842,100.4],[-124.205043,47.531408,83.6],[-124.2113,47.532428,80.4],[-124.217994,47.533534,73.6],[-124.223993,47.534509,70.2],[-124.229797,47.535464,67.6],[-124.235988,47.536486,64.2],[-124.242568,47.537574,60.8],[-124.248775,47.538599,58.4],[-124.255305,47.53969,54.8],[-124.26183,47.54086,46.6],[-124.269706,47.541771,33.2],[-124.274888,47.540357,39.0],[-124.280567,47.538762,37.0],[-124.285992,47.537247,36.0],[-124.290343,47.534958,39.4],[-124.294406,47.532407,42.2],[-124.299762,47.529061,38.0],[-124.304778,47.525905,35.0],[-124.309953,47.522642,34.2],[-124.31541,47.519215,32.2],[-124.321152,47.516203,30.0],[-124.327463,47.517104,31.0],[-124.333107,47.518979,30.0],[-124.335598,47.522476,33.0],[-124.337526,47.526745,28.8],[-124.335498,47.531462,28.4],[-124.33306,47.536103,24.6],[-124.335194,47.540617,15.4],[-124.338299,47.544328,14.4],[-124.342024,47.546737,16.4],[-124.345991,47.548568,19.2],[-124.349432,47.55017,26.0],[-124.353718,47.552163,26.4],[-124.356821,47.55548,25.2],[-124.357965,47.559747,24.6],[-124.35911,47.564033,22.2],[-124.360093,47.56596,22.8],[-124.360955,47.566006,18.0],[-124.36116,47.567032,17.6],[-124.361161,47.566121,17.0],[-124.361265,47.566108,16.6],[-124.359719,47.566127,24.2],[-124.360734,47.570111,23.8],[-124.361946,47.574636,23.2],[-124.363138,47.579027,23.4],[-124.364278,47.58326,23.2],[-124.365642,47.588007,20.0],[-124.367031,47.592604,20.6],[-124.368396,47.597037,21.8],[-124.369826,47.601837,19.6],[-124.371492,47.605283,19.4],[-124.371213,47.606226,18.2],[-124.373171,47.610406,18.8],[-124.375212,47.612785,19.6],[-124.376164,47.615206,18.0]]}},{"type":"Feature","properties":{"date":"2023-05-28","source_file":"3.gpx","dist_m":234497,"vert_up_m":1718,"vert_down_m":1623,"points":562},"geometry":{"type":"LineString","coordinates":[[-124.376869,47.61713,10.0],[-124.376562,47.615315,10.4],[-124.374551,47.612854,10.8],[-124.376319,47.61659,8.4],[-124.378234,47.62088,9.6],[-124.378925,47.623834,18.0],[-124.379745,47.627411,20.2],[-124.379951,47.630299,30.4],[-124.380549,47.633581,35.8],[-124.382755,47.636924,38.4],[-124.384076,47.640838,38.6],[-124.386001,47.644994,40.4],[-124.386451,47.647944,42.4],[-124.386929,47.652368,42.4],[-124.387364,47.656649,38.4],[-124.389665,47.660259,40.6],[-124.394095,47.664676,27.0],[-124.395426,47.668301,34.6],[-124.396865,47.671984,34.4],[-124.399767,47.675713,34.4],[-124.402717,47.679954,21.8],[-124.40438,47.682611,36.0],[-124.406116,47.686287,32.2],[-124.409111,47.688888,38.8],[-124.410389,47.69229,40.2],[-124.411014,47.696187,41.2],[-124.411628,47.700219,40.6],[-124.412512,47.704523,39.8],[-124.412351,47.709402,21.2],[-124.412308,47.711859,29.6],[-124.413413,47.713475,42.4],[-124.412423,47.715881,48.2],[-124.407758,47.71821,49.0],[-124.403031,47.720539,51.6],[-124.397904,47.721468,54.8],[-124.391908,47.723036,54.6],[-124.387601,47.725903,57.2],[-124.382537,47.728562,48.2],[-124.375151,47.732757,24.4],[-124.368121,47.733347,25.6],[-124.363032,47.735752,26.6],[-124.356074,47.735813,24.6],[-124.350638,47.738492,24.4],[-124.345594,47.74122,23.0],[-124.34026,47.744093,19.6],[-124.334612,47.746045,22.4],[-124.329838,47.747989,26.4],[-124.324616,47.749216,29.0],[-124.321828,47.752935,27.2],[-124.320253,47.756684,32.0],[-124.317275,47.759218,37.6],[-124.312914,47.762112,37.8],[-124.308619,47.764598,39.4],[-124.303581,47.766713,40.8],[-124.298546,47.768814,42.2],[-124.292715,47.770608,38.2],[-124.286624,47.772185,37.6],[-124.28266,47.774662,39.2],[-124.279818,47.777893,40.2],[-124.277381,47.781191,45.2],[-124.273892,47.782473,54.4],[-124.270063,47.781725,58.6],[-124.262703,47.780811,43.8],[-124.256552,47.781332,45.8],[-124.252775,47.782332,56.0],[-124.250953,47.785222,58.4],[-124.250411,47.789925,50.6],[-124.251778,47.793915,52.0],[-124.252086,47.797626,55.4],[-124.252072,47.801019,57.4],[-124.250611,47.803912,65.0],[-124.249626,47.806457,72.0],[-124.250265,47.809601,72.0],[-124.250941,47.811155,83.6],[-124.252963,47.810585,95.4],[-124.254211,47.809212,107.0],[-124.256263,47.809067,116.8],[-124.258189,47.810007,128.6],[-124.25917,47.811576,139.2],[-124.260364,47.813742,146.2],[-124.261984,47.81682,149.4],[-124.2638,47.82007,147.2],[-124.264039,47.824303,145.0],[-124.264709,47.828651,142.4],[-124.26641,47.831098,151.6],[-124.270898,47.83329,152.0],[-124.27382,47.835087,158.2],[-124.276493,47.837649,161.4],[-124.277316,47.839621,172.2],[-124.278926,47.841577,179.0],[-124.281106,47.844228,180.0],[-124.283347,47.846965,184.4],[-124.286537,47.849008,184.4],[-124.29234,47.849947,180.8],[-124.297495,47.85078,178.4],[-124.303616,47.851779,171.2],[-124.308298,47.852756,177.2],[-124.311066,47.853967,182.0],[-124.31524,47.854972,184.8],[-124.320395,47.854875,181.6],[-124.323695,47.857376,182.8],[-124.329151,47.859287,170.4],[-124.334408,47.862986,156.8],[-124.336763,47.866727,150.8],[-124.340896,47.87274,107.6],[-124.346449,47.876365,103.8],[-124.351955,47.881119,77.2],[-124.354448,47.884405,81.2],[-124.356295,47.88682,87.6],[-124.356652,47.890824,76.2],[-124.358098,47.894863,65.6],[-124.362573,47.894917,69.6],[-124.367488,47.894822,66.0],[-124.374131,47.894831,58.6],[-124.380164,47.895758,57.2],[-124.383273,47.898847,51.6],[-124.386441,47.902516,52.0],[-124.388372,47.904337,63.6],[-124.391713,47.907197,59.0],[-124.393752,47.909589,67.0],[-124.394184,47.91092,75.6],[-124.394499,47.912823,80.4],[-124.397759,47.915778,75.0],[-124.400422,47.918507,78.6],[-124.403894,47.922086,73.8],[-124.407767,47.926057,64.8],[-124.409668,47.929074,69.0],[-124.409063,47.930895,78.6],[-124.406973,47.932669,83.6],[-124.403217,47.9341,88.2],[-124.399317,47.935338,90.0],[-124.394794,47.936797,93.8],[-124.390215,47.938255,97.2],[-124.386034,47.940327,99.6],[-124.385472,47.943648,98.2],[-124.385391,47.947558,98.0],[-124.385353,47.950721,98.0],[-124.385536,47.951234,98.6],[-124.385696,47.951435,98.2],[-124.385323,47.95312,98.6],[-124.387593,47.956961,98.6],[-124.394901,47.96076,83.0],[-124.398796,47.962772,92.2],[-124.402197,47.965301,98.4],[-124.403648,47.969546,95.6],[-124.403328,47.974386,96.0],[-124.402723,47.979322,94.8],[-124.397319,47.984372,76.0],[-124.393671,47.986859,84.0],[-124.39161,47.990597,89.4],[-124.389996,47.994471,94.8],[-124.389752,47.999212,96.2],[-124.389542,48.003862,97.0],[-124.389328,48.008706,94.8],[-124.390845,48.013448,94.6],[-124.39124,48.017745,98.2],[-124.390484,48.02208,100.2],[-124.389409,48.025493,110.0],[-124.387879,48.028973,115.8],[-124.38691,48.032758,117.6],[-124.38314,48.037251,109.2],[-124.377996,48.042011,105.2],[-124.374742,48.044663,113.0],[-124.369938,48.047295,117.4],[-124.364413,48.049733,120.2],[-124.359153,48.052283,121.6],[-124.354013,48.055127,122.8],[-124.347343,48.055823,123.2],[-124.340965,48.054924,125.2],[-124.334243,48.054452,127.8],[-124.327856,48.054644,133.8],[-124.32322,48.055823,144.8],[-124.319178,48.057019,152.2],[-124.314432,48.058624,154.4],[-124.309925,48.061353,155.8],[-124.304555,48.066701,131.4],[-124.295862,48.068327,128.0],[-124.288661,48.069101,130.0],[-124.282399,48.069765,135.2],[-124.279031,48.071735,142.6],[-124.276543,48.074872,143.2],[-124.271219,48.078351,142.4],[-124.267615,48.081061,151.8],[-124.264018,48.084775,147.2],[-124.263447,48.089774,147.8],[-124.267139,48.093497,146.6],[-124.266473,48.095601,159.6],[-124.264813,48.097657,166.6],[-124.262468,48.101625,168.4],[-124.258437,48.105356,170.6],[-124.254903,48.108643,173.8],[-124.250522,48.11212,171.8],[-124.244456,48.114431,172.4],[-124.238044,48.116279,175.0],[-124.232462,48.117998,178.6],[-124.22732,48.119849,182.2],[-124.223554,48.121378,193.4],[-124.221284,48.123276,202.2],[-124.219678,48.126549,208.6],[-124.216491,48.129445,215.4],[-124.213708,48.132025,224.4],[-124.212124,48.134828,233.6],[-124.214958,48.137248,239.2],[-124.219469,48.142016,234.2],[-124.218516,48.145021,239.2],[-124.216928,48.148733,232.6],[-124.219511,48.155278,173.8],[-124.207482,48.157999,125.4],[-124.204953,48.165952,79.0],[-124.211957,48.171637,38.4],[-124.214545,48.17483,50.4],[-124.214657,48.175753,55.0],[-124.214924,48.177627,57.2],[-124.215429,48.181564,55.6],[-124.218496,48.185496,50.8],[-124.221194,48.186564,63.8],[-124.224521,48.18977,60.2],[-124.227662,48.192785,61.0],[-124.230148,48.195249,66.6],[-124.232675,48.197648,72.0],[-124.235104,48.200508,74.8],[-124.239171,48.202542,75.8],[-124.24297,48.204006,79.8],[-124.249194,48.205791,65.6],[-124.2489,48.21208,28.0],[-124.25043,48.216278,25.8],[-124.252708,48.22009,22.0],[-124.254028,48.223948,21.4],[-124.254158,48.227805,19.8],[-124.255361,48.231444,17.2],[-124.257644,48.235213,16.2],[-124.256495,48.23907,14.6],[-124.255016,48.24304,10.2],[-124.256694,48.246388,15.6],[-124.259195,48.248643,21.2],[-124.26017,48.252733,7.8],[-124.263832,48.253234,6.4],[-124.268926,48.253111,10.2],[-124.273396,48.253439,11.4],[-124.278298,48.254482,11.6],[-124.282479,48.257537,12.2],[-124.288094,48.257374,6.4],[-124.293559,48.257823,7.4],[-124.297362,48.258852,18.0],[-124.299471,48.259502,29.6],[-124.301505,48.260309,42.6],[-124.303358,48.261016,56.2],[-124.305422,48.26151,69.6],[-124.308026,48.262107,74.8],[-124.313535,48.263117,68.0],[-124.320129,48.264323,59.6],[-124.325983,48.265018,55.0],[-124.33149,48.265514,56.6],[-124.337573,48.266075,51.2],[-124.346424,48.267552,12.6],[-124.349352,48.270557,19.0],[-124.352925,48.271297,23.2],[-124.357507,48.274352,8.4],[-124.361163,48.276768,8.6],[-124.36582,48.277205,8.6],[-124.368945,48.278878,12.8],[-124.372804,48.281369,10.6],[-124.378147,48.283628,8.8],[-124.384298,48.284658,6.6],[-124.390021,48.28646,8.0],[-124.395161,48.287491,12.0],[-124.399722,48.290339,7.8],[-124.402504,48.292731,11.0],[-124.406411,48.295688,7.0],[-124.411295,48.297967,7.0],[-124.415657,48.300654,6.2],[-124.417224,48.301744,7.8],[-124.421681,48.302934,7.4],[-124.426912,48.304559,7.0],[-124.4328,48.305559,8.6],[-124.438179,48.307131,7.0],[-124.442603,48.30972,7.4],[-124.44587,48.312952,8.8],[-124.448904,48.316614,5.6],[-124.454892,48.317686,6.4],[-124.459189,48.320054,7.0],[-124.463408,48.321626,12.4],[-124.468716,48.323418,7.6],[-124.471555,48.325747,17.2],[-124.47727,48.328478,11.6],[-124.480903,48.330067,16.4],[-124.4863,48.331395,14.0],[-124.491897,48.333169,12.6],[-124.494789,48.335681,20.8],[-124.498788,48.336899,20.4],[-124.502226,48.338035,32.6],[-124.507606,48.341589,18.2],[-124.512324,48.343695,18.4],[-124.519066,48.345186,7.6],[-124.521978,48.347462,23.8],[-124.527529,48.348308,13.6],[-124.535122,48.348514,6.6],[-124.53897,48.349712,16.4],[-124.542204,48.351218,23.0],[-124.547034,48.352681,13.6],[-124.547858,48.354524,21.2],[-124.549765,48.355445,32.4],[-124.551761,48.356487,43.6],[-124.555187,48.358707,34.8],[-124.563422,48.35828,9.4],[-124.562585,48.359437,23.0],[-124.561311,48.360294,34.2],[-124.561732,48.361708,43.6],[-124.563743,48.3621,51.4],[-124.566124,48.362465,61.6],[-124.568978,48.36294,67.6],[-124.573978,48.364138,65.2],[-124.57834,48.365661,62.0],[-124.582011,48.366922,64.6],[-124.589541,48.370055,25.2],[-124.59727,48.369007,6.0],[-124.60189,48.368494,4.4],[-124.605524,48.367104,4.4],[-124.609508,48.366219,4.4],[-124.614124,48.365911,4.0],[-124.618731,48.366377,5.2],[-124.623635,48.368031,4.0],[-124.627393,48.367718,6.2],[-124.630472,48.366043,9.4],[-124.634106,48.363192,10.0],[-124.634996,48.358758,6.4],[-124.63721,48.355202,6.4],[-124.64086,48.352539,6.6],[-124.645351,48.352012,4.0],[-124.650034,48.351818,3.4],[-124.654715,48.350827,4.0],[-124.659367,48.349652,4.6],[-124.663759,48.347818,4.4],[-124.667852,48.346045,5.6],[-124.672467,48.346132,9.8],[-124.675659,48.347335,15.2],[-124.680499,48.347714,18.8],[-124.684368,48.346697,25.4],[-124.688168,48.346104,35.6],[-124.690165,48.347811,49.2],[-124.690822,48.34974,62.8],[-124.690624,48.35152,74.6],[-124.692553,48.352503,86.0],[-124.694958,48.353505,98.2],[-124.697043,48.354655,110.0],[-124.69889,48.355756,121.4],[-124.698529,48.357507,132.4],[-124.697311,48.359027,144.0],[-124.69755,48.36071,155.0],[-124.699008,48.362104,167.0],[-124.701559,48.363133,176.2],[-124.705541,48.36653,159.2],[-124.714211,48.368851,135.8],[-124.722785,48.374078,89.6],[-124.721394,48.376895,106.0],[-124.720086,48.378809,116.8],[-124.714563,48.379829,107.2],[-124.715797,48.384798,102.2],[-124.715836,48.384923,103.4],[-124.715762,48.381707,107.6],[-124.71628,48.378928,110.0],[-124.720507,48.378703,117.8],[-124.721862,48.372931,96.4],[-124.719049,48.371555,113.6],[-124.716838,48.370236,128.2],[-124.713851,48.368697,140.0],[-124.709595,48.367675,151.8],[-124.705688,48.366447,162.2],[-124.702501,48.364576,175.4],[-124.697684,48.361238,162.0],[-124.695877,48.353794,106.4],[-124.689749,48.346906,47.4],[-124.679565,48.347742,21.0],[-124.671561,48.346295,13.0],[-124.663851,48.347719,10.8],[-124.656449,48.350341,10.8],[-124.648365,48.351931,11.2],[-124.640392,48.35287,14.4],[-124.635975,48.357141,14.2],[-124.635068,48.361956,16.6],[-124.630933,48.365564,18.8],[-124.626179,48.368309,15.4],[-124.620667,48.366649,13.6],[-124.61352,48.365824,13.8],[-124.605817,48.36692,14.0],[-124.597176,48.36895,15.2],[-124.591277,48.369429,23.4],[-124.588854,48.370083,38.4],[-124.586557,48.369211,51.8],[-124.584868,48.367875,66.0],[-124.581401,48.366641,73.8],[-124.574962,48.364423,71.0],[-124.567679,48.36268,71.8],[-124.563532,48.358358,18.0],[-124.558018,48.358798,29.0],[-124.554983,48.358512,42.8],[-124.552224,48.356694,50.6],[-124.546988,48.352651,17.0],[-124.543175,48.35167,24.8],[-124.536998,48.348742,12.6],[-124.529557,48.348299,10.2],[-124.525762,48.348711,26.4],[-124.521328,48.346846,23.2],[-124.516204,48.344475,17.4],[-124.511718,48.343246,22.0],[-124.506132,48.340629,15.0],[-124.503217,48.338559,29.2],[-124.498579,48.336861,22.4],[-124.493142,48.333854,13.2],[-124.488119,48.331614,12.4],[-124.48268,48.330459,13.2],[-124.477723,48.328461,14.8],[-124.472365,48.325913,15.2],[-124.467863,48.32333,8.6],[-124.463346,48.321562,13.2],[-124.458272,48.319136,9.6],[-124.452711,48.317073,7.2],[-124.447427,48.314913,7.0],[-124.444609,48.311585,9.0],[-124.440688,48.308286,9.8],[-124.435605,48.305902,7.6],[-124.430038,48.305197,6.6],[-124.424076,48.304246,6.0],[-124.418861,48.302176,5.8],[-124.413859,48.299118,4.4],[-124.408499,48.296639,5.4],[-124.404438,48.293368,7.2],[-124.400248,48.291222,9.4],[-124.396176,48.288003,7.6],[-124.390199,48.286462,4.8],[-124.383268,48.284465,4.4],[-124.376932,48.282916,6.2],[-124.371621,48.280717,9.6],[-124.367218,48.277255,8.4],[-124.360785,48.275949,5.8],[-124.355602,48.27354,8.2],[-124.353437,48.271398,20.0],[-124.34828,48.268618,8.2],[-124.344182,48.267223,21.0],[-124.341767,48.2665,34.2],[-124.338513,48.266125,46.2],[-124.334011,48.265694,52.6],[-124.327476,48.265105,50.8],[-124.320605,48.264349,57.0],[-124.314646,48.263247,63.0],[-124.310002,48.26241,70.4],[-124.302133,48.260559,45.6],[-124.290703,48.257424,6.8],[-124.283696,48.257604,11.0],[-124.279582,48.254896,10.6],[-124.274711,48.253666,17.0],[-124.266914,48.253101,7.2],[-124.26043,48.254199,6.2],[-124.260262,48.251109,15.0],[-124.258856,48.24919,19.2],[-124.258728,48.249062,20.0],[-124.257199,48.246738,17.8],[-124.255237,48.241556,13.0],[-124.257735,48.237195,16.4],[-124.25644,48.23295,17.8],[-124.254295,48.228453,20.8],[-124.254066,48.223322,22.4],[-124.25253,48.218759,24.6],[-124.250119,48.21509,26.6],[-124.249598,48.211378,31.2],[-124.249985,48.209287,43.0],[-124.250069,48.207437,56.0],[-124.248959,48.205544,67.0],[-124.245418,48.204619,74.6],[-124.240172,48.202836,74.8],[-124.233573,48.199292,71.6],[-124.229404,48.194404,64.6],[-124.223899,48.188762,61.2],[-124.217414,48.184522,48.2],[-124.215172,48.179738,55.2],[-124.212566,48.177014,56.4],[-124.204134,48.179909,29.2],[-124.198353,48.177868,26.2],[-124.192146,48.18032,22.2],[-124.18583,48.182355,19.8],[-124.181582,48.185765,19.0],[-124.175704,48.187723,17.6],[-124.168862,48.187429,17.2],[-124.164989,48.191356,15.2],[-124.158138,48.189749,16.6],[-124.151841,48.190431,12.0],[-124.146381,48.189627,11.2],[-124.140052,48.18934,10.2],[-124.133346,48.191032,8.6],[-124.128662,48.193571,7.4],[-124.122432,48.195911,7.0],[-124.116462,48.196336,6.0],[-124.112433,48.194619,17.4],[-124.111006,48.193529,29.8],[-124.107169,48.195908,32.8],[-124.101273,48.195923,31.2],[-124.098364,48.196187,51.4],[-124.096189,48.194842,64.2],[-124.092298,48.193635,70.6],[-124.086731,48.192391,74.8],[-124.08092,48.190572,77.4],[-124.074689,48.187947,76.0],[-124.066572,48.184536,48.4],[-124.066278,48.179905,32.2],[-124.064187,48.180387,40.4],[-124.063472,48.182319,53.6],[-124.061947,48.181002,65.0],[-124.063335,48.177806,66.0],[-124.061566,48.174608,67.0],[-124.05473,48.174256,59.0],[-124.051799,48.17512,66.2],[-124.046454,48.173802,66.0],[-124.03898,48.173169,54.0],[-124.027466,48.172507,11.4],[-124.02049,48.171942,11.0],[-124.013923,48.170933,8.0],[-124.009731,48.170852,20.0],[-124.006849,48.171016,34.4],[-124.005164,48.17044,49.0],[-124.003446,48.169875,61.0],[-124.002159,48.169072,73.6],[-124.002204,48.167921,86.0],[-124.003054,48.166915,98.4],[-124.003894,48.165903,110.4],[-124.003523,48.164739,123.6],[-124.001899,48.163845,133.4],[-123.99854,48.162957,121.2],[-123.989008,48.164145,64.6],[-123.984811,48.16343,65.2],[-123.982807,48.162824,70.8],[-123.980608,48.162346,79.0],[-123.975823,48.162547,75.8],[-123.970013,48.1612,77.6],[-123.96323,48.160225,75.2],[-123.956245,48.163623,30.6],[-123.948972,48.16426,13.2],[-123.942979,48.163402,13.0],[-123.940918,48.162272,26.0],[-123.940652,48.160822,37.2],[-123.939539,48.159691,48.6],[-123.936642,48.159405,56.6],[-123.934942,48.157921,64.8],[-123.932566,48.157843,73.8],[-123.930233,48.156967,84.2],[-123.927824,48.156084,96.0],[-123.925474,48.155095,107.4],[-123.92498,48.154135,117.4],[-123.927232,48.154613,126.2],[-123.929568,48.154503,135.2],[-123.931628,48.153789,143.8],[-123.931166,48.152371,152.4],[-123.930352,48.150808,162.2],[-123.929147,48.149033,170.2],[-123.929436,48.14718,178.6],[-123.929513,48.145024,184.4],[-123.926445,48.142849,189.2],[-123.923052,48.140972,196.0],[-123.920876,48.138041,193.8],[-123.913882,48.136323,187.4],[-123.90712,48.13592,183.4],[-123.906228,48.134742,185.4],[-123.906878,48.13367,185.4]]}},{"type":"Feature","properties":{"date":"2023-05-29","source_file":"4.gpx","dist_m":170267,"vert_up_m":1161,"vert_down_m":1324,"points":394},"geometry":{"type":"LineString","coordinates":[[-123.90741,48.134048,181.8],[-123.906556,48.133716,183.6],[-123.906043,48.135449,180.4],[-123.900562,48.136055,164.8],[-123.893045,48.135673,161.4],[-123.887065,48.136409,162.6],[-123.879685,48.138988,144.2],[-123.870589,48.14214,105.2],[-123.863587,48.146335,87.6],[-123.854075,48.146397,63.6],[-123.847192,48.145969,61.2],[-123.838853,48.146767,43.6],[-123.832284,48.144634,42.4],[-123.829527,48.144077,55.6],[-123.825531,48.143501,63.0],[-123.821099,48.14254,68.8],[-123.816384,48.141815,73.6],[-123.811907,48.14116,80.8],[-123.807546,48.140534,86.8],[-123.802843,48.139897,90.8],[-123.798006,48.139515,95.0],[-123.793047,48.139664,99.8],[-123.788332,48.139854,104.0],[-123.783943,48.140018,108.8],[-123.779764,48.140156,111.8],[-123.7762,48.140175,117.4],[-123.776116,48.140175,117.4],[-123.771472,48.139858,117.6],[-123.764857,48.139225,111.8],[-123.75978,48.138756,119.2],[-123.754397,48.138226,120.6],[-123.747805,48.137497,118.6],[-123.741359,48.136769,119.4],[-123.734792,48.136043,118.0],[-123.728322,48.134943,117.6],[-123.722009,48.133679,118.6],[-123.716665,48.131656,123.8],[-123.711258,48.129959,125.8],[-123.705729,48.12832,126.2],[-123.697633,48.126763,103.8],[-123.689847,48.124275,94.2],[-123.682649,48.121952,83.4],[-123.676896,48.119694,79.0],[-123.670901,48.119309,80.8],[-123.665857,48.119057,83.6],[-123.661857,48.118858,86.0],[-123.65862,48.118378,93.4],[-123.655076,48.118016,99.6],[-123.651841,48.118023,107.2],[-123.648276,48.11776,113.4],[-123.643969,48.117901,117.8],[-123.639738,48.117664,121.2],[-123.635138,48.117787,125.4],[-123.628436,48.118301,118.4],[-123.618776,48.119404,89.8],[-123.612928,48.11882,94.8],[-123.606955,48.118484,95.4],[-123.601663,48.118161,99.8],[-123.597304,48.116535,102.2],[-123.591265,48.115875,103.2],[-123.587379,48.114552,110.0],[-123.583778,48.11454,112.4],[-123.57884,48.114578,102.6],[-123.57071,48.114666,92.4],[-123.565393,48.113259,94.0],[-123.563622,48.109438,95.8],[-123.562867,48.106016,99.8],[-123.561433,48.102811,100.8],[-123.55594,48.100365,93.4],[-123.553207,48.099522,103.2],[-123.550782,48.099297,112.0],[-123.548156,48.099348,121.4],[-123.545876,48.09935,130.0],[-123.543847,48.099342,138.0],[-123.542007,48.098984,148.4],[-123.540573,48.098172,157.8],[-123.538194,48.098076,158.4],[-123.530438,48.099986,143.0],[-123.521234,48.101024,133.8],[-123.51507,48.101604,133.8],[-123.508594,48.102264,134.4],[-123.502704,48.102833,132.4],[-123.494173,48.10366,127.6],[-123.487743,48.104301,128.4],[-123.480069,48.105053,113.4],[-123.473512,48.105698,121.4],[-123.465492,48.106476,98.6],[-123.45414,48.107635,69.4],[-123.447722,48.107956,71.8],[-123.442205,48.107266,69.6],[-123.436983,48.112432,32.8],[-123.433761,48.115964,22.6],[-123.432083,48.118,14.2],[-123.431412,48.117962,13.4],[-123.431594,48.118011,12.6],[-123.429672,48.11739,22.2],[-123.427575,48.116536,26.6],[-123.423364,48.114796,27.2],[-123.418825,48.112954,28.0],[-123.414071,48.111,27.8],[-123.410653,48.109593,38.0],[-123.40745,48.108258,39.4],[-123.404252,48.107037,49.0],[-123.400482,48.106464,52.6],[-123.396654,48.105953,58.2],[-123.391694,48.105305,60.8],[-123.38952,48.105049,70.4],[-123.38623,48.104649,71.2],[-123.379998,48.104606,69.8],[-123.375596,48.104778,76.8],[-123.371049,48.104877,83.2],[-123.365713,48.107118,75.2],[-123.357346,48.107549,36.4],[-123.355205,48.10284,26.0],[-123.352814,48.103309,36.8],[-123.351448,48.104382,45.8],[-123.350205,48.105434,55.0],[-123.348015,48.10648,62.2],[-123.344743,48.105237,67.6],[-123.342163,48.103336,74.2],[-123.338946,48.101201,81.6],[-123.334452,48.099393,85.4],[-123.327702,48.098214,82.6],[-123.322541,48.097344,90.8],[-123.319198,48.096783,99.4],[-123.315963,48.096268,108.6],[-123.311785,48.096168,112.6],[-123.304104,48.096092,103.0],[-123.294552,48.095742,95.2],[-123.285809,48.094754,94.4],[-123.277292,48.093785,90.8],[-123.268988,48.092976,84.6],[-123.262771,48.092262,91.4],[-123.258219,48.091614,98.8],[-123.252829,48.090999,101.8],[-123.245138,48.090122,97.0],[-123.237302,48.089237,93.0],[-123.232238,48.088665,105.0],[-123.226703,48.087876,107.6],[-123.221284,48.087025,112.2],[-123.212407,48.085625,101.0],[-123.202453,48.084241,72.6],[-123.192782,48.082684,67.8],[-123.18731,48.081757,74.2],[-123.181804,48.080861,71.8],[-123.174174,48.079571,68.2],[-123.170663,48.079056,74.8],[-123.166368,48.078373,79.4],[-123.160148,48.077385,78.6],[-123.15427,48.076573,83.0],[-123.14813,48.075756,82.2],[-123.142535,48.074948,84.8],[-123.13692,48.074193,87.6],[-123.130839,48.073425,90.6],[-123.12332,48.07325,86.0],[-123.114879,48.07317,79.8],[-123.105959,48.073086,68.0],[-123.098487,48.072994,63.0],[-123.0916,48.072628,64.0],[-123.085894,48.071999,67.6],[-123.080287,48.07108,65.4],[-123.075541,48.069951,72.6],[-123.0718,48.068805,79.2],[-123.067306,48.067448,80.4],[-123.060711,48.064657,67.4],[-123.054576,48.06109,56.0],[-123.051286,48.05869,66.2],[-123.047464,48.054299,57.6],[-123.04306,48.052132,59.2],[-123.036416,48.047601,36.4],[-123.031457,48.044038,33.4],[-123.030907,48.041017,40.0],[-123.030511,48.037401,43.8],[-123.027929,48.034861,48.6],[-123.022558,48.031578,46.2],[-123.017268,48.028322,40.4],[-123.010241,48.022696,8.2],[-123.003994,48.020462,8.2],[-122.999002,48.022224,8.0],[-122.995926,48.023865,14.6],[-122.994591,48.026229,22.6],[-122.992593,48.029052,23.4],[-122.989731,48.032131,32.0],[-122.987237,48.035322,32.4],[-122.984765,48.038535,35.0],[-122.982842,48.041088,43.0],[-122.98101,48.043583,50.4],[-122.979119,48.046016,57.2],[-122.974649,48.047997,57.4],[-122.969402,48.049643,58.8],[-122.964297,48.05024,63.8],[-122.959611,48.050243,68.6],[-122.955873,48.050228,77.4],[-122.953065,48.050236,87.2],[-122.949182,48.05022,91.6],[-122.945565,48.050213,102.2],[-122.942603,48.050201,113.4],[-122.938906,48.050201,120.6],[-122.932596,48.050209,112.6],[-122.923308,48.049938,87.4],[-122.915602,48.048398,79.2],[-122.90873,48.047009,86.6],[-122.89937,48.045132,71.6],[-122.890308,48.04329,63.2],[-122.880407,48.041229,40.0],[-122.875073,48.038124,45.2],[-122.872368,48.035862,52.0],[-122.869317,48.033299,53.6],[-122.866227,48.028437,45.2],[-122.864761,48.025066,47.6],[-122.864662,48.024979,47.8],[-122.863869,48.022461,49.8],[-122.862892,48.018856,53.6],[-122.862548,48.01383,45.6],[-122.864464,48.008297,37.6],[-122.868892,48.003783,35.4],[-122.876043,48.001614,31.2],[-122.88311,47.998436,11.2],[-122.887924,47.994099,10.0],[-122.89026,47.989908,9.0],[-122.886353,47.987381,10.4],[-122.886246,47.98732,10.8],[-122.884804,47.985293,17.6],[-122.885643,47.982934,25.8],[-122.884896,47.979763,29.6],[-122.88324,47.976125,29.8],[-122.883042,47.972327,31.0],[-122.881829,47.967932,29.2],[-122.881074,47.963682,34.0],[-122.882774,47.960504,39.6],[-122.882919,47.957359,46.2],[-122.883988,47.954536,52.0],[-122.883835,47.952011,60.8],[-122.883995,47.950375,70.4],[-122.884522,47.948967,78.8],[-122.884636,47.947349,87.2],[-122.883758,47.945854,95.8],[-122.881889,47.944618,104.4],[-122.879479,47.944023,112.8],[-122.876916,47.943714,121.8],[-122.874192,47.943379,131.6],[-122.871567,47.943054,140.4],[-122.868902,47.942741,148.4],[-122.865913,47.942368,157.2],[-122.862771,47.941986,166.6],[-122.859932,47.941639,175.0],[-122.85701,47.941273,183.6],[-122.853257,47.940583,187.0],[-122.849115,47.938699,188.8],[-122.843959,47.936281,189.8],[-122.836482,47.932771,166.0],[-122.826701,47.92817,127.6],[-122.817867,47.924135,98.8],[-122.812431,47.922546,107.4],[-122.810127,47.921913,115.8],[-122.807732,47.921265,124.0],[-122.805434,47.920631,132.4],[-122.802942,47.919953,141.2],[-122.800568,47.919312,149.8],[-122.798011,47.918606,158.2],[-122.794976,47.917629,167.8],[-122.791166,47.91527,165.8],[-122.785846,47.911936,162.8],[-122.781276,47.909018,167.2],[-122.778214,47.907071,176.6],[-122.774508,47.904733,177.2],[-122.767985,47.900591,162.6],[-122.760766,47.896027,147.6],[-122.753454,47.893463,144.4],[-122.747076,47.892341,143.4],[-122.737514,47.890697,116.0],[-122.727234,47.888905,84.8],[-122.720042,47.884108,65.0],[-122.713777,47.879243,38.2],[-122.70615,47.875519,14.6],[-122.697256,47.87405,8.4],[-122.690426,47.872125,18.0],[-122.685202,47.869899,23.8],[-122.679704,47.869522,28.4],[-122.674133,47.870239,34.0],[-122.66852,47.870971,39.2],[-122.662587,47.871613,44.6],[-122.65764,47.870919,53.4],[-122.654054,47.86945,61.8],[-122.649268,47.868187,65.2],[-122.639289,47.867659,26.0],[-122.63138,47.863741,4.6],[-122.625122,47.860172,4.8],[-122.619845,47.857209,6.0],[-122.615709,47.854879,15.4],[-122.611792,47.852672,23.6],[-122.607162,47.853489,23.2],[-122.600273,47.854851,23.8],[-122.595633,47.854568,31.2],[-122.588106,47.854199,22.8],[-122.584068,47.852664,24.0],[-122.584991,47.847942,19.8],[-122.5867,47.842871,13.4],[-122.587311,47.838939,20.8],[-122.587006,47.836432,30.2],[-122.58651,47.83246,29.2],[-122.585877,47.827554,25.6],[-122.585282,47.822886,22.2],[-122.584702,47.818425,22.2],[-122.584113,47.814242,20.6],[-122.579157,47.810506,12.8],[-122.577172,47.809262,24.8],[-122.575233,47.807975,33.6],[-122.572778,47.805898,41.0],[-122.570481,47.803726,48.4],[-122.566817,47.804917,58.2],[-122.562725,47.80566,63.8],[-122.556743,47.80913,50.8],[-122.546171,47.809517,24.0],[-122.539674,47.809467,29.2],[-122.53324,47.809479,27.2],[-122.528535,47.809463,32.8],[-122.52315,47.809456,32.8],[-122.515707,47.807502,23.8],[-122.511262,47.80571,29.6],[-122.508623,47.804707,42.4],[-122.504263,47.802924,37.8],[-122.49871,47.800223,29.4],[-122.496857,47.796978,10.0],[-122.496079,47.795841,5.8],[-122.496063,47.79583,5.8],[-122.494423,47.794933,4.8],[-122.491891,47.794259,7.8],[-122.488291,47.79436,9.8],[-122.386697,47.813618,-0.8],[-122.382996,47.812626,-0.8],[-122.37992,47.811504,9.8],[-122.377632,47.80996,13.6],[-122.377678,47.806317,19.0],[-122.377663,47.803757,29.4],[-122.377647,47.801744,40.4],[-122.37767,47.79971,51.4],[-122.377632,47.797635,62.4],[-122.376366,47.796085,74.6],[-122.373275,47.794887,82.4],[-122.369684,47.792123,86.8],[-122.366905,47.789999,93.6],[-122.366303,47.786164,100.6],[-122.366646,47.782598,105.0],[-122.363908,47.779031,110.2],[-122.359699,47.777741,120.0],[-122.35698,47.77779,137.2],[-122.353461,47.777729,144.0],[-122.351463,47.775705,148.0],[-122.35141,47.772776,151.8],[-122.351296,47.768611,150.4],[-122.351303,47.763672,145.6],[-122.351243,47.759876,140.8],[-122.351128,47.756004,139.0],[-122.351028,47.752096,137.6],[-122.349727,47.748653,135.8],[-122.345604,47.747309,133.0],[-122.345513,47.741883,129.2],[-122.34565,47.741547,130.0],[-122.34642,47.739087,137.2],[-122.347328,47.736107,143.8],[-122.34774,47.734234,145.8],[-122.347733,47.732191,146.8],[-122.347702,47.728155,145.0],[-122.348137,47.723295,137.4],[-122.348785,47.71962,132.4],[-122.34829,47.715346,126.2],[-122.349022,47.710519,126.2],[-122.347605,47.708031,116.0],[-122.347405,47.704514,114.8],[-122.347366,47.70087,104.6],[-122.347313,47.696813,98.4],[-122.344727,47.694321,87.6],[-122.344543,47.689129,74.4],[-122.340227,47.68678,61.4],[-122.33372,47.683107,53.6],[-122.327097,47.681333,54.2],[-122.324333,47.678044,54.0],[-122.322448,47.675922,53.8],[-122.318438,47.672204,52.8],[-122.317436,47.669235,61.6],[-122.317474,47.665546,67.2],[-122.317474,47.662308,60.4],[-122.317886,47.657482,38.6],[-122.320993,47.65214,19.4],[-122.322067,47.648646,28.6],[-122.322166,47.646608,44.8],[-122.322197,47.643877,51.4],[-122.320122,47.642094,61.0],[-122.320137,47.639923,77.8],[-122.32016,47.63773,91.8],[-122.320152,47.635033,103.2],[-122.320274,47.631895,109.6],[-122.320524,47.627434,109.8]]}}]}