{"type":"FeatureCollection","features":[{"type":"Feature","properties":{"date":"2025-05-24","source_file":"1.gpx","dist_m":213398,"vert_up_m":1801,"vert_down_m":1678,"points":469},"geometry":{"type":"LineString","coordinates":[[-122.344513,47.642086,34.6],[-122.348339,47.644991,21.2],[-122.349648,47.648215,15.6],[-122.352467,47.651855,16.0],[-122.358174,47.65314,11.2],[-122.362325,47.656618,11.2],[-122.366483,47.660905,9.6],[-122.371297,47.663731,7.8],[-122.375914,47.663742,9.4],[-122.380641,47.66552,10.6],[-122.38414,47.668464,18.0],[-122.38745,47.668732,14.2],[-122.394702,47.668691,7.0],[-122.400272,47.667476,8.6],[-122.4048,47.670449,7.2],[-122.405647,47.674074,5.6],[-122.405496,47.67843,1.6],[-122.40294,47.682836,2.4],[-122.402497,47.687383,2.8],[-122.401764,47.689887,7.6],[-122.4012,47.68939,23.4],[-122.399773,47.689761,42.6],[-122.400077,47.691726,56.6],[-122.401076,47.693785,67.4],[-122.401407,47.695999,73.8],[-122.395818,47.699494,25.8],[-122.390276,47.7014,10.8],[-122.386446,47.703086,21.4],[-122.384286,47.703526,39.0],[-122.382226,47.703872,56.4],[-122.3817,47.705131,70.4],[-122.380091,47.70422,88.2],[-122.377978,47.702211,97.8],[-122.376786,47.702668,104.0],[-122.375863,47.7052,98.0],[-122.375824,47.705208,98.0],[-122.375519,47.705196,96.0],[-122.375199,47.705227,96.4],[-122.374871,47.705185,98.0],[-122.370085,47.705174,90.4],[-122.366089,47.702911,73.2],[-122.362986,47.702941,74.0],[-122.360805,47.703521,84.2],[-122.360764,47.706754,91.4],[-122.360817,47.710408,99.8],[-122.360894,47.71377,107.0],[-122.360901,47.716795,116.4],[-122.360962,47.719904,123.6],[-122.36097,47.723581,131.6],[-122.360939,47.727266,138.8],[-122.360924,47.73105,144.0],[-122.358624,47.734131,137.4],[-122.355362,47.734917,151.0],[-122.355644,47.738122,155.0],[-122.355645,47.742581,156.6],[-122.355713,47.748146,135.6],[-122.359318,47.752206,108.0],[-122.361176,47.75489,87.2],[-122.36595,47.755978,94.4],[-122.368102,47.755784,113.8],[-122.369179,47.756887,127.0],[-122.36661,47.759684,128.4],[-122.366562,47.764157,127.0],[-122.366562,47.765021,127.4],[-122.366584,47.769124,127.4],[-122.3666,47.773375,133.6],[-122.366554,47.778007,131.4],[-122.367146,47.783279,105.6],[-122.372056,47.784643,99.8],[-122.372688,47.786602,100.6],[-122.374748,47.790944,86.4],[-122.372506,47.794144,83.4],[-122.377371,47.797629,62.2],[-122.37751,47.804363,28.2],[-122.377525,47.808099,16.6],[-122.377782,47.810755,15.2],[-122.377799,47.813407,12.0],[-122.374233,47.817751,7.2],[-122.369157,47.817707,19.0],[-122.366943,47.819466,24.4],[-122.364457,47.821488,33.6],[-122.361687,47.823942,42.4],[-122.361642,47.829098,33.4],[-122.360307,47.83177,46.4],[-122.357685,47.833785,55.4],[-122.352901,47.835021,64.0],[-122.348109,47.835675,75.6],[-122.342883,47.837612,79.8],[-122.339075,47.83469,77.8],[-122.336596,47.831227,83.8],[-122.332705,47.830281,97.0],[-122.329523,47.832357,103.6],[-122.325089,47.835711,106.2],[-122.324784,47.839052,112.6],[-122.322123,47.842547,118.8],[-122.318423,47.845926,126.2],[-122.31121,47.846512,128.2],[-122.304354,47.846588,129.0],[-122.303528,47.849131,129.6],[-122.303543,47.852945,137.6],[-122.303551,47.856916,145.2],[-122.303543,47.861511,146.2],[-122.303543,47.864311,148.4],[-122.30106,47.867575,152.2],[-122.296404,47.869864,162.4],[-122.293246,47.872678,169.2],[-122.288853,47.876591,173.6],[-122.2865,47.878677,180.8],[-122.286345,47.878803,181.2],[-122.291349,47.883004,154.4],[-122.294112,47.887197,156.4],[-122.29649,47.891041,157.0],[-122.300452,47.895158,152.0],[-122.304298,47.898013,153.8],[-122.30269,47.902884,148.4],[-122.295765,47.904899,146.4],[-122.293221,47.905059,162.2],[-122.29328,47.908237,159.0],[-122.294104,47.911782,148.8],[-122.297805,47.915362,145.6],[-122.300049,47.919961,139.2],[-122.300056,47.922456,136.2],[-122.300392,47.927907,131.2],[-122.306214,47.9328,101.6],[-122.30568,47.94103,53.4],[-122.30397,47.946497,21.6],[-122.301202,47.948734,3.6],[-122.300417,47.949096,4.4],[-122.300187,47.949162,4.8],[-122.299904,47.949249,4.8],[-122.297036,47.950004,5.2],[-122.296799,47.950297,5.2],[-122.297599,47.951373,3.8],[-122.298865,47.953059,3.0],[-122.3037,47.954589,2.4],[-122.310016,47.955619,3.2],[-122.316311,47.956794,4.2],[-122.323093,47.957961,5.0],[-122.329297,47.959784,7.0],[-122.334836,47.962484,8.4],[-122.33959,47.965631,9.4],[-122.343786,47.969233,9.4],[-122.346633,47.971716,10.4],[-122.348205,47.973361,11.0],[-122.349136,47.974445,11.8],[-122.349411,47.974773,12.2],[-122.352331,47.974838,15.2],[-122.3534,47.976363,34.6],[-122.355346,47.97821,47.6],[-122.358922,47.979717,58.8],[-122.363415,47.979641,70.8],[-122.367628,47.979542,85.8],[-122.371504,47.979138,99.8],[-122.376035,47.978672,111.4],[-122.38087,47.980528,120.0],[-122.384912,47.982511,132.2],[-122.388798,47.984335,140.8],[-122.393597,47.98819,131.4],[-122.398945,47.993809,111.4],[-122.407409,47.999788,68.0],[-122.415471,48.001205,70.2],[-122.423532,48.002357,53.0],[-122.429861,48.003185,59.2],[-122.433225,48.003685,69.6],[-122.436994,48.004257,79.8],[-122.442509,48.003584,80.4],[-122.448429,48.000806,76.6],[-122.456958,48.000182,53.0],[-122.462804,48.005768,25.4],[-122.470227,48.008018,18.0],[-122.47564,48.00808,24.8],[-122.479983,48.007688,35.8],[-122.48473,48.006764,42.2],[-122.492802,48.006969,36.8],[-122.497471,48.007225,49.6],[-122.504025,48.008174,46.6],[-122.511746,48.009464,49.4],[-122.518443,48.008508,51.2],[-122.527418,48.007705,36.2],[-122.533361,48.009597,31.8],[-122.540188,48.01116,26.4],[-122.54492,48.014784,26.8],[-122.547027,48.016483,41.6],[-122.54888,48.01789,55.6],[-122.552084,48.019355,67.2],[-122.556508,48.021502,74.0],[-122.560691,48.02713,55.4],[-122.562118,48.030786,69.2],[-122.563484,48.034254,75.2],[-122.564735,48.038847,74.4],[-122.566314,48.043936,72.8],[-122.566811,48.047624,83.0],[-122.566818,48.05105,90.8],[-122.566742,48.054244,102.8],[-122.56675,48.057939,109.0],[-122.566735,48.062558,108.8],[-122.566689,48.067598,107.8],[-122.566947,48.072287,107.0],[-122.568656,48.076327,110.2],[-122.570343,48.080985,106.8],[-122.568139,48.087307,87.8],[-122.570899,48.094133,62.2],[-122.573531,48.099241,53.0],[-122.577779,48.10523,16.2],[-122.581328,48.109289,24.0],[-122.583976,48.113375,23.6],[-122.585433,48.115893,37.2],[-122.586982,48.118666,49.4],[-122.587844,48.122025,58.0],[-122.588623,48.125224,67.2],[-122.589401,48.128535,78.4],[-122.59024,48.131907,87.8],[-122.591079,48.135542,92.8],[-122.592162,48.139748,95.4],[-122.593292,48.143808,100.4],[-122.594123,48.149194,90.0],[-122.596869,48.155008,77.8],[-122.60262,48.158789,71.6],[-122.606047,48.163011,70.4],[-122.607605,48.16772,73.8],[-122.610304,48.172141,70.0],[-122.616667,48.175795,63.6],[-122.621206,48.180713,63.2],[-122.626549,48.184244,63.0],[-122.626549,48.189222,64.0],[-122.626633,48.194357,63.6],[-122.62981,48.198043,65.4],[-122.634445,48.201116,63.4],[-122.634422,48.205302,66.2],[-122.63446,48.208441,67.8],[-122.634407,48.212473,67.2],[-122.638638,48.21719,41.6],[-122.64475,48.220424,38.0],[-122.647101,48.22084,57.8],[-122.651144,48.220932,64.6],[-122.657178,48.221024,67.8],[-122.663618,48.221046,62.0],[-122.673458,48.221046,24.2],[-122.681119,48.220005,11.6],[-122.685309,48.220058,24.2],[-122.687133,48.221168,11.2],[-122.688263,48.221351,9.4],[-122.688247,48.22136,9.4],[-122.686761,48.221134,12.0],[-122.686466,48.221076,13.8],[-122.688681,48.220467,16.2],[-122.691512,48.22004,31.6],[-122.694655,48.219715,45.4],[-122.699529,48.217431,35.6],[-122.70446,48.216145,27.8],[-122.705046,48.21603,25.4],[-122.712012,48.213707,16.4],[-122.716598,48.21439,27.4],[-122.716712,48.214383,27.6],[-122.723203,48.213603,18.8],[-122.7266,48.217967,14.8],[-122.730415,48.221671,13.4],[-122.732747,48.225745,8.8],[-122.734863,48.229781,10.4],[-122.735079,48.233557,10.2],[-122.728442,48.233959,14.8],[-122.724007,48.234554,10.8],[-122.721284,48.23656,22.0],[-122.717768,48.23894,28.0],[-122.713404,48.240726,38.4],[-122.704966,48.240826,29.2],[-122.701371,48.239628,23.8],[-122.695321,48.239277,23.6],[-122.690714,48.239163,28.8],[-122.682658,48.240837,5.4],[-122.676584,48.239934,10.6],[-122.671433,48.240737,16.2],[-122.66964,48.242126,31.4],[-122.667848,48.243606,43.4],[-122.664956,48.244759,54.6],[-122.661285,48.245304,63.4],[-122.659524,48.245769,60.8],[-122.658798,48.249754,61.4],[-122.658806,48.253508,64.0],[-122.658135,48.257281,65.2],[-122.657547,48.263216,43.8],[-122.6593,48.266159,48.8],[-122.6642,48.267641,36.4],[-122.664405,48.273654,25.8],[-122.665085,48.276862,35.4],[-122.666145,48.282244,9.2],[-122.664713,48.284419,15.4],[-122.663063,48.286441,6.0],[-122.663238,48.28931,19.4],[-122.660735,48.29119,11.6],[-122.663452,48.291294,19.2],[-122.664527,48.293682,24.0],[-122.666039,48.295554,32.6],[-122.664011,48.298485,33.4],[-122.65786,48.298477,22.2],[-122.657662,48.301997,26.4],[-122.656761,48.305655,30.4],[-122.656563,48.309973,29.2],[-122.656258,48.313708,37.8],[-122.655854,48.317806,37.6],[-122.655243,48.322469,36.4],[-122.655296,48.322136,36.4],[-122.654411,48.325793,34.2],[-122.659498,48.325943,41.6],[-122.665884,48.325931,43.0],[-122.669449,48.328676,17.2],[-122.669327,48.332829,6.4],[-122.669426,48.32974,10.2],[-122.669479,48.327763,26.0],[-122.669518,48.326176,43.0],[-122.665491,48.325859,44.6],[-122.65774,48.325859,40.4],[-122.649645,48.325855,33.8],[-122.644687,48.325855,32.0],[-122.637178,48.326904,31.0],[-122.631303,48.328636,34.8],[-122.629707,48.328873,35.8],[-122.630248,48.331567,35.4],[-122.630043,48.334564,48.2],[-122.627373,48.338741,41.6],[-122.622277,48.343498,34.0],[-122.613944,48.346297,21.6],[-122.61232,48.353253,0.4],[-122.613479,48.356521,13.6],[-122.616073,48.357841,25.6],[-122.619727,48.358143,35.8],[-122.624297,48.358196,41.4],[-122.630403,48.358246,37.0],[-122.636802,48.359225,33.0],[-122.637878,48.360622,49.2],[-122.637001,48.362041,65.2],[-122.636665,48.364196,75.8],[-122.636703,48.367968,74.4],[-122.636757,48.372989,69.2],[-122.636795,48.377406,62.8],[-122.636856,48.382091,66.2],[-122.636826,48.386648,53.4],[-122.644956,48.387138,36.4],[-122.647011,48.390739,13.8],[-122.646187,48.393688,19.2],[-122.646027,48.396396,30.8],[-122.645035,48.398998,44.2],[-122.644851,48.402328,52.6],[-122.644546,48.404933,57.0],[-122.645163,48.408686,56.6],[-122.648264,48.41318,46.6],[-122.640885,48.417091,40.4],[-122.634976,48.417814,49.2],[-122.629723,48.418468,56.0],[-122.623092,48.419408,63.4],[-122.618203,48.423537,48.2],[-122.609209,48.427966,25.0],[-122.607506,48.432281,32.2],[-122.607544,48.435637,42.6],[-122.602135,48.440901,23.0],[-122.602807,48.445788,23.2],[-122.599107,48.447056,39.0],[-122.595651,48.448322,51.6],[-122.592362,48.450317,66.0],[-122.587884,48.452156,68.6],[-122.581971,48.455396,59.6],[-122.581268,48.463656,15.0],[-122.586525,48.467765,13.0],[-122.587799,48.471633,20.0],[-122.589622,48.47552,24.2],[-122.59301,48.47967,24.4],[-122.595657,48.483306,27.8],[-122.596143,48.48411,29.8],[-122.59854,48.486964,35.8],[-122.600899,48.490288,41.6],[-122.605821,48.492994,36.8],[-122.610922,48.493408,40.0],[-122.61277,48.496825,31.2],[-122.612694,48.502623,18.2],[-122.61261,48.506407,12.0],[-122.612518,48.51219,8.4],[-122.61689,48.512707,15.2],[-122.620307,48.512741,23.8],[-122.625769,48.51276,27.8],[-122.63233,48.512787,25.0],[-122.639075,48.512043,22.6],[-122.644675,48.510559,23.0],[-122.645384,48.510375,22.8],[-122.649476,48.509333,32.0],[-122.654166,48.508061,35.4],[-122.658644,48.506882,40.4],[-122.662582,48.504575,44.4],[-122.667631,48.502167,39.2],[-122.673414,48.499821,36.8],[-122.679344,48.502367,12.6],[-122.679009,48.505159,10.4],[-122.678978,48.505565,9.8],[-122.678185,48.506679,6.4],[-122.677856,48.507095,6.4],[-122.67775,48.507225,6.6],[-122.677429,48.507401,6.2],[-122.943001,48.596642,-2.6],[-122.943008,48.596664,-2.4],[-122.943596,48.597298,-1.8],[-122.944252,48.597919,4.0],[-122.945922,48.597843,14.4],[-122.94648,48.600005,16.0],[-122.946411,48.603226,27.0],[-122.944824,48.606616,27.8],[-122.944809,48.609847,40.6],[-122.944832,48.611679,54.8],[-122.944763,48.613491,69.4],[-122.945267,48.614948,87.4],[-122.94561,48.616703,100.6],[-122.943978,48.619754,100.6],[-122.944763,48.627032,51.2],[-122.944771,48.632427,51.0],[-122.944755,48.637625,47.0],[-122.944733,48.641185,54.4],[-122.944108,48.644782,60.4],[-122.939026,48.646274,61.0],[-122.939026,48.646355,61.2],[-122.939102,48.648936,75.0],[-122.939057,48.651626,88.0],[-122.939064,48.655489,87.2],[-122.937486,48.659679,88.6],[-122.930154,48.659618,84.0],[-122.928139,48.662151,94.0],[-122.928139,48.66717,87.8],[-122.928123,48.673434,70.8],[-122.929428,48.679793,40.2],[-122.929268,48.683776,46.4],[-122.925828,48.686576,55.2],[-122.920762,48.690574,40.8],[-122.915086,48.692772,47.6],[-122.91159,48.696651,26.4],[-122.911644,48.70222,19.0],[-122.909042,48.703159,18.4],[-122.905747,48.702976,31.6],[-122.90065,48.702961,33.6],[-122.892344,48.702881,20.4],[-122.884575,48.702488,17.0],[-122.884605,48.700483,34.2],[-122.88456,48.698594,48.2],[-122.884506,48.695531,49.8],[-122.883949,48.689512,23.8],[-122.881844,48.685323,26.4],[-122.880608,48.682321,33.6],[-122.880364,48.677747,26.6],[-122.879173,48.675057,36.8],[-122.877984,48.672372,43.0],[-122.877784,48.67067,57.0],[-122.879989,48.669671,73.0],[-122.880493,48.668,88.8],[-122.87986,48.666233,102.0],[-122.879013,48.664581,116.4],[-122.877061,48.663563,131.6],[-122.875069,48.662472,142.2],[-122.87124,48.660549,141.8],[-122.866548,48.658433,141.6],[-122.861764,48.657359,132.8],[-122.861717,48.657479,132.8],[-122.856674,48.657322,119.6],[-122.856361,48.657444,123.2],[-122.856567,48.657352,122.6],[-122.860809,48.657833,134.2],[-122.861649,48.657505,137.6],[-122.853964,48.655356,113.4],[-122.850197,48.651364,118.2],[-122.848024,48.649273,127.8],[-122.84462,48.649574,143.8],[-122.841691,48.649517,157.6],[-122.838731,48.64877,168.6],[-122.838097,48.649166,182.0]]}},{"type":"Feature","properties":{"date":"2025-05-25","source_file":"2.gpx","dist_m":204175,"vert_up_m":1552,"vert_down_m":1720,"points":404},"geometry":{"type":"LineString","coordinates":[[-122.837868,48.648911,173.2],[-122.840087,48.648867,171.6],[-122.835562,48.644648,145.2],[-122.834207,48.639659,129.0],[-122.834535,48.634739,119.4],[-122.834097,48.629982,106.4],[-122.835716,48.621916,41.4],[-122.835681,48.619486,26.4],[-122.835693,48.619462,25.6],[-122.835655,48.621351,38.0],[-122.835311,48.622839,43.2],[-122.835068,48.623009,41.6],[-122.835704,48.624261,48.0],[-122.835543,48.625777,66.4],[-122.834377,48.626993,85.4],[-122.834274,48.62922,96.6],[-122.833611,48.631201,114.8],[-122.834541,48.634605,117.4],[-122.834251,48.638715,123.2],[-122.83399,48.642112,131.0],[-122.835396,48.644478,145.8],[-122.838953,48.646694,154.0],[-122.83974,48.648711,169.0],[-122.847985,48.64918,137.0],[-122.852604,48.654909,124.8],[-122.857774,48.657294,133.4],[-122.861254,48.657848,147.8],[-122.866015,48.65833,156.0],[-122.871027,48.660597,157.2],[-122.87777,48.663916,142.2],[-122.877714,48.672176,55.6],[-122.880301,48.678838,40.8],[-122.880682,48.682614,45.4],[-122.882947,48.687481,33.4],[-122.883671,48.69173,38.2],[-122.884285,48.694468,52.6],[-122.888953,48.695721,40.2],[-122.898425,48.69529,15.8],[-122.902987,48.694409,27.4],[-122.908394,48.694565,18.4],[-122.911171,48.693981,25.4],[-122.91332,48.693038,41.6],[-122.916405,48.692638,54.6],[-122.921862,48.689547,48.4],[-122.925369,48.687596,59.4],[-122.929024,48.684465,54.8],[-122.929482,48.679595,47.6],[-122.930193,48.676893,62.8],[-122.928925,48.674859,70.8],[-122.928163,48.671872,74.0],[-122.928183,48.668982,85.8],[-122.92814,48.666168,94.2],[-122.928192,48.662942,101.2],[-122.931285,48.659676,88.6],[-122.937753,48.659711,95.6],[-122.939095,48.655639,93.4],[-122.93914,48.651458,93.8],[-122.940352,48.645308,65.2],[-122.944748,48.643362,66.4],[-122.944818,48.638193,55.8],[-122.944817,48.633504,53.0],[-122.944855,48.630143,58.4],[-122.944832,48.626399,60.4],[-122.944849,48.624398,72.2],[-122.944446,48.622569,86.2],[-122.943497,48.621058,101.8],[-122.944328,48.618906,110.4],[-122.945402,48.615131,101.2],[-122.944901,48.606753,34.2],[-122.946613,48.602943,35.8],[-122.947385,48.599402,33.8],[-122.945707,48.598565,31.0],[-122.944024,48.598063,15.8],[-122.944099,48.597878,14.0],[-122.678493,48.506361,17.2],[-122.679611,48.503764,23.8],[-122.678443,48.500514,32.6],[-122.675019,48.499557,49.8],[-122.671586,48.500337,47.0],[-122.665829,48.502807,52.0],[-122.660588,48.506237,55.2],[-122.650076,48.509092,41.8],[-122.639642,48.511814,31.6],[-122.631968,48.512688,34.2],[-122.626617,48.512642,38.0],[-122.617081,48.512596,26.2],[-122.612732,48.510023,18.4],[-122.612839,48.505325,24.4],[-122.612854,48.502299,28.0],[-122.612915,48.498834,35.8],[-122.612952,48.495652,43.8],[-122.611345,48.493263,51.2],[-122.602751,48.491867,48.6],[-122.599069,48.487236,46.4],[-122.594147,48.481477,34.4],[-122.591386,48.476825,33.6],[-122.588091,48.471786,30.6],[-122.585818,48.465697,22.2],[-122.582002,48.462774,26.8],[-122.582047,48.460366,39.8],[-122.582077,48.458213,50.4],[-122.582031,48.456014,62.2],[-122.583244,48.454119,73.4],[-122.587771,48.452214,74.8],[-122.592977,48.450019,70.8],[-122.601395,48.446555,35.2],[-122.601868,48.441613,27.8],[-122.605229,48.437987,32.8],[-122.607373,48.436513,45.6],[-122.60762,48.432578,41.0],[-122.61063,48.427371,34.4],[-122.615036,48.425573,39.8],[-122.618033,48.423934,53.4],[-122.618828,48.421773,63.6],[-122.621099,48.420064,73.6],[-122.627663,48.418664,63.6],[-122.634985,48.417888,57.8],[-122.642555,48.416822,48.0],[-122.647339,48.414036,48.8],[-122.648749,48.411016,67.0],[-122.645125,48.408591,67.0],[-122.644629,48.405593,67.8],[-122.644888,48.404283,65.8],[-122.644986,48.399485,57.0],[-122.646751,48.392145,24.6],[-122.648045,48.388233,35.8],[-122.645566,48.387081,47.8],[-122.641115,48.387059,56.4],[-122.636841,48.386665,63.8],[-122.636879,48.384379,78.8],[-122.636856,48.380729,76.4],[-122.636818,48.37591,75.2],[-122.636787,48.372167,78.8],[-122.636751,48.368027,85.2],[-122.636726,48.364352,88.0],[-122.63669,48.358602,38.6],[-122.632979,48.358196,41.6],[-122.628525,48.358121,53.8],[-122.621242,48.35807,50.4],[-122.612528,48.354908,14.4],[-122.613101,48.351527,11.0],[-122.612973,48.351554,11.0],[-122.612502,48.350841,12.6],[-122.612781,48.347935,23.4],[-122.614817,48.346015,35.0],[-122.619071,48.344704,42.2],[-122.623662,48.342719,46.8],[-122.627298,48.339087,50.6],[-122.629408,48.336534,63.8],[-122.630313,48.331046,48.4],[-122.628949,48.326766,57.4],[-122.62897,48.324035,68.0],[-122.629912,48.319266,62.6],[-122.633213,48.315428,66.4],[-122.637535,48.311738,64.4],[-122.644051,48.306185,37.8],[-122.649535,48.301472,31.2],[-122.653111,48.298329,29.0],[-122.657246,48.293845,21.8],[-122.657967,48.288971,18.2],[-122.66197,48.285521,12.6],[-122.665407,48.284311,26.8],[-122.66584,48.281682,21.0],[-122.664955,48.279373,36.2],[-122.665126,48.276969,44.4],[-122.662904,48.27203,26.4],[-122.660455,48.269388,37.0],[-122.658252,48.26769,48.0],[-122.657585,48.264685,50.6],[-122.657614,48.260808,56.4],[-122.657663,48.258453,67.2],[-122.658836,48.255664,73.2],[-122.658852,48.250947,71.8],[-122.659061,48.246259,68.6],[-122.665054,48.244767,63.4],[-122.664937,48.244737,63.8],[-122.661248,48.245329,72.0],[-122.664958,48.244747,63.0],[-122.669225,48.242662,43.8],[-122.677831,48.240333,19.4],[-122.684908,48.240627,11.8],[-122.687903,48.239377,24.8],[-122.691291,48.239275,33.0],[-122.698944,48.23943,21.6],[-122.705238,48.239578,24.0],[-122.712019,48.23802,15.0],[-122.716806,48.236822,24.8],[-122.719734,48.237239,31.4],[-122.725378,48.234171,14.6],[-122.732136,48.234387,12.4],[-122.735355,48.231733,11.4],[-122.734163,48.227297,11.8],[-122.730852,48.223462,12.8],[-122.729665,48.219874,16.8],[-122.72551,48.216814,21.0],[-122.722456,48.213395,23.6],[-122.717061,48.2143,29.0],[-122.709854,48.214041,19.4],[-122.704863,48.216021,29.4],[-122.70343,48.215045,46.8],[-122.703377,48.212994,58.8],[-122.696121,48.21257,45.8],[-122.693059,48.212352,46.0],[-122.687633,48.212132,48.0],[-122.686195,48.208988,40.4],[-122.686159,48.204302,34.8],[-122.686211,48.199735,34.6],[-122.686218,48.195674,35.0],[-122.686205,48.192084,39.6],[-122.687979,48.189282,49.8],[-122.688071,48.186518,60.6],[-122.688087,48.183129,65.0],[-122.687083,48.178348,59.8],[-122.681544,48.173426,43.4],[-122.679344,48.166579,8.4],[-122.675776,48.162806,8.6],[-122.67394,48.159839,10.2],[-122.672421,48.159652,10.4],[-122.666392,48.160976,9.2],[-122.65953,48.163031,8.8],[-122.651653,48.164229,9.0],[-122.643251,48.164758,8.2],[-122.637474,48.166769,7.8],[-122.636814,48.17084,12.8],[-122.631195,48.170898,17.4],[-122.626934,48.170906,27.6],[-122.623019,48.170921,38.2],[-122.620169,48.170892,53.2],[-122.616406,48.17091,62.6],[-122.611354,48.170876,73.8],[-122.608113,48.169204,76.4],[-122.606997,48.164684,75.0],[-122.604123,48.160188,74.0],[-122.599147,48.156718,73.0],[-122.595932,48.153397,83.2],[-122.594337,48.149603,88.8],[-122.593871,48.146435,99.0],[-122.593089,48.142577,101.6],[-122.59171,48.137361,95.8],[-122.590418,48.132069,91.2],[-122.588816,48.125436,71.0],[-122.586988,48.11819,52.2],[-122.58312,48.111308,27.2],[-122.579305,48.106708,23.6],[-122.576396,48.103377,31.4],[-122.575006,48.101681,48.6],[-122.573511,48.09886,57.0],[-122.571405,48.094831,63.6],[-122.569728,48.091446,73.4],[-122.568274,48.088389,85.0],[-122.569035,48.085905,100.2],[-122.57032,48.0831,109.8],[-122.570149,48.078729,111.6],[-122.567767,48.074542,114.2],[-122.566818,48.069044,112.6],[-122.566834,48.063956,111.2],[-122.566887,48.058716,111.2],[-122.566902,48.052922,98.8],[-122.56694,48.046117,79.8],[-122.565054,48.040395,74.0],[-122.564123,48.035534,77.4],[-122.56185,48.029778,67.2],[-122.559495,48.024423,66.2],[-122.556734,48.021521,76.0],[-122.549531,48.018106,58.8],[-122.541876,48.012228,22.4],[-122.536728,48.010247,31.4],[-122.531284,48.008559,30.0],[-122.52665,48.007567,37.8],[-122.521773,48.007883,47.8],[-122.515538,48.008907,51.6],[-122.507283,48.008966,42.4],[-122.501035,48.007403,49.2],[-122.492909,48.006872,35.4],[-122.484998,48.006609,39.2],[-122.477192,48.007986,26.2],[-122.467516,48.007847,12.0],[-122.462532,48.005299,22.4],[-122.460335,48.00246,37.2],[-122.457316,48.000217,47.8],[-122.452913,47.999612,60.8],[-122.448386,48.000742,71.4],[-122.442848,48.003311,73.0],[-122.434633,48.003733,66.4],[-122.42403,48.002271,43.0],[-122.41926,48.001604,58.6],[-122.413981,48.000931,61.6],[-122.407447,47.999641,62.0],[-122.404097,47.998171,77.4],[-122.401618,47.996449,90.0],[-122.399292,47.994042,102.6],[-122.396843,47.991458,111.2],[-122.393738,47.988405,123.4],[-122.391545,47.985996,134.4],[-122.386102,47.982793,131.6],[-122.376665,47.978634,108.0],[-122.364992,47.979493,73.4],[-122.35453,47.97734,43.4],[-122.35006,47.975245,14.2],[-122.349998,47.975044,14.4],[-122.349311,47.974598,15.0],[-122.297406,47.950168,10.2],[-122.300778,47.949178,10.0],[-122.304213,47.947995,13.4],[-122.304102,47.946,28.6],[-122.304882,47.944061,41.0],[-122.305612,47.94195,52.4],[-122.305871,47.939753,64.6],[-122.306085,47.937593,77.2],[-122.306329,47.935353,89.6],[-122.306409,47.933055,102.6],[-122.305086,47.931063,114.8],[-122.302489,47.929591,126.6],[-122.300437,47.926915,132.0],[-122.300262,47.923141,135.0],[-122.300255,47.920634,137.0],[-122.298932,47.916368,137.4],[-122.295916,47.913838,146.2],[-122.29344,47.910603,152.0],[-122.293144,47.907672,156.6],[-122.293076,47.903606,159.0],[-122.291863,47.899735,164.2],[-122.289168,47.895809,165.0],[-122.286819,47.892352,167.4],[-122.284928,47.889585,176.0],[-122.282212,47.885717,176.2],[-122.27966,47.882029,184.6],[-122.277043,47.877479,181.2],[-122.277051,47.872265,176.4],[-122.278563,47.868058,172.4],[-122.280738,47.865668,185.4],[-122.282193,47.864139,192.2],[-122.280395,47.861388,189.0],[-122.28028,47.857198,187.6],[-122.281796,47.852644,183.0],[-122.281944,47.848749,188.4],[-122.281834,47.843151,174.2],[-122.281822,47.836764,155.2],[-122.281815,47.832645,155.8],[-122.281769,47.828559,149.4],[-122.282818,47.822014,133.2],[-122.286871,47.821009,138.0],[-122.292528,47.820657,129.2],[-122.292451,47.815906,115.6],[-122.29232,47.814957,120.6],[-122.294104,47.814426,109.6],[-122.2984,47.812422,113.0],[-122.303071,47.810844,117.6],[-122.307716,47.809512,113.8],[-122.314809,47.807386,108.0],[-122.320308,47.805347,103.2],[-122.325105,47.803606,102.8],[-122.329281,47.801527,102.8],[-122.329959,47.797065,100.8],[-122.33067,47.793434,101.0],[-122.332721,47.789842,98.0],[-122.333383,47.785727,101.4],[-122.335376,47.782643,103.4],[-122.338743,47.780399,105.4],[-122.337869,47.779635,102.8],[-122.335403,47.777892,107.8],[-122.335349,47.776578,118.6],[-122.335327,47.774701,133.4],[-122.335272,47.772594,142.8],[-122.335214,47.768884,148.0],[-122.335051,47.763955,142.0],[-122.334914,47.757483,122.2],[-122.33496,47.755517,119.6],[-122.334862,47.752279,128.6],[-122.334747,47.748729,131.0],[-122.334518,47.742812,112.0],[-122.334435,47.73795,112.8],[-122.334395,47.735849,128.6],[-122.334319,47.734022,139.4],[-122.334244,47.730689,145.0],[-122.334206,47.726103,140.0],[-122.335241,47.722039,129.6],[-122.338284,47.718952,125.6],[-122.334723,47.717114,128.2],[-122.334106,47.712379,120.4],[-122.334066,47.70849,102.0],[-122.334484,47.702408,83.6],[-122.335196,47.699975,94.4],[-122.335986,47.695992,91.2],[-122.336485,47.691563,77.2],[-122.336501,47.690447,71.2],[-122.336731,47.686803,62.6],[-122.333979,47.683239,58.8],[-122.327758,47.681761,58.6],[-122.328051,47.67839,58.4],[-122.332623,47.676316,59.0],[-122.33653,47.673044,59.2],[-122.339882,47.669983,58.8],[-122.340187,47.666517,63.2],[-122.340358,47.665128,67.2],[-122.342083,47.662208,74.2],[-122.342332,47.657567,56.6],[-122.342744,47.650401,22.6],[-122.346305,47.649123,18.0],[-122.350444,47.650761,25.0],[-122.350865,47.651219,25.2],[-122.349875,47.648322,23.0],[-122.34829,47.644886,30.4],[-122.345682,47.643343,42.4]]}}]}