{"type":"FeatureCollection","features":[{"type":"Feature","properties":{"date":"2023-08-18","source_file":"1.gpx","dist_m":235657,"vert_up_m":1060,"vert_down_m":1259,"points":515},"geometry":{"type":"LineString","coordinates":[[-122.320582,47.627449,115.6],[-122.320183,47.631441,115.2],[-122.320068,47.638388,93.8],[-122.320053,47.643028,58.8],[-122.321556,47.643215,57.2],[-122.322042,47.648654,34.8],[-122.319344,47.653925,29.6],[-122.316666,47.657812,42.8],[-122.316559,47.660678,58.0],[-122.316379,47.6634,69.0],[-122.316269,47.667449,69.8],[-122.315633,47.672284,61.0],[-122.315628,47.675461,70.4],[-122.315666,47.678417,84.0],[-122.31546,47.681279,99.2],[-122.317414,47.68325,100.0],[-122.317525,47.686298,116.0],[-122.317566,47.688682,126.4],[-122.317581,47.691444,139.8],[-122.317551,47.694908,147.0],[-122.31765,47.701186,123.6],[-122.317752,47.708238,84.4],[-122.315479,47.711944,95.4],[-122.312537,47.714232,108.2],[-122.312584,47.718492,110.6],[-122.312607,47.719326,109.0],[-122.312614,47.725744,77.8],[-122.312625,47.730066,86.2],[-122.312665,47.733737,98.6],[-122.312727,47.73632,104.6],[-122.312854,47.740743,112.0],[-122.312922,47.744255,125.0],[-122.312988,47.747242,137.4],[-122.313197,47.750954,136.6],[-122.313354,47.755089,144.0],[-122.3134,47.759001,149.0],[-122.314364,47.766575,107.0],[-122.309665,47.771772,86.0],[-122.309178,47.774254,92.4],[-122.30836,47.777288,105.2],[-122.30835,47.779996,114.6],[-122.30838,47.783154,125.0],[-122.308365,47.785552,129.8],[-122.308403,47.78854,140.6],[-122.308441,47.79216,149.8],[-122.307828,47.795684,157.2],[-122.304443,47.797749,154.8],[-122.303093,47.801011,148.2],[-122.303162,47.806305,114.2],[-122.303118,47.811337,111.6],[-122.300704,47.81695,104.0],[-122.297802,47.818562,112.4],[-122.297791,47.820866,120.0],[-122.297808,47.824004,127.8],[-122.297849,47.827808,135.0],[-122.297884,47.832201,135.8],[-122.295078,47.834029,137.4],[-122.292603,47.834016,149.4],[-122.292465,47.837789,154.0],[-122.292488,47.843116,150.6],[-122.292511,47.848143,151.4],[-122.289584,47.850127,162.6],[-122.28712,47.8505,180.2],[-122.282398,47.850033,185.8],[-122.280235,47.854543,182.6],[-122.280294,47.858333,187.0],[-122.280393,47.863615,185.6],[-122.279077,47.868641,170.4],[-122.277367,47.873071,178.4],[-122.276864,47.873442,177.0],[-122.276963,47.877779,180.4],[-122.279803,47.88269,183.8],[-122.277172,47.889232,167.8],[-122.271908,47.893075,174.2],[-122.265755,47.897627,167.8],[-122.262112,47.899234,164.4],[-122.255028,47.901838,166.6],[-122.250449,47.904782,173.8],[-122.245344,47.908175,177.6],[-122.23986,47.911775,179.0],[-122.235589,47.914194,171.2],[-122.23075,47.918873,166.6],[-122.227039,47.922792,176.6],[-122.222274,47.927946,160.0],[-122.219371,47.934508,142.2],[-122.217711,47.940652,122.6],[-122.215447,47.947003,106.6],[-122.213013,47.954792,90.4],[-122.210607,47.962345,65.0],[-122.208166,47.96331,64.0],[-122.208138,47.968417,51.4],[-122.208331,47.972853,48.4],[-122.208628,47.978777,40.2],[-122.209991,47.980906,36.0],[-122.209877,47.984585,38.6],[-122.20977,47.990012,35.4],[-122.205897,47.992388,32.4],[-122.201426,47.992325,28.8],[-122.196,47.992251,30.0],[-122.189189,47.993649,18.2],[-122.189008,47.998155,20.2],[-122.188972,48.002179,28.8],[-122.188944,48.008717,15.0],[-122.187865,48.011579,14.8],[-122.189824,48.010798,16.8],[-122.188624,48.013133,14.6],[-122.187658,48.016196,15.0],[-122.186841,48.019276,10.8],[-122.185069,48.024479,3.6],[-122.183007,48.030228,5.0],[-122.181384,48.035247,6.0],[-122.17958,48.039939,3.6],[-122.179359,48.04498,7.8],[-122.176994,48.049109,5.4],[-122.175469,48.050934,7.4],[-122.175468,48.050964,7.4],[-122.1708,48.051731,9.6],[-122.167432,48.053782,10.6],[-122.162209,48.057598,17.0],[-122.162241,48.062889,17.0],[-122.16229,48.068292,18.4],[-122.162153,48.073248,20.2],[-122.162231,48.07847,21.4],[-122.162221,48.083774,23.6],[-122.162201,48.086598,25.0],[-122.162287,48.092207,24.4],[-122.162231,48.097433,24.8],[-122.162193,48.102909,26.4],[-122.162224,48.107834,27.0],[-122.162282,48.112888,26.2],[-122.162407,48.117737,32.4],[-122.162623,48.123138,34.2],[-122.162336,48.12838,35.8],[-122.162039,48.13379,38.2],[-122.155191,48.13377,39.2],[-122.147571,48.133671,39.4],[-122.141042,48.1337,44.2],[-122.141058,48.139135,43.2],[-122.139839,48.142816,49.2],[-122.140528,48.147523,46.8],[-122.140503,48.152071,49.6],[-122.14048,48.15783,54.6],[-122.140526,48.162805,57.4],[-122.140434,48.168846,52.6],[-122.140633,48.173995,51.4],[-122.140312,48.18043,43.8],[-122.137818,48.181776,43.8],[-122.134876,48.186804,41.2],[-122.128854,48.19054,42.8],[-122.12749,48.19472,42.8],[-122.12736,48.198581,40.4],[-122.127566,48.202595,36.2],[-122.130414,48.207819,33.2],[-122.132,48.212969,36.4],[-122.131976,48.217251,41.6],[-122.136601,48.219758,45.8],[-122.141191,48.222684,50.6],[-122.145045,48.226851,51.0],[-122.149646,48.230614,54.6],[-122.154724,48.234459,54.8],[-122.158165,48.23855,59.0],[-122.16073,48.241562,62.0],[-122.162819,48.24554,62.6],[-122.165796,48.250144,59.4],[-122.168972,48.25498,57.0],[-122.17206,48.259733,53.8],[-122.173183,48.264215,56.2],[-122.176223,48.267952,63.0],[-122.179894,48.271776,67.0],[-122.184251,48.274885,70.0],[-122.188962,48.278507,68.8],[-122.19224,48.282455,73.4],[-122.196161,48.287094,71.6],[-122.197498,48.290926,70.8],[-122.195765,48.292144,84.8],[-122.198633,48.294998,84.2],[-122.20323,48.299721,78.0],[-122.207313,48.304219,78.8],[-122.210307,48.308198,79.6],[-122.216496,48.308658,81.2],[-122.219581,48.31024,94.8],[-122.225693,48.310058,96.0],[-122.230513,48.313318,89.2],[-122.234441,48.316165,91.2],[-122.238132,48.31718,95.0],[-122.241894,48.319389,101.4],[-122.245635,48.3212,110.8],[-122.251146,48.322803,109.0],[-122.257266,48.326757,95.2],[-122.263523,48.328544,95.6],[-122.270392,48.329845,92.0],[-122.277371,48.331685,90.0],[-122.284254,48.333784,88.0],[-122.290207,48.335195,86.0],[-122.297295,48.337479,84.0],[-122.306433,48.339802,50.2],[-122.31758,48.340887,21.6],[-122.320473,48.340928,16.8],[-122.318433,48.339788,24.4],[-122.319179,48.337696,35.0],[-122.325232,48.337369,22.2],[-122.330485,48.336781,3.6],[-122.33252,48.339903,4.6],[-122.335075,48.344028,4.0],[-122.335078,48.349501,3.8],[-122.335098,48.355007,3.8],[-122.33506,48.360619,4.2],[-122.334961,48.365741,4.8],[-122.334844,48.370881,4.8],[-122.334737,48.376142,5.2],[-122.331169,48.380605,7.4],[-122.334149,48.383012,13.4],[-122.335714,48.388331,6.2],[-122.33563,48.393573,7.4],[-122.335457,48.398968,8.8],[-122.335462,48.403702,9.6],[-122.337725,48.408014,8.4],[-122.337784,48.413393,9.8],[-122.337651,48.417472,11.4],[-122.336217,48.420162,11.8],[-122.335195,48.422365,27.4],[-122.335251,48.426119,29.2],[-122.33518,48.432541,12.4],[-122.335022,48.43575,13.2],[-122.335114,48.440005,14.0],[-122.335492,48.445029,23.6],[-122.335223,48.448717,15.2],[-122.335457,48.454314,13.2],[-122.335648,48.459509,14.0],[-122.335701,48.464465,14.8],[-122.335653,48.467805,15.6],[-122.335617,48.47197,15.4],[-122.33551,48.476685,14.2],[-122.335276,48.480875,13.6],[-122.335141,48.485247,13.6],[-122.335091,48.490295,13.0],[-122.334999,48.494301,13.0],[-122.334925,48.498919,13.6],[-122.33595,48.50358,13.6],[-122.33697,48.505446,14.8],[-122.336807,48.507402,15.2],[-122.337497,48.510955,22.2],[-122.338315,48.515585,13.8],[-122.339223,48.520704,14.0],[-122.340102,48.52565,14.6],[-122.340228,48.531001,15.4],[-122.339595,48.536142,17.6],[-122.339025,48.540626,19.8],[-122.338379,48.545137,21.2],[-122.33628,48.549833,20.8],[-122.334341,48.554107,24.6],[-122.33251,48.558189,29.8],[-122.331904,48.562227,35.0],[-122.333885,48.565762,40.0],[-122.335108,48.568341,51.2],[-122.337936,48.571059,54.6],[-122.338202,48.574201,51.2],[-122.337585,48.578231,57.2],[-122.337888,48.581744,59.4],[-122.334299,48.584479,60.4],[-122.330033,48.586461,63.8],[-122.327924,48.590338,64.2],[-122.328676,48.593779,68.2],[-122.32847,48.597471,68.8],[-122.329976,48.599111,82.8],[-122.331245,48.601881,87.6],[-122.332913,48.605726,83.6],[-122.335202,48.610142,80.4],[-122.337112,48.614017,79.2],[-122.338607,48.617429,83.2],[-122.340192,48.619821,88.4],[-122.344036,48.623226,84.8],[-122.346225,48.626848,88.2],[-122.348587,48.630625,89.2],[-122.351676,48.634339,92.6],[-122.353651,48.638684,85.4],[-122.355542,48.643539,86.4],[-122.358037,48.647261,91.4],[-122.360132,48.64882,103.2],[-122.360667,48.649034,103.2],[-122.366628,48.648273,98.0],[-122.368121,48.651511,99.6],[-122.369577,48.656213,94.6],[-122.371504,48.660357,95.2],[-122.373398,48.664749,97.2],[-122.377631,48.668715,91.6],[-122.383717,48.671682,94.2],[-122.388134,48.67317,102.6],[-122.392734,48.674378,106.0],[-122.395406,48.67657,111.0],[-122.3962,48.678907,125.0],[-122.395398,48.68084,138.0],[-122.394849,48.682967,147.2],[-122.396207,48.685056,154.8],[-122.398797,48.686499,165.8],[-122.39987,48.689222,173.0],[-122.403266,48.690851,182.0],[-122.406504,48.692347,191.8],[-122.409755,48.693866,200.6],[-122.413506,48.69561,206.4],[-122.416882,48.696723,215.4],[-122.421024,48.698009,222.8],[-122.425736,48.699461,221.4],[-122.434655,48.70434,182.2],[-122.445361,48.706543,157.2],[-122.454529,48.706455,147.8],[-122.458944,48.706972,158.0],[-122.464429,48.709902,153.8],[-122.468621,48.716037,131.4],[-122.471,48.723033,102.8],[-122.469952,48.73012,75.0],[-122.469772,48.73472,63.8],[-122.469765,48.73889,66.0],[-122.471761,48.742569,65.6],[-122.472672,48.74558,51.2],[-122.477023,48.748389,33.6],[-122.480955,48.751564,22.8],[-122.480637,48.752815,24.2],[-122.480586,48.752822,24.0],[-122.48056,48.752808,24.0],[-122.480735,48.752881,24.4],[-122.48291,48.756235,20.6],[-122.486529,48.758602,24.8],[-122.488365,48.762665,26.6],[-122.490084,48.7669,27.4],[-122.492588,48.770031,28.6],[-122.495833,48.774072,28.6],[-122.499148,48.778315,31.2],[-122.501668,48.781732,40.6],[-122.503437,48.784775,47.2],[-122.505617,48.787034,61.4],[-122.508188,48.789733,64.6],[-122.512434,48.789828,58.6],[-122.519015,48.790238,54.8],[-122.524944,48.794123,53.0],[-122.528724,48.798035,46.2],[-122.533177,48.802613,42.0],[-122.536604,48.806171,45.0],[-122.540693,48.810363,37.0],[-122.54509,48.815071,30.4],[-122.546746,48.81813,28.4],[-122.552433,48.822452,17.8],[-122.555516,48.825649,23.2],[-122.558928,48.829137,23.0],[-122.56216,48.832636,26.6],[-122.564029,48.833956,29.2],[-122.573217,48.833654,11.2],[-122.577,48.837334,12.6],[-122.579789,48.84027,18.4],[-122.585147,48.843738,14.8],[-122.588843,48.84576,15.8],[-122.592562,48.848278,14.2],[-122.595877,48.851646,19.8],[-122.597125,48.854039,33.0],[-122.598298,48.8561,43.0],[-122.599432,48.858079,54.6],[-122.599731,48.860028,66.0],[-122.598885,48.859989,64.4],[-122.601179,48.861384,74.2],[-122.601845,48.862585,75.0],[-122.603643,48.866086,75.8],[-122.606677,48.871158,66.2],[-122.60892,48.875474,69.0],[-122.61119,48.879726,64.4],[-122.614295,48.885079,58.4],[-122.617336,48.891599,33.2],[-122.62268,48.895936,26.6],[-122.62935,48.898726,25.0],[-122.634352,48.901427,29.6],[-122.63955,48.905251,27.4],[-122.643901,48.908981,14.2],[-122.643903,48.913382,16.2],[-122.643906,48.917752,16.2],[-122.648774,48.920743,14.8],[-122.656559,48.920869,15.4],[-122.660243,48.923154,14.8],[-122.660243,48.927498,17.0],[-122.660863,48.930916,20.0],[-122.6656,48.934055,19.6],[-122.670615,48.937402,19.6],[-122.675616,48.940715,21.2],[-122.680262,48.943812,20.4],[-122.685423,48.947242,17.4],[-122.690777,48.950783,15.6],[-122.695609,48.954013,14.0],[-122.700012,48.956919,14.0],[-122.704635,48.959979,15.2],[-122.709569,48.963252,14.2],[-122.714497,48.966549,14.0],[-122.719361,48.969751,12.6],[-122.724053,48.972878,12.0],[-122.728054,48.975529,14.6],[-122.733078,48.978888,13.4],[-122.738606,48.982614,8.4],[-122.743327,48.984985,12.8],[-122.748495,48.986612,15.8],[-122.751556,48.990205,16.0],[-122.751567,48.995056,14.6],[-122.752491,48.99854,16.2],[-122.755471,49.0014,12.4],[-122.756694,49.003028,13.0],[-122.756742,49.003115,13.2],[-122.756897,49.003443,14.6],[-122.756905,49.003594,15.2],[-122.756897,49.003667,15.4],[-122.756912,49.003763,15.8],[-122.756905,49.003873,16.2],[-122.756902,49.003967,16.4],[-122.756866,49.004096,16.4],[-122.756897,49.004303,16.4],[-122.756866,49.004443,16.4],[-122.756864,49.004565,16.4],[-122.756851,49.004673,16.6],[-122.756991,49.006103,16.8],[-122.757362,49.010213,17.2],[-122.758191,49.015679,10.8],[-122.760527,49.016734,22.0],[-122.762026,49.018972,27.2],[-122.764331,49.022085,35.2],[-122.767954,49.024986,40.6],[-122.771897,49.028173,44.2],[-122.77502,49.030756,54.2],[-122.77649,49.031926,59.0],[-122.779898,49.034647,67.2],[-122.783421,49.037487,74.8],[-122.785973,49.039531,80.4],[-122.789671,49.042571,88.2],[-122.793175,49.045388,94.6],[-122.793307,49.045506,95.2],[-122.79745,49.04885,88.4],[-122.801025,49.051739,72.2],[-122.807365,49.05685,43.0],[-122.811761,49.060398,41.2],[-122.818156,49.06557,15.4],[-122.821316,49.068119,6.0],[-122.823377,49.07229,4.2],[-122.822471,49.075176,8.2],[-122.8208,49.080436,4.6],[-122.818876,49.085817,4.2],[-122.817385,49.091139,4.2],[-122.817973,49.095977,8.4],[-122.819341,49.100078,7.8],[-122.821939,49.101611,19.2],[-122.824487,49.102154,31.4],[-122.826895,49.102477,43.6],[-122.829202,49.103267,56.6],[-122.83149,49.104745,72.4],[-122.834644,49.105444,82.2],[-122.838734,49.107612,90.4],[-122.846019,49.108284,90.8],[-122.853354,49.108304,91.4],[-122.858009,49.108292,86.6],[-122.867069,49.108234,78.8],[-122.876015,49.108284,75.4],[-122.886256,49.10835,63.6],[-122.897972,49.105058,12.4],[-122.903235,49.099803,1.6],[-122.910216,49.098536,1.4],[-122.916951,49.097831,1.0],[-122.923642,49.097118,1.8],[-122.930202,49.096429,1.2],[-122.936483,49.095508,1.0],[-122.943007,49.094178,0.8],[-122.949661,49.092977,1.2],[-122.955866,49.091834,1.4],[-122.956559,49.091421,2.0],[-122.959119,49.090964,6.0],[-122.964461,49.08979,1.2],[-122.971406,49.089985,1.6],[-122.978892,49.089981,0.8],[-122.986372,49.089985,0.4],[-122.993412,49.09,0.8],[-123.000458,49.090046,0.4],[-123.00732,49.090033,1.0],[-123.014436,49.090061,1.2],[-123.021532,49.090092,1.6],[-123.024846,49.089059,6.4],[-123.025467,49.084495,3.0],[-123.031614,49.082597,4.0],[-123.035959,49.078759,4.0],[-123.036125,49.073572,2.0],[-123.036156,49.068906,2.8],[-123.036267,49.063833,2.8],[-123.040437,49.060116,2.8],[-123.047575,49.059633,2.2],[-123.05271,49.05986,10.4],[-123.057012,49.0566,2.0],[-123.057755,49.051501,1.0],[-123.060928,49.047086,0.8],[-123.06655,49.044094,1.0],[-123.06884,49.043027,1.0],[-123.068832,49.039004,0.8],[-123.06881,49.034125,0.8],[-123.068837,49.030189,9.8],[-123.06881,49.026598,12.8],[-123.068817,49.025022,12.4],[-123.068822,49.022314,12.6],[-123.068764,49.018115,14.2],[-123.068761,49.013991,7.8],[-123.068812,49.009006,11.2],[-123.068802,49.007288,23.6],[-123.068764,49.005924,37.4],[-123.068787,49.004518,49.6],[-123.068583,49.002044,51.8],[-123.068385,49.001434,52.2],[-123.067978,48.999359,47.8],[-123.067912,48.992898,30.8],[-123.067912,48.986312,19.2],[-123.074702,48.984684,7.2],[-123.082007,48.984249,6.4],[-123.083661,48.984446,4.4],[-123.083088,48.984299,3.0],[-123.081604,48.979858,1.2],[-123.082097,48.975069,1.6],[-123.080606,48.973467,0.8]]}},{"type":"Feature","properties":{"date":"2023-08-19","source_file":"2.gpx","dist_m":111750,"vert_up_m":1603,"vert_down_m":635,"points":365},"geometry":{"type":"LineString","coordinates":[[-123.080643,48.973496,0.8],[-123.078555,48.972961,2.8],[-123.0725,48.97443,2.8],[-123.07099,48.977146,2.2],[-123.06939,48.980258,2.8],[-123.067805,48.982763,5.6],[-123.067772,48.985182,13.2],[-123.067795,48.987785,18.6],[-123.067802,48.990454,26.0],[-123.067789,48.993478,31.2],[-123.067764,48.996593,38.2],[-123.067833,48.999335,47.4],[-123.067998,49.001933,51.8],[-123.068596,49.003464,51.6],[-123.068601,49.009453,7.6],[-123.068527,49.014819,8.6],[-123.068573,49.018186,13.8],[-123.068573,49.020854,12.4],[-123.068563,49.024619,11.2],[-123.066697,49.02468,8.6],[-123.068565,49.025871,10.8],[-123.068573,49.030328,9.2],[-123.068535,49.035094,0.6],[-123.06855,49.039087,1.0],[-123.068098,49.04298,1.4],[-123.063016,49.045438,2.6],[-123.058977,49.048653,3.0],[-123.057223,49.052673,3.2],[-123.05692,49.056044,2.6],[-123.05494,49.058674,11.8],[-123.048033,49.059456,3.8],[-123.039328,49.060318,4.6],[-123.035906,49.064183,4.6],[-123.035889,49.068142,3.2],[-123.035879,49.071917,2.8],[-123.035856,49.075496,3.2],[-123.035441,49.079344,3.6],[-123.031772,49.082329,3.8],[-123.025307,49.084235,5.4],[-123.024422,49.088309,7.6],[-123.02434,49.091962,7.4],[-123.022895,49.09459,12.0],[-123.028502,49.096052,1.8],[-123.031932,49.097281,2.8],[-123.031687,49.097586,2.2],[-123.0275,49.098208,1.8],[-123.028965,49.100693,5.2],[-123.029317,49.105146,3.8],[-123.028847,49.109481,3.2],[-123.028839,49.113087,4.6],[-123.02805,49.117225,2.2],[-123.025178,49.120687,2.6],[-123.022678,49.124659,3.2],[-123.016481,49.127236,3.2],[-123.01254,49.131037,4.2],[-123.009365,49.135178,2.8],[-123.002743,49.137746,3.4],[-122.996331,49.140206,7.0],[-122.992057,49.144059,4.0],[-122.986674,49.1464,7.2],[-122.978307,49.147285,5.0],[-122.971543,49.147507,11.0],[-122.96278,49.148422,5.2],[-122.954697,49.148345,7.6],[-122.949004,49.147809,8.4],[-122.943791,49.147006,6.2],[-122.938536,49.147944,5.0],[-122.937576,49.148228,5.8],[-122.938504,49.148764,11.6],[-122.939242,49.150772,23.2],[-122.940035,49.15267,34.6],[-122.940829,49.154603,45.8],[-122.94161,49.156469,57.2],[-122.942444,49.158487,65.4],[-122.943013,49.159863,66.8],[-122.944387,49.16319,56.2],[-122.946232,49.167037,32.6],[-122.952514,49.169781,6.8],[-122.951387,49.170769,16.0],[-122.950244,49.17208,9.6],[-122.954429,49.173726,11.8],[-122.955667,49.176457,20.4],[-122.957425,49.177579,9.0],[-122.957372,49.177348,6.0],[-122.957544,49.177638,5.4],[-122.957278,49.180398,5.2],[-122.957085,49.183763,5.4],[-122.952586,49.185244,4.4],[-122.950066,49.188835,4.6],[-122.948094,49.190182,5.2],[-122.942654,49.192366,4.6],[-122.943708,49.193301,17.6],[-122.945916,49.195356,31.2],[-122.948288,49.19786,37.4],[-122.95011,49.197636,32.0],[-122.950333,49.198652,40.6],[-122.952328,49.199565,54.4],[-122.956072,49.200094,60.6],[-122.958508,49.202191,69.0],[-122.958687,49.205059,74.4],[-122.9571,49.208031,83.2],[-122.958496,49.210322,96.8],[-122.96094,49.213077,89.0],[-122.962479,49.214842,96.8],[-122.967033,49.214834,103.8],[-122.9711,49.214869,112.4],[-122.974571,49.216092,120.6],[-122.97808,49.217777,125.4],[-122.982738,49.218842,131.0],[-122.987697,49.219921,131.0],[-122.988484,49.219978,130.8],[-122.992634,49.220856,132.6],[-122.995931,49.221771,131.0],[-122.997292,49.222231,132.2],[-123.001478,49.224497,133.0],[-123.005734,49.226406,131.4],[-123.007652,49.227544,128.4],[-123.011446,49.228978,131.8],[-123.016682,49.231321,122.4],[-123.020619,49.232118,118.0],[-123.023303,49.232203,115.0],[-123.023288,49.235061,99.8],[-123.02475,49.235189,98.8],[-123.029787,49.237441,99.8],[-123.032163,49.238415,99.6],[-123.036663,49.240274,105.0],[-123.042492,49.242666,96.8],[-123.047352,49.244541,92.0],[-123.050956,49.246123,80.2],[-123.056531,49.249002,59.6],[-123.056529,49.256736,38.0],[-123.059565,49.259684,41.0],[-123.064808,49.261799,41.0],[-123.067897,49.262414,38.8],[-123.069998,49.262445,35.8],[-123.074107,49.262437,33.0],[-123.081403,49.262806,25.0],[-123.084978,49.263458,29.4],[-123.088051,49.263458,40.2],[-123.092443,49.263465,42.2],[-123.097607,49.263683,39.2],[-123.100647,49.264295,39.4],[-123.106077,49.264757,24.4],[-123.112745,49.264853,18.0],[-123.118885,49.265076,18.6],[-123.12478,49.265163,22.2],[-123.128459,49.265232,32.4],[-123.133504,49.265294,34.6],[-123.137779,49.26535,34.8],[-123.142484,49.265485,31.0],[-123.145533,49.267291,24.4],[-123.145421,49.268997,17.2],[-123.145228,49.272287,16.4],[-123.150524,49.272569,9.0],[-123.156059,49.272652,10.8],[-123.157914,49.273031,12.4],[-123.157402,49.271807,19.8],[-123.157455,49.270388,34.8],[-123.157509,49.268526,44.6],[-123.15494,49.268042,43.0],[-123.154897,49.268009,43.0],[-123.154905,49.268047,42.8],[-123.154928,49.268069,43.0],[-123.154973,49.268101,42.8],[-123.155037,49.267965,42.6],[-123.155126,49.267935,42.4],[-123.154617,49.268059,42.6],[-123.154792,49.268092,42.8],[-123.151462,49.268074,34.8],[-123.147837,49.270575,11.2],[-123.147738,49.272406,11.6],[-123.147636,49.276155,13.2],[-123.148123,49.27728,12.6],[-123.146975,49.277685,8.4],[-123.146884,49.277592,8.8],[-123.1462,49.275836,14.2],[-123.146151,49.272546,13.6],[-123.145414,49.272504,15.8],[-123.145424,49.272283,15.2],[-123.141506,49.273898,24.4],[-123.136483,49.27552,35.0],[-123.131701,49.277313,29.4],[-123.130241,49.27824,35.8],[-123.127659,49.279926,37.6],[-123.126302,49.280509,40.2],[-123.126383,49.28088,39.8],[-123.129,49.281723,42.8],[-123.13118,49.283131,45.2],[-123.134458,49.285276,31.0],[-123.139587,49.288609,12.0],[-123.140868,49.289403,10.2],[-123.144112,49.29149,14.6],[-123.144865,49.291976,14.8],[-123.144793,49.291901,14.4],[-123.142305,49.290341,13.2],[-123.139655,49.288614,11.4],[-123.136791,49.287429,18.2],[-123.135885,49.287041,19.0],[-123.13587,49.287068,19.2],[-123.135941,49.287006,20.0],[-123.136162,49.286826,20.4],[-123.136055,49.287088,20.4],[-123.135785,49.286979,20.4],[-123.135722,49.287143,19.4],[-123.136744,49.289638,16.4],[-123.136423,49.290777,18.4],[-123.133909,49.292409,10.8],[-123.134005,49.294631,5.8],[-123.134902,49.296736,6.6],[-123.130181,49.297721,5.8],[-123.127021,49.296885,7.4],[-123.122437,49.297802,7.0],[-123.117841,49.298173,10.8],[-123.117211,49.300765,14.0],[-123.11744,49.300672,14.0],[-123.121075,49.299698,9.4],[-123.127399,49.302423,7.8],[-123.132302,49.304668,17.0],[-123.136808,49.306142,16.0],[-123.137713,49.309565,14.4],[-123.140099,49.311831,24.4],[-123.140839,49.309189,41.4],[-123.143387,49.308926,55.8],[-123.141873,49.31156,58.2],[-123.139311,49.314542,71.0],[-123.136368,49.31772,64.0],[-123.131458,49.323052,31.0],[-123.125307,49.324975,18.0],[-123.118386,49.323863,18.8],[-123.110641,49.323804,15.2],[-123.102286,49.323724,13.2],[-123.097261,49.321975,17.2],[-123.091421,49.319983,16.0],[-123.087798,49.319869,30.8],[-123.085205,49.319874,44.6],[-123.084808,49.321784,54.8],[-123.082097,49.322151,66.6],[-123.079486,49.322095,76.4],[-123.076387,49.322058,88.2],[-123.075385,49.322051,90.4],[-123.069941,49.32199,101.4],[-123.065311,49.321945,113.2],[-123.060384,49.321884,121.4],[-123.057399,49.322048,132.2],[-123.057416,49.324723,139.2],[-123.056023,49.326694,142.6],[-123.051463,49.329871,143.0],[-123.046083,49.332759,148.4],[-123.039464,49.336266,142.2],[-123.03405,49.339212,134.4],[-123.029315,49.341752,143.4],[-123.027267,49.34286,157.2],[-123.024417,49.343469,165.6],[-123.021744,49.343415,166.0],[-123.019445,49.343171,152.0],[-123.020448,49.341605,153.0],[-123.02587,49.341702,156.8],[-123.031083,49.34092,135.4],[-123.037768,49.337287,138.0],[-123.03788,49.334285,132.2],[-123.038205,49.329036,130.8],[-123.038465,49.322893,107.8],[-123.036168,49.317108,50.0],[-123.032781,49.313963,18.4],[-123.027852,49.311803,16.0],[-123.022272,49.312035,13.2],[-123.015203,49.310877,13.0],[-123.014816,49.3077,8.0],[-123.008637,49.307512,5.8],[-123.003831,49.307915,6.2],[-122.997067,49.308739,11.0],[-122.990698,49.308623,14.8],[-122.983577,49.307872,13.4],[-122.978871,49.307583,21.4],[-122.973676,49.30522,24.4],[-122.969841,49.30415,38.2],[-122.96206,49.304085,29.8],[-122.958938,49.30407,41.4],[-122.953074,49.305834,35.6],[-122.953577,49.307282,42.6],[-122.953901,49.307214,44.4],[-122.953756,49.307228,44.4],[-122.953769,49.308077,45.6],[-122.955633,49.308458,60.4],[-122.957161,49.309156,72.4],[-122.957207,49.311136,80.8],[-122.957296,49.314007,85.8],[-122.957293,49.31578,89.6],[-122.960162,49.315966,103.8],[-122.96354,49.315983,112.8],[-122.968857,49.317129,105.2],[-122.968885,49.320635,108.4],[-122.97082,49.322755,122.8],[-122.972015,49.324562,134.6],[-122.970614,49.325506,151.2],[-122.968646,49.326136,165.4],[-122.966835,49.326807,181.0],[-122.965413,49.3281,193.2],[-122.964821,49.329574,208.2],[-122.964106,49.331051,222.6],[-122.963427,49.332523,235.8],[-122.962735,49.333995,247.8],[-122.961402,49.335344,261.2],[-122.959876,49.336458,275.0],[-122.958152,49.337249,290.6],[-122.956608,49.338384,304.2],[-122.954597,49.339202,318.4],[-122.952977,49.340143,332.0],[-122.951169,49.34106,344.8],[-122.949531,49.342002,357.2],[-122.947998,49.34307,369.4],[-122.946302,49.343989,381.8],[-122.947027,49.345052,393.4],[-122.948996,49.344575,405.6],[-122.950688,49.343557,417.6],[-122.952845,49.343215,431.0],[-122.955229,49.343162,444.6],[-122.95734,49.342924,457.6],[-122.9594,49.342839,471.0],[-122.961734,49.342743,484.4],[-122.964062,49.342667,496.0],[-122.966303,49.342545,509.0],[-122.968608,49.342401,522.6],[-122.970901,49.34276,537.0],[-122.973,49.343189,549.8],[-122.974388,49.3443,561.2],[-122.972541,49.345828,570.6],[-122.970171,49.345171,582.2],[-122.967625,49.344825,593.0],[-122.965497,49.34547,604.2],[-122.963368,49.346144,617.0],[-122.961438,49.346693,629.4],[-122.959712,49.347602,641.2],[-122.957874,49.348486,652.6],[-122.955677,49.348969,665.4],[-122.953834,49.349822,677.8],[-122.952113,49.350816,690.6],[-122.950376,49.351607,702.8],[-122.948498,49.352309,715.4],[-122.946642,49.35302,728.0],[-122.944869,49.353887,740.2],[-122.943079,49.354815,752.4],[-122.942135,49.35588,760.4],[-122.944287,49.354952,770.6],[-122.947043,49.354491,779.2],[-122.950244,49.353938,790.0],[-122.952753,49.353347,800.2],[-122.955371,49.352835,809.6],[-122.957741,49.352877,822.6],[-122.957259,49.353221,833.2],[-122.955058,49.353677,845.8],[-122.953173,49.354481,859.2],[-122.9515,49.355505,872.4],[-122.949907,49.356557,886.0],[-122.948664,49.35771,899.2],[-122.947875,49.358991,912.2],[-122.948953,49.359263,920.4],[-122.950646,49.358189,933.8],[-122.952678,49.357906,946.8],[-122.953722,49.359153,958.0],[-122.953124,49.360558,970.8],[-122.952026,49.361879,983.8],[-122.950813,49.363167,997.4],[-122.949592,49.36444,1009.4],[-122.948502,49.366477,1015.4]]}},{"type":"Feature","properties":{"date":"2023-08-20","source_file":"3.gpx","dist_m":259503,"vert_up_m":1507,"vert_down_m":2460,"points":596},"geometry":{"type":"LineString","coordinates":[[-122.948021,49.366638,1025.0],[-122.950407,49.363719,1014.6],[-122.952153,49.357727,955.6],[-122.949817,49.35664,899.4],[-122.958366,49.352821,835.4],[-122.946896,49.354481,790.2],[-122.945088,49.353749,750.4],[-122.956807,49.348765,670.4],[-122.96922,49.344902,595.8],[-122.969654,49.342501,539.2],[-122.954732,49.343209,452.8],[-122.94839,49.342779,380.4],[-122.95864,49.337015,300.4],[-122.965174,49.32881,215.2],[-122.970907,49.322639,135.8],[-122.969121,49.31664,116.8],[-122.974751,49.315843,113.8],[-122.982285,49.315708,103.0],[-122.989448,49.3158,96.4],[-122.997608,49.315892,88.8],[-123.005792,49.313158,62.4],[-123.014754,49.310836,19.0],[-123.017072,49.30731,12.4],[-123.019123,49.305103,13.4],[-123.019007,49.305066,13.8],[-123.01951,49.305392,13.8],[-123.026538,49.304929,10.0],[-123.028645,49.304526,13.8],[-123.026659,49.302686,26.4],[-123.026583,49.300434,38.8],[-123.026545,49.298195,51.2],[-123.026497,49.295963,63.4],[-123.026428,49.292674,59.0],[-123.028125,49.290057,31.0],[-123.028341,49.287839,39.2],[-123.028338,49.286572,55.0],[-123.028338,49.284437,63.2],[-123.028358,49.281298,58.8],[-123.028368,49.277557,36.8],[-123.023699,49.277057,34.8],[-123.020789,49.274954,40.8],[-123.017244,49.272742,43.6],[-123.014362,49.27037,45.4],[-123.009978,49.267831,39.4],[-123.006052,49.266401,34.8],[-123.003269,49.266248,39.4],[-122.996742,49.266085,33.0],[-122.990524,49.264988,32.0],[-122.98815,49.263552,21.6],[-122.984685,49.260835,11.2],[-122.983096,49.258272,19.8],[-122.982559,49.256339,29.6],[-122.982109,49.254651,40.2],[-122.981943,49.252807,51.2],[-122.981204,49.250254,56.0],[-122.978441,49.247672,57.4],[-122.971424,49.243556,28.6],[-122.964134,49.239604,14.6],[-122.958609,49.238161,20.0],[-122.956262,49.236936,36.8],[-122.95343,49.236316,35.4],[-122.94847,49.237167,25.2],[-122.942332,49.236306,23.2],[-122.940926,49.234635,40.0],[-122.939491,49.233467,52.2],[-122.937989,49.232509,64.6],[-122.936908,49.231429,79.8],[-122.935371,49.230187,93.2],[-122.934245,49.228782,103.8],[-122.932996,49.227025,110.4],[-122.930159,49.224787,112.4],[-122.926452,49.22346,107.2],[-122.922492,49.223098,98.0],[-122.918532,49.220029,72.8],[-122.917033,49.218834,83.2],[-122.914784,49.218401,86.2],[-122.911815,49.217302,88.4],[-122.90937,49.215356,96.0],[-122.904779,49.211722,73.2],[-122.90137,49.208835,38.8],[-122.898273,49.208994,32.4],[-122.895787,49.208093,42.0],[-122.891363,49.206509,35.0],[-122.882702,49.20579,4.6],[-122.878668,49.204896,-3.2],[-122.878816,49.20266,-2.2],[-122.882027,49.200007,-3.0],[-122.882391,49.199311,-2.2],[-122.878173,49.197384,-2.6],[-122.875094,49.196556,3.8],[-122.875138,49.195255,15.4],[-122.876114,49.193833,27.6],[-122.87518,49.193196,43.8],[-122.875104,49.191793,54.2],[-122.873138,49.191738,71.4],[-122.87051,49.191715,80.8],[-122.866543,49.191658,85.0],[-122.862615,49.190658,85.2],[-122.859245,49.18841,88.8],[-122.856643,49.187684,90.2],[-122.851636,49.185907,80.4],[-122.851379,49.182626,74.4],[-122.851409,49.176996,64.0],[-122.851501,49.172642,64.8],[-122.847954,49.170005,50.4],[-122.84598,49.166153,39.4],[-122.845924,49.160344,27.6],[-122.845907,49.156276,30.6],[-122.845894,49.153066,36.6],[-122.845848,49.150727,44.8],[-122.84585,49.148184,53.2],[-122.845853,49.145477,59.8],[-122.84584,49.142337,66.0],[-122.845798,49.138967,69.2],[-122.84576,49.135222,70.2],[-122.845695,49.130262,65.4],[-122.845711,49.125691,56.2],[-122.845657,49.119688,47.0],[-122.844818,49.115821,56.2],[-122.842378,49.11344,65.0],[-122.839557,49.111153,74.2],[-122.836412,49.108578,81.2],[-122.832618,49.105378,76.2],[-122.824444,49.101952,25.6],[-122.818407,49.09769,6.8],[-122.817837,49.092771,-2.4],[-122.818015,49.0885,-1.6],[-122.819906,49.084275,-1.6],[-122.821338,49.079759,-2.0],[-122.822543,49.075771,-1.0],[-122.823523,49.07258,0.0],[-122.822211,49.068825,1.4],[-122.819423,49.066305,8.4],[-122.816785,49.064197,14.8],[-122.814293,49.062181,23.2],[-122.812362,49.060584,34.2],[-122.809627,49.058408,37.4],[-122.806775,49.056101,41.0],[-122.804796,49.054514,52.8],[-122.802982,49.053013,61.2],[-122.801478,49.051811,66.8],[-122.799487,49.050209,75.4],[-122.79748,49.048569,84.6],[-122.79511,49.04668,90.4],[-122.791785,49.044007,89.6],[-122.787007,49.040257,79.8],[-122.784372,49.038107,74.4],[-122.779688,49.03435,64.0],[-122.775838,49.031157,54.2],[-122.771212,49.027454,39.8],[-122.766366,49.023588,36.0],[-122.762075,49.019176,23.6],[-122.759985,49.015161,7.2],[-122.757782,49.011334,10.2],[-122.757741,49.007411,13.2],[-122.757698,49.003913,11.6],[-122.755899,49.000966,4.6],[-122.754466,49.000047,4.8],[-122.753429,49.000039,5.4],[-122.754344,48.999518,6.6],[-122.752365,48.997846,8.0],[-122.751691,48.995185,9.0],[-122.751653,48.991814,10.0],[-122.751317,48.988302,12.4],[-122.746522,48.985712,12.0],[-122.740119,48.983496,3.4],[-122.735483,48.980406,5.6],[-122.73136,48.977683,9.6],[-122.72846,48.974392,8.4],[-122.729973,48.969919,4.0],[-122.729996,48.965458,2.0],[-122.730016,48.961472,2.0],[-122.729561,48.957337,1.2],[-122.724561,48.954675,0.2],[-122.718482,48.952831,0.0],[-122.713026,48.950772,2.0],[-122.707996,48.950132,5.6],[-122.704422,48.94918,5.2],[-122.704491,48.945572,3.6],[-122.704506,48.942019,4.2],[-122.704544,48.938958,9.2],[-122.704529,48.935755,11.4],[-122.704483,48.932228,7.2],[-122.704422,48.928221,6.8],[-122.70443,48.924285,5.6],[-122.704445,48.920674,8.8],[-122.704521,48.917985,18.0],[-122.704582,48.914971,22.8],[-122.70459,48.912055,27.8],[-122.704585,48.908983,34.6],[-122.704559,48.906177,42.6],[-122.704529,48.903001,45.8],[-122.70446,48.898245,38.6],[-122.704407,48.894765,43.6],[-122.704379,48.891622,46.6],[-122.704338,48.888434,53.2],[-122.704323,48.885635,61.2],[-122.7043,48.881938,60.8],[-122.704269,48.877498,58.0],[-122.704305,48.872747,55.8],[-122.70429,48.868932,58.8],[-122.704308,48.864846,61.0],[-122.702352,48.862632,66.6],[-122.701439,48.860672,67.6],[-122.701454,48.857979,72.8],[-122.700344,48.854741,76.4],[-122.697257,48.851464,76.4],[-122.691794,48.8484,67.6],[-122.685984,48.848399,76.2],[-122.682617,48.845732,66.4],[-122.682587,48.84199,74.0],[-122.68251,48.837113,68.0],[-122.682442,48.83366,76.0],[-122.682539,48.827686,51.6],[-122.682615,48.822401,48.8],[-122.681272,48.819416,54.0],[-122.673897,48.819412,46.6],[-122.662745,48.819382,13.0],[-122.654318,48.819408,8.0],[-122.646555,48.819388,2.4],[-122.638981,48.819337,-2.8],[-122.632212,48.819309,-2.2],[-122.62709,48.818751,-0.2],[-122.627286,48.818682,-0.2],[-122.627876,48.815502,-1.6],[-122.627884,48.811528,-1.4],[-122.627853,48.807556,-1.6],[-122.625847,48.803976,-0.8],[-122.621179,48.801853,0.6],[-122.616814,48.799389,4.4],[-122.614547,48.796523,9.2],[-122.610439,48.793837,1.4],[-122.603835,48.793355,0.6],[-122.597142,48.791894,0.8],[-122.59099,48.791487,5.6],[-122.58434,48.790966,2.4],[-122.578026,48.789952,6.2],[-122.572371,48.78971,13.0],[-122.568029,48.789684,22.0],[-122.563508,48.789687,30.8],[-122.558927,48.787888,32.6],[-122.556025,48.783986,29.8],[-122.551475,48.783351,32.6],[-122.546905,48.782869,43.6],[-122.541327,48.780364,38.2],[-122.536149,48.777482,39.6],[-122.530323,48.77423,36.0],[-122.523195,48.770269,24.0],[-122.516666,48.766664,20.8],[-122.51079,48.763696,19.6],[-122.508946,48.761662,3.6],[-122.503431,48.759519,5.2],[-122.496195,48.758158,6.2],[-122.489738,48.755406,6.0],[-122.485156,48.752526,6.8],[-122.484342,48.751802,6.8],[-122.482693,48.750046,13.6],[-122.48005,48.748305,21.2],[-122.478153,48.747045,30.6],[-122.477284,48.746493,37.6],[-122.476064,48.745667,46.4],[-122.473874,48.744304,52.8],[-122.471916,48.742544,61.0],[-122.470883,48.740274,66.0],[-122.46994,48.736206,63.0],[-122.469497,48.732742,62.0],[-122.469748,48.730329,70.6],[-122.471708,48.727495,78.4],[-122.471674,48.724955,89.4],[-122.470995,48.722738,99.2],[-122.470248,48.720586,108.8],[-122.469509,48.718433,116.8],[-122.468648,48.715998,126.0],[-122.467735,48.713406,133.6],[-122.465983,48.710981,141.6],[-122.463047,48.709005,149.0],[-122.458746,48.706825,151.8],[-122.45052,48.706508,141.4],[-122.445516,48.706465,152.0],[-122.440189,48.706515,158.0],[-122.436521,48.705209,168.8],[-122.43429,48.703992,179.8],[-122.432014,48.702675,188.6],[-122.429339,48.701167,201.0],[-122.427067,48.699901,212.8],[-122.424441,48.698952,222.4],[-122.419521,48.697413,215.8],[-122.41152,48.694551,196.8],[-122.403638,48.690911,180.0],[-122.398113,48.685777,160.0],[-122.395987,48.679694,130.2],[-122.393427,48.674343,104.6],[-122.387598,48.672882,100.0],[-122.380328,48.669976,87.8],[-122.375893,48.66753,93.6],[-122.373136,48.664203,94.0],[-122.371463,48.66021,92.6],[-122.369554,48.656054,91.6],[-122.368083,48.652156,95.2],[-122.367276,48.648394,98.0],[-122.362003,48.649169,97.2],[-122.356943,48.645848,85.4],[-122.354616,48.64135,84.2],[-122.353404,48.637075,85.4],[-122.351799,48.634324,92.0],[-122.348439,48.630345,87.4],[-122.345815,48.625999,85.8],[-122.342788,48.621968,82.4],[-122.339497,48.618995,85.8],[-122.337376,48.614577,76.4],[-122.335706,48.610715,77.2],[-122.333672,48.607302,77.6],[-122.332547,48.604784,81.6],[-122.33255,48.604675,82.0],[-122.331642,48.602678,83.4],[-122.32995,48.598969,78.0],[-122.328835,48.594056,62.8],[-122.32798,48.590284,58.2],[-122.329756,48.586884,56.0],[-122.333561,48.58476,57.0],[-122.337678,48.582693,57.4],[-122.337613,48.578264,50.0],[-122.338486,48.573683,44.2],[-122.338022,48.571182,48.4],[-122.335105,48.567844,41.2],[-122.33213,48.562405,26.8],[-122.332942,48.557468,20.6],[-122.335086,48.552733,15.0],[-122.337136,48.548145,12.4],[-122.338712,48.543898,12.8],[-122.339307,48.539096,10.8],[-122.339941,48.534069,7.8],[-122.340523,48.529295,6.2],[-122.340016,48.524624,5.4],[-122.339177,48.519893,5.4],[-122.338328,48.515097,5.2],[-122.337779,48.51193,17.2],[-122.337021,48.507894,6.2],[-122.336657,48.505293,5.4],[-122.336434,48.505187,8.0],[-122.335456,48.500966,7.4],[-122.335053,48.496021,7.2],[-122.33519,48.491072,6.4],[-122.335335,48.485995,6.0],[-122.335472,48.481673,7.8],[-122.335693,48.476654,8.0],[-122.335793,48.471953,9.2],[-122.335897,48.465996,9.8],[-122.335841,48.460281,8.4],[-122.335652,48.454247,7.4],[-122.335442,48.448485,9.0],[-122.33565,48.444342,18.0],[-122.335281,48.440764,8.0],[-122.335241,48.436147,7.6],[-122.33536,48.432928,7.2],[-122.335449,48.42799,11.6],[-122.335374,48.425831,24.4],[-122.335307,48.423003,25.6],[-122.337733,48.417609,6.8],[-122.337865,48.413171,5.2],[-122.33772,48.407852,5.0],[-122.335571,48.403265,5.6],[-122.33564,48.397886,4.4],[-122.335764,48.393002,3.6],[-122.335815,48.388115,2.6],[-122.335463,48.383595,3.8],[-122.331232,48.381803,6.4],[-122.334482,48.378509,2.8],[-122.334882,48.373556,1.4],[-122.334989,48.368421,0.0],[-122.335142,48.363197,-0.8],[-122.335205,48.358073,-1.6],[-122.335203,48.353464,-1.2],[-122.33519,48.348527,-1.0],[-122.335139,48.343492,-0.8],[-122.33169,48.340664,-0.4],[-122.331874,48.340673,0.4],[-122.333504,48.337556,0.2],[-122.333442,48.337518,0.0],[-122.327195,48.336197,-1.2],[-122.32471,48.337326,18.6],[-122.320187,48.337217,29.6],[-122.318454,48.339443,21.4],[-122.315554,48.340805,23.8],[-122.310242,48.340776,29.6],[-122.306559,48.339826,43.2],[-122.304408,48.338755,57.6],[-122.302003,48.338011,71.8],[-122.298109,48.337562,78.8],[-122.291857,48.335733,79.4],[-122.28603,48.333856,85.4],[-122.278524,48.331927,83.6],[-122.271251,48.329971,85.0],[-122.264591,48.328793,89.8],[-122.257604,48.326882,90.0],[-122.252949,48.323903,96.0],[-122.2488,48.321828,101.2],[-122.242429,48.319602,94.6],[-122.234587,48.316854,80.0],[-122.231001,48.313684,80.4],[-122.226881,48.310449,87.8],[-122.219779,48.310199,85.2],[-122.211897,48.308356,70.6],[-122.207708,48.304603,69.2],[-122.203787,48.300192,67.8],[-122.200637,48.296905,73.2],[-122.197125,48.293447,75.0],[-122.197567,48.290839,61.8],[-122.196487,48.287457,61.4],[-122.192658,48.282977,64.8],[-122.188612,48.278144,59.0],[-122.183279,48.274264,59.2],[-122.177985,48.269919,55.4],[-122.173584,48.264725,48.6],[-122.171864,48.259387,45.6],[-122.168954,48.254952,47.6],[-122.166781,48.251609,51.6],[-122.164153,48.247568,52.6],[-122.161627,48.243678,54.4],[-122.159394,48.240247,53.6],[-122.156398,48.236029,48.2],[-122.151187,48.231737,46.8],[-122.145863,48.227652,44.2],[-122.141444,48.222919,43.2],[-122.135195,48.21907,36.6],[-122.130858,48.214872,30.8],[-122.131047,48.208938,24.4],[-122.128353,48.204042,28.0],[-122.127235,48.200342,31.6],[-122.12737,48.197803,33.4],[-122.12749,48.194637,35.4],[-122.128284,48.190744,34.8],[-122.133176,48.187813,32.4],[-122.137126,48.184334,34.8],[-122.14042,48.181131,36.0],[-122.14061,48.179189,36.8],[-122.140732,48.175274,42.0],[-122.140897,48.171227,45.6],[-122.140617,48.166412,45.2],[-122.140625,48.162212,49.4],[-122.140633,48.157006,45.2],[-122.140719,48.152863,42.2],[-122.14073,48.148997,39.8],[-122.141004,48.143629,37.4],[-122.141167,48.138072,34.8],[-122.142146,48.133635,35.2],[-122.150204,48.133755,31.2],[-122.157657,48.133835,30.6],[-122.162193,48.131969,30.2],[-122.162621,48.126202,28.2],[-122.16263,48.12038,26.4],[-122.162399,48.114492,25.2],[-122.162355,48.108875,22.4],[-122.162294,48.108199,22.4],[-122.16228,48.103267,21.0],[-122.1623,48.098245,20.4],[-122.162547,48.092612,20.0],[-122.162306,48.087291,20.2],[-122.162323,48.084009,19.6],[-122.162331,48.078009,17.0],[-122.162379,48.075171,17.2],[-122.162354,48.070326,15.4],[-122.162298,48.064442,14.4],[-122.162295,48.060883,14.4],[-122.164121,48.056163,11.6],[-122.167694,48.05134,8.0],[-122.174524,48.050917,4.8],[-122.177196,48.048547,2.6],[-122.179508,48.044945,6.4],[-122.181523,48.041178,1.8],[-122.182162,48.03736,4.4],[-122.182014,48.037433,4.2],[-122.182605,48.035252,4.0],[-122.183997,48.030399,2.8],[-122.185334,48.025437,1.6],[-122.186631,48.021159,2.4],[-122.18736,48.018645,11.2],[-122.188233,48.015153,10.6],[-122.189686,48.012219,10.6],[-122.192035,48.010045,24.4],[-122.195139,48.007702,27.4],[-122.199648,48.004171,23.6],[-122.201119,48.001741,31.2],[-122.202517,47.999615,26.6],[-122.203983,47.99648,24.6],[-122.205467,47.993709,26.4],[-122.208338,47.992513,28.8],[-122.209808,47.989509,29.4],[-122.209901,47.98581,32.8],[-122.210019,47.98211,32.8],[-122.211068,47.97929,25.6],[-122.211578,47.978034,26.4],[-122.210371,47.976444,34.8],[-122.209796,47.972872,34.0],[-122.209671,47.969837,44.0],[-122.209543,47.966862,50.8],[-122.209381,47.963478,55.8],[-122.209261,47.960228,59.0],[-122.211161,47.959323,67.0],[-122.212574,47.956999,80.2],[-122.213466,47.9538,84.0],[-122.214357,47.950176,90.6],[-122.215654,47.947246,99.2],[-122.217067,47.944033,109.0],[-122.217812,47.94207,113.4],[-122.21775,47.941932,113.2],[-122.218456,47.93898,122.2],[-122.219302,47.935869,131.2],[-122.220142,47.932675,142.2],[-122.221159,47.929775,149.8],[-122.223767,47.92671,159.2],[-122.226182,47.924147,168.2],[-122.227985,47.922196,170.0],[-122.232476,47.917411,159.4],[-122.236775,47.913913,167.8],[-122.239762,47.911962,172.6],[-122.244731,47.908647,172.2],[-122.250149,47.905072,169.0],[-122.256769,47.901169,157.4],[-122.263863,47.898721,160.0],[-122.26542,47.898017,160.8],[-122.268514,47.895795,173.0],[-122.273671,47.892032,170.2],[-122.278279,47.887042,162.2],[-122.278921,47.883678,176.0],[-122.279932,47.88288,178.4],[-122.286089,47.879248,175.4],[-122.2917,47.874239,165.6],[-122.295681,47.870712,165.4],[-122.303576,47.86634,148.8],[-122.303716,47.860116,145.2],[-122.303724,47.854039,140.2],[-122.303624,47.846995,127.8],[-122.303635,47.846355,128.6],[-122.303533,47.84096,127.0],[-122.300009,47.839061,128.0],[-122.303591,47.834593,121.4],[-122.303396,47.830832,130.2],[-122.303291,47.824685,122.2],[-122.298173,47.822818,120.4],[-122.297882,47.820674,120.0],[-122.300692,47.8172,105.4],[-122.303278,47.81273,112.2],[-122.303263,47.80845,108.6],[-122.303281,47.806594,116.0],[-122.303225,47.804567,128.8],[-122.303215,47.80259,142.8],[-122.303179,47.799493,149.6],[-122.304484,47.797333,155.4],[-122.307482,47.795719,156.2],[-122.30855,47.791072,147.6],[-122.30854,47.784776,128.4],[-122.308418,47.778729,112.2],[-122.309486,47.772919,91.0],[-122.313897,47.769732,89.2],[-122.314699,47.767883,101.6],[-122.314168,47.765959,113.2],[-122.313715,47.764189,123.2],[-122.31254,47.762345,133.8],[-122.313165,47.760458,145.6],[-122.313553,47.757435,148.4],[-122.313372,47.751697,133.6],[-122.313179,47.746612,135.2],[-122.312965,47.738948,106.8],[-122.312861,47.734195,100.8],[-122.312759,47.728832,84.0],[-122.312747,47.723956,89.0],[-122.312752,47.721871,100.6],[-122.312776,47.718887,109.2],[-122.312644,47.714442,109.2],[-122.317968,47.709325,91.4],[-122.317886,47.705596,88.2],[-122.317825,47.703776,102.4],[-122.317787,47.70219,114.4],[-122.317727,47.700531,126.4],[-122.31767,47.698533,136.6],[-122.317663,47.695779,144.4],[-122.31767,47.691098,137.0],[-122.317574,47.68534,111.0],[-122.317553,47.68242,97.6],[-122.317436,47.675927,68.4],[-122.317398,47.671516,59.2],[-122.317451,47.666301,70.0],[-122.317474,47.664963,70.4],[-122.317759,47.659196,51.6],[-122.320572,47.65268,25.4],[-122.322159,47.649256,30.4],[-122.322088,47.647359,43.8],[-122.320862,47.646009,52.8],[-122.320862,47.643502,56.0],[-122.320127,47.641756,66.6],[-122.320132,47.640246,77.6],[-122.32016,47.638424,90.2],[-122.320152,47.635713,101.2],[-122.320043,47.633044,110.0],[-122.320282,47.62851,110.0]]}}]}