{"type":"FeatureCollection","features":[{"type":"Feature","properties":{"date":"2026-07-25","source_file":"1.gpx","dist_m":16569,"vert_up_m":491,"vert_down_m":137,"points":262},"geometry":{"type":"LineString","coordinates":[[-121.186422,47.434088,870.4],[-121.186643,47.434077,869.4],[-121.186792,47.434069,868.4],[-121.186792,47.434069,868.6],[-121.187168,47.434148,866.8],[-121.187168,47.434148,866.8],[-121.187168,47.434148,866.4],[-121.187511,47.434249,865.8],[-121.188253,47.434216,861.8],[-121.188324,47.434857,867.0],[-121.188698,47.435534,864.8],[-121.189433,47.436076,858.6],[-121.190097,47.43656,863.4],[-121.190829,47.436948,865.6],[-121.191661,47.437373,866.6],[-121.192428,47.437719,868.0],[-121.192852,47.438201,871.4],[-121.193152,47.43874,880.0],[-121.193763,47.439216,884.6],[-121.194644,47.439658,883.6],[-121.195176,47.440285,886.2],[-121.195699,47.440895,887.2],[-121.196521,47.44137,888.6],[-121.197316,47.441825,890.8],[-121.198144,47.442339,892.0],[-121.198816,47.442813,899.2],[-121.1995,47.443309,890.8],[-121.199895,47.443979,887.8],[-121.199659,47.444797,885.0],[-121.200293,47.445388,884.8],[-121.200842,47.445811,885.4],[-121.201774,47.446243,883.4],[-121.202379,47.446853,881.8],[-121.203139,47.447427,879.6],[-121.203631,47.448175,875.2],[-121.204472,47.448619,875.8],[-121.20494,47.449305,874.0],[-121.205007,47.450002,875.6],[-121.206016,47.450325,871.8],[-121.206702,47.450815,869.8],[-121.207219,47.451491,868.6],[-121.207579,47.452165,871.8],[-121.207999,47.452756,874.0],[-121.208478,47.453407,876.8],[-121.208745,47.454096,879.2],[-121.209325,47.454611,880.6],[-121.210337,47.455042,877.0],[-121.210814,47.455737,873.8],[-121.211247,47.45631,874.2],[-121.211686,47.456814,873.6],[-121.21206,47.457219,874.8],[-121.212568,47.45777,878.2],[-121.213006,47.45814,879.8],[-121.213687,47.458564,888.0],[-121.214272,47.459177,890.8],[-121.214581,47.459746,898.6],[-121.21504,47.46031,905.6],[-121.215196,47.461025,895.4],[-121.21533,47.461822,890.8],[-121.215577,47.46249,889.2],[-121.215915,47.46317,890.8],[-121.216686,47.46368,890.6],[-121.216974,47.464445,888.8],[-121.216789,47.464877,889.6],[-121.216614,47.465575,892.6],[-121.216526,47.466304,893.8],[-121.21618,47.466783,896.8],[-121.215975,47.467377,904.2],[-121.215968,47.468026,907.0],[-121.216277,47.46875,905.0],[-121.216219,47.469422,909.6],[-121.216417,47.47,910.0],[-121.21689,47.470667,907.0],[-121.217153,47.471354,908.8],[-121.218013,47.471669,904.4],[-121.218834,47.472122,898.8],[-121.219492,47.472724,898.0],[-121.220461,47.472839,897.2],[-121.221709,47.472662,898.0],[-121.22274,47.472819,898.0],[-121.223418,47.47304,897.8],[-121.224245,47.473555,899.6],[-121.225074,47.474033,897.8],[-121.226099,47.474446,897.2],[-121.225797,47.475,899.8],[-121.226122,47.47557,904.4],[-121.226853,47.47565,906.6],[-121.22775,47.475356,903.2],[-121.228226,47.475701,911.8],[-121.228826,47.476354,916.8],[-121.229864,47.476691,916.2],[-121.23069,47.476807,916.8],[-121.23069,47.476807,917.0],[-121.23069,47.476807,917.2],[-121.231361,47.476803,917.6],[-121.232117,47.477114,919.4],[-121.232688,47.477244,920.8],[-121.233435,47.477176,918.0],[-121.233815,47.477158,913.8],[-121.233823,47.477183,913.8],[-121.233734,47.477244,914.8],[-121.233588,47.477172,915.0],[-121.233588,47.477172,915.4],[-121.233588,47.477172,915.2],[-121.233588,47.477172,915.0],[-121.233588,47.477172,915.0],[-121.233588,47.477172,915.0],[-121.233595,47.477163,915.4],[-121.233213,47.477213,922.4],[-121.232873,47.477305,921.8],[-121.233424,47.47766,931.8],[-121.23425,47.478076,930.6],[-121.235329,47.478159,924.0],[-121.236245,47.477928,915.2],[-121.23713,47.477677,917.6],[-121.237812,47.477609,924.6],[-121.238813,47.477833,928.4],[-121.239832,47.477801,929.0],[-121.240915,47.477876,929.8],[-121.241733,47.478014,936.4],[-121.242693,47.477976,936.0],[-121.243623,47.478042,939.4],[-121.243831,47.477642,947.2],[-121.24427,47.477121,939.4],[-121.245085,47.476893,930.8],[-121.245193,47.47615,925.2],[-121.246172,47.476233,924.4],[-121.247162,47.476411,928.2],[-121.248103,47.476478,934.6],[-121.249001,47.476941,939.6],[-121.24995,47.477355,940.6],[-121.250941,47.477668,940.8],[-121.251697,47.477954,941.0],[-121.252345,47.477599,940.0],[-121.252179,47.476956,938.2],[-121.252747,47.476799,937.8],[-121.252758,47.47679,937.0],[-121.252676,47.476727,936.0],[-121.252583,47.47676,936.4],[-121.253181,47.477144,939.2],[-121.253155,47.476954,936.6],[-121.253212,47.47692,936.6],[-121.253285,47.476755,937.2],[-121.253462,47.47676,937.0],[-121.253511,47.476667,937.0],[-121.253526,47.476657,936.2],[-121.253574,47.476653,935.8],[-121.253642,47.476609,936.4],[-121.253642,47.476609,937.6],[-121.253438,47.476468,936.2],[-121.253498,47.476316,940.0],[-121.253324,47.476263,940.6],[-121.25321,47.476188,937.8],[-121.2532,47.475633,940.8],[-121.253808,47.475191,943.8],[-121.25364,47.474635,945.6],[-121.253117,47.47401,943.0],[-121.252737,47.473338,943.8],[-121.252578,47.472819,949.8],[-121.252869,47.47229,953.6],[-121.253824,47.472292,959.2],[-121.253705,47.471646,964.6],[-121.253965,47.470934,967.2],[-121.253845,47.470303,970.0],[-121.254757,47.469761,972.2],[-121.25577,47.469554,976.4],[-121.256497,47.469295,984.0],[-121.257371,47.469137,991.8],[-121.258352,47.468763,994.2],[-121.259467,47.468704,990.2],[-121.260241,47.468543,989.6],[-121.260697,47.468044,987.4],[-121.260974,47.467456,985.2],[-121.261798,47.466934,986.2],[-121.262462,47.466431,990.0],[-121.263195,47.465848,989.8],[-121.263578,47.465157,992.8],[-121.263633,47.464439,989.0],[-121.26395,47.463753,992.8],[-121.264424,47.463101,1000.4],[-121.264862,47.462967,1003.4],[-121.26495,47.462391,1010.2],[-121.265394,47.461841,1016.6],[-121.265605,47.461421,1023.0],[-121.265802,47.460986,1029.6],[-121.265951,47.46157,1037.0],[-121.266231,47.461347,1042.6],[-121.266509,47.460832,1043.8],[-121.266468,47.460281,1042.8],[-121.266645,47.459635,1047.6],[-121.266941,47.459384,1057.6],[-121.267005,47.459949,1064.4],[-121.267136,47.45997,1071.6],[-121.2673,47.459445,1074.8],[-121.267402,47.459645,1083.8],[-121.267567,47.46024,1093.0],[-121.267753,47.459698,1098.2],[-121.268419,47.459323,1104.4],[-121.268112,47.459801,1114.2],[-121.268246,47.460386,1120.4],[-121.268306,47.460484,1125.8],[-121.268863,47.460117,1131.6],[-121.268663,47.460591,1137.6],[-121.268662,47.461133,1145.0],[-121.269146,47.461561,1152.0],[-121.269646,47.461377,1157.8],[-121.270006,47.460884,1162.2],[-121.27019,47.460516,1170.4],[-121.270602,47.46013,1177.6],[-121.270758,47.460408,1186.6],[-121.271139,47.459933,1189.2],[-121.271561,47.459805,1195.0],[-121.271614,47.459728,1195.8],[-121.271544,47.459582,1195.0],[-121.271576,47.459142,1195.2],[-121.272124,47.458677,1199.8],[-121.271839,47.458298,1206.0],[-121.272559,47.458481,1214.4],[-121.272639,47.458844,1221.0],[-121.272734,47.458325,1226.4],[-121.272735,47.458089,1233.2],[-121.27332,47.458492,1238.4],[-121.273188,47.458198,1244.8],[-121.273538,47.458239,1252.8],[-121.27388,47.458262,1259.8],[-121.273522,47.457858,1266.6],[-121.273235,47.457462,1272.0],[-121.273645,47.45734,1278.2],[-121.273264,47.456861,1286.2],[-121.274145,47.456887,1292.0],[-121.274632,47.457325,1300.0],[-121.274648,47.457076,1307.0],[-121.274881,47.456925,1314.6],[-121.275012,47.456881,1322.2],[-121.275198,47.456931,1329.4],[-121.275304,47.456544,1335.2],[-121.275683,47.456697,1341.8],[-121.275618,47.45726,1343.6],[-121.2756,47.45757,1343.2],[-121.275486,47.458271,1345.8],[-121.275383,47.458513,1344.2],[-121.275414,47.458564,1346.2],[-121.275204,47.459025,1336.0],[-121.274907,47.459338,1324.8],[-121.275229,47.459455,1315.6],[-121.275496,47.459595,1304.4],[-121.275928,47.459628,1303.6],[-121.276111,47.459293,1293.8],[-121.276547,47.458975,1293.2],[-121.277133,47.458912,1299.6],[-121.277612,47.458976,1304.8],[-121.277769,47.459429,1300.4],[-121.277786,47.459903,1292.6],[-121.277787,47.460315,1293.2],[-121.278065,47.460565,1292.4],[-121.278022,47.461054,1294.4],[-121.278447,47.461298,1300.4],[-121.278031,47.461425,1290.6],[-121.277828,47.46178,1295.4],[-121.277557,47.461864,1295.2],[-121.277642,47.461848,1294.4],[-121.277624,47.461823,1294.8]]}},{"type":"Feature","properties":{"date":"2026-07-26","source_file":"2.gpx","dist_m":16305,"vert_up_m":118,"vert_down_m":491,"points":229},"geometry":{"type":"LineString","coordinates":[[-121.277499,47.461848,1296.0],[-121.277559,47.461463,1296.4],[-121.277638,47.460966,1290.8],[-121.277763,47.46045,1292.4],[-121.277659,47.459962,1295.2],[-121.27774,47.459483,1299.0],[-121.277675,47.459206,1306.6],[-121.277144,47.458895,1303.0],[-121.276596,47.458961,1298.4],[-121.276156,47.459266,1295.8],[-121.275941,47.459464,1304.8],[-121.275448,47.459557,1307.6],[-121.275244,47.459446,1318.2],[-121.274873,47.459383,1326.2],[-121.275114,47.459045,1337.6],[-121.275317,47.458575,1347.8],[-121.275562,47.458018,1350.6],[-121.27552,47.457474,1348.8],[-121.275668,47.456992,1351.4],[-121.275411,47.456543,1345.8],[-121.275326,47.45684,1340.8],[-121.27505,47.456719,1332.2],[-121.274857,47.456842,1325.6],[-121.274707,47.45696,1318.4],[-121.274652,47.45741,1311.8],[-121.27421,47.45697,1303.4],[-121.273319,47.456872,1297.4],[-121.273671,47.457339,1288.8],[-121.273284,47.457502,1281.6],[-121.273737,47.458032,1273.8],[-121.273532,47.458118,1267.0],[-121.273438,47.458301,1258.2],[-121.273347,47.45858,1250.0],[-121.272748,47.458129,1242.8],[-121.272824,47.458407,1234.4],[-121.272531,47.458877,1228.2],[-121.272223,47.458336,1220.4],[-121.272216,47.458562,1212.4],[-121.27163,47.459154,1205.0],[-121.271686,47.459666,1204.0],[-121.271308,47.459915,1202.4],[-121.270876,47.460361,1195.8],[-121.270584,47.460226,1186.4],[-121.269964,47.460622,1175.6],[-121.269841,47.46121,1168.8],[-121.269172,47.46169,1162.8],[-121.268721,47.461155,1154.4],[-121.268666,47.460514,1145.8],[-121.268614,47.460225,1138.4],[-121.268167,47.46059,1131.8],[-121.268119,47.459868,1122.6],[-121.268409,47.459315,1114.2],[-121.267724,47.459871,1104.8],[-121.26757,47.459892,1096.6],[-121.267357,47.459397,1085.8],[-121.26706,47.460062,1077.6],[-121.266907,47.459639,1069.2],[-121.266662,47.459493,1058.8],[-121.266437,47.46023,1052.4],[-121.266466,47.460793,1051.4],[-121.266271,47.461215,1049.4],[-121.265956,47.461624,1045.4],[-121.265789,47.460982,1036.0],[-121.265568,47.461458,1028.4],[-121.265205,47.462149,1019.6],[-121.264861,47.462641,1012.4],[-121.26483,47.462987,1008.2],[-121.26413,47.463476,1000.6],[-121.263848,47.464202,995.6],[-121.263559,47.464888,995.6],[-121.263345,47.465686,993.0],[-121.262593,47.466302,994.0],[-121.261895,47.466848,992.0],[-121.261076,47.46742,990.2],[-121.260754,47.46809,992.8],[-121.26027,47.468742,996.2],[-121.259333,47.468722,996.0],[-121.258483,47.468765,998.0],[-121.258483,47.468765,997.8],[-121.258482,47.468764,997.8],[-121.25801,47.468882,999.2],[-121.257495,47.469109,996.8],[-121.256533,47.469286,989.0],[-121.255697,47.469574,979.6],[-121.254694,47.469806,976.2],[-121.253865,47.470266,974.6],[-121.254006,47.471004,973.4],[-121.25359,47.471778,968.2],[-121.253499,47.472215,961.4],[-121.252662,47.472539,955.2],[-121.252824,47.473134,949.0],[-121.253125,47.473833,948.4],[-121.253585,47.474477,950.2],[-121.253907,47.47515,950.0],[-121.25322,47.475667,945.2],[-121.253197,47.476349,940.4],[-121.253142,47.476471,939.6],[-121.252967,47.476578,939.4],[-121.252889,47.476604,939.6],[-121.252924,47.476608,939.0],[-121.252888,47.476577,939.2],[-121.252888,47.476577,938.6],[-121.252888,47.476577,938.2],[-121.252911,47.476597,938.4],[-121.252891,47.476722,939.0],[-121.25285,47.476702,938.4],[-121.252748,47.476722,938.2],[-121.252623,47.476823,939.4],[-121.252375,47.477323,942.0],[-121.252083,47.477902,942.8],[-121.251172,47.477753,942.2],[-121.250913,47.477687,943.0],[-121.250049,47.477503,943.8],[-121.249445,47.477197,942.0],[-121.248527,47.476738,939.4],[-121.247524,47.476455,933.0],[-121.246391,47.476415,928.2],[-121.245353,47.47611,925.6],[-121.245096,47.476707,930.6],[-121.244538,47.477137,938.2],[-121.243809,47.477485,948.2],[-121.243737,47.47808,942.2],[-121.242827,47.478018,937.8],[-121.242184,47.478063,938.8],[-121.242184,47.478063,938.8],[-121.242183,47.47804,938.8],[-121.242205,47.47804,938.4],[-121.242205,47.478039,938.4],[-121.242173,47.478078,938.8],[-121.241409,47.477912,933.0],[-121.24041,47.477924,931.8],[-121.239383,47.477777,929.4],[-121.238566,47.477892,930.2],[-121.237609,47.477684,922.8],[-121.236654,47.477827,918.6],[-121.23579,47.478092,919.8],[-121.234845,47.478172,930.4],[-121.233859,47.477983,933.4],[-121.233369,47.477627,933.2],[-121.232931,47.477451,925.8],[-121.232119,47.477151,920.2],[-121.231222,47.47678,918.6],[-121.231814,47.476379,918.8],[-121.231962,47.476293,914.8],[-121.231598,47.476475,918.0],[-121.230759,47.476847,917.4],[-121.229501,47.476674,917.8],[-121.228545,47.476218,915.4],[-121.228037,47.475416,910.2],[-121.227277,47.475517,907.2],[-121.226448,47.47563,906.2],[-121.225638,47.475236,901.8],[-121.226197,47.474532,898.4],[-121.225209,47.474089,898.2],[-121.224323,47.473636,900.6],[-121.22438,47.473675,900.4],[-121.223462,47.473093,897.2],[-121.222695,47.472843,896.6],[-121.221516,47.472765,897.0],[-121.220258,47.472835,896.0],[-121.219363,47.472621,896.0],[-121.21879,47.472154,897.4],[-121.218187,47.471783,900.2],[-121.217287,47.471568,907.0],[-121.216799,47.470852,907.0],[-121.216492,47.470131,907.8],[-121.216148,47.469406,908.2],[-121.216128,47.468545,903.8],[-121.215832,47.467796,906.2],[-121.215995,47.46696,897.4],[-121.21646,47.466298,892.4],[-121.216606,47.46549,890.4],[-121.216889,47.464718,887.8],[-121.216691,47.463931,888.4],[-121.216076,47.463317,890.0],[-121.21554,47.46256,888.0],[-121.215268,47.461761,889.8],[-121.215139,47.461001,893.8],[-121.214986,47.460317,903.8],[-121.214454,47.459677,897.0],[-121.214133,47.459036,887.8],[-121.213311,47.458479,884.0],[-121.212616,47.457847,876.6],[-121.212095,47.457372,874.6],[-121.211461,47.456643,872.6],[-121.210826,47.455913,875.0],[-121.210437,47.455126,875.8],[-121.209482,47.454681,879.0],[-121.208705,47.45409,878.4],[-121.208368,47.453282,874.6],[-121.207691,47.452669,874.2],[-121.207322,47.451804,869.8],[-121.206811,47.450955,867.6],[-121.206071,47.450379,871.0],[-121.205012,47.450037,875.0],[-121.204921,47.449215,873.0],[-121.204138,47.448523,875.2],[-121.203318,47.447776,877.8],[-121.202647,47.447037,880.6],[-121.201874,47.446401,882.8],[-121.200913,47.445857,885.4],[-121.200074,47.445213,884.4],[-121.199643,47.444539,887.2],[-121.19973,47.443779,887.4],[-121.199278,47.443242,893.8],[-121.198604,47.442681,896.4],[-121.197515,47.442131,891.2],[-121.196761,47.441454,888.0],[-121.19571,47.441047,887.2],[-121.195176,47.440332,886.0],[-121.194518,47.439611,883.6],[-121.193776,47.439012,883.6],[-121.192869,47.438441,873.6],[-121.192354,47.437787,867.6],[-121.19161,47.437408,866.8],[-121.190621,47.43695,865.6],[-121.18981,47.436387,861.4],[-121.188963,47.43573,863.2],[-121.188264,47.435039,866.8],[-121.188196,47.4342,862.4],[-121.187182,47.43418,867.4],[-121.186823,47.434069,869.2],[-121.186823,47.434069,869.2],[-121.186823,47.434069,869.2],[-121.186823,47.434069,869.0],[-121.186823,47.434069,868.8],[-121.186823,47.434069,868.4],[-121.186319,47.434091,870.0],[-121.186071,47.434045,870.6]]}}]}