{"type":"FeatureCollection","features":[{"type":"Feature","properties":{"date":"2026-07-15","source_file":"1.gpx","dist_m":12255,"vert_up_m":766,"vert_down_m":96,"points":191},"geometry":{"type":"LineString","coordinates":[[-121.413388,47.427861,919.8],[-121.413245,47.42758,922.0],[-121.412469,47.427193,925.8],[-121.411559,47.427221,929.6],[-121.410498,47.427043,934.8],[-121.40949,47.426896,942.8],[-121.408578,47.426561,949.0],[-121.40785,47.426063,954.2],[-121.407064,47.425583,962.4],[-121.406459,47.424962,969.0],[-121.405851,47.4243,973.8],[-121.405156,47.423701,982.6],[-121.405111,47.424094,991.8],[-121.405298,47.42483,997.6],[-121.405365,47.425576,1003.6],[-121.405634,47.426252,1011.8],[-121.406084,47.426968,1019.6],[-121.406317,47.427607,1026.0],[-121.406508,47.428303,1032.8],[-121.406922,47.428942,1041.4],[-121.407172,47.42954,1048.0],[-121.407452,47.430166,1057.6],[-121.407406,47.430899,1065.2],[-121.407184,47.431548,1073.8],[-121.407159,47.432161,1081.2],[-121.406844,47.432779,1089.0],[-121.406581,47.432896,1095.2],[-121.40638,47.432215,1101.8],[-121.406458,47.431518,1108.6],[-121.406332,47.430787,1113.8],[-121.405862,47.430171,1121.0],[-121.405586,47.429806,1127.8],[-121.405803,47.43054,1134.2],[-121.405683,47.431262,1139.4],[-121.405282,47.431881,1148.4],[-121.404829,47.43246,1155.2],[-121.404135,47.432943,1161.6],[-121.403336,47.433319,1169.4],[-121.402532,47.433702,1175.2],[-121.401778,47.434183,1176.4],[-121.400942,47.434935,1169.6],[-121.399765,47.435661,1159.2],[-121.399187,47.436282,1148.4],[-121.39888,47.436914,1148.2],[-121.398674,47.437529,1146.4],[-121.398172,47.438335,1143.0],[-121.397696,47.43915,1152.6],[-121.396996,47.439964,1160.6],[-121.39644,47.440599,1170.8],[-121.395817,47.441258,1179.4],[-121.395061,47.441988,1189.0],[-121.394614,47.442712,1197.6],[-121.39404,47.443335,1204.4],[-121.393439,47.44368,1210.8],[-121.39322,47.443898,1217.0],[-121.393555,47.443202,1225.4],[-121.393639,47.442493,1233.0],[-121.393863,47.441739,1240.2],[-121.394153,47.44106,1247.8],[-121.394433,47.440178,1256.8],[-121.394447,47.4395,1264.4],[-121.394279,47.438798,1273.2],[-121.393996,47.438151,1280.6],[-121.393811,47.437485,1288.2],[-121.393794,47.437129,1293.0],[-121.393718,47.436625,1299.4],[-121.393947,47.436016,1304.6],[-121.394498,47.435453,1312.6],[-121.395168,47.435007,1320.4],[-121.39611,47.434733,1327.6],[-121.396912,47.434391,1337.4],[-121.397244,47.433848,1346.0],[-121.397481,47.4333,1355.6],[-121.398109,47.433173,1364.4],[-121.398777,47.432863,1372.4],[-121.398067,47.432784,1378.2],[-121.397387,47.432496,1386.4],[-121.396543,47.432866,1394.0],[-121.395567,47.43304,1402.0],[-121.394737,47.433402,1410.8],[-121.393855,47.433509,1418.4],[-121.392967,47.433838,1424.8],[-121.39187,47.433921,1428.4],[-121.39103,47.434209,1436.6],[-121.390521,47.434173,1446.4],[-121.389827,47.43414,1454.6],[-121.38907,47.434155,1464.6],[-121.387895,47.433912,1468.6],[-121.386818,47.434362,1471.8],[-121.385862,47.434941,1477.4],[-121.385165,47.435997,1478.2],[-121.384912,47.436719,1487.2],[-121.385186,47.437475,1494.8],[-121.385471,47.437997,1501.2],[-121.385731,47.438622,1508.6],[-121.385997,47.439215,1515.2],[-121.386506,47.439817,1522.8],[-121.386547,47.440516,1530.2],[-121.386879,47.441027,1536.6],[-121.387284,47.441592,1545.2],[-121.387434,47.441797,1547.2],[-121.387678,47.442347,1554.4],[-121.387685,47.442774,1560.6],[-121.387778,47.44346,1569.8],[-121.387708,47.444064,1578.0],[-121.387717,47.444678,1585.8],[-121.387601,47.444612,1591.2],[-121.387229,47.444054,1601.2],[-121.387039,47.443602,1610.6],[-121.38695,47.44421,1620.6],[-121.387027,47.444865,1628.4],[-121.386598,47.445355,1639.4],[-121.385962,47.44584,1649.2],[-121.385606,47.446346,1658.6],[-121.385109,47.446674,1664.0],[-121.383902,47.446828,1659.6],[-121.383104,47.447054,1657.6],[-121.383068,47.447056,1657.8],[-121.382779,47.447431,1654.4],[-121.381947,47.447995,1651.6],[-121.381075,47.448427,1647.8],[-121.381001,47.449209,1638.4],[-121.380258,47.449799,1638.2],[-121.379421,47.450365,1643.0],[-121.379322,47.45103,1652.0],[-121.378747,47.451591,1658.2],[-121.378365,47.452323,1656.4],[-121.37808,47.452936,1656.2],[-121.377701,47.453694,1651.4],[-121.377007,47.454466,1652.6],[-121.375942,47.454722,1648.4],[-121.37493,47.454962,1649.0],[-121.374017,47.455467,1648.4],[-121.372995,47.456112,1648.6],[-121.37206,47.456514,1646.8],[-121.371157,47.456852,1648.2],[-121.370292,47.457086,1645.0],[-121.369826,47.45773,1652.8],[-121.369157,47.458117,1657.6],[-121.368855,47.458611,1661.8],[-121.369051,47.459382,1659.4],[-121.368892,47.460011,1650.0],[-121.369137,47.460368,1649.6],[-121.368925,47.46095,1641.8],[-121.368416,47.461476,1631.0],[-121.367986,47.461934,1619.0],[-121.367486,47.462264,1611.0],[-121.367434,47.462152,1605.6],[-121.367734,47.462415,1607.6],[-121.368005,47.46258,1602.4],[-121.367972,47.462577,1601.6],[-121.368006,47.462566,1603.2],[-121.368006,47.462566,1602.2],[-121.367989,47.462583,1603.2],[-121.368002,47.462569,1602.4],[-121.367996,47.462566,1602.0],[-121.367983,47.462575,1603.2],[-121.367973,47.46259,1602.8],[-121.367986,47.462576,1602.6],[-121.368004,47.46257,1602.4],[-121.368008,47.462714,1601.2],[-121.368008,47.462714,1601.0],[-121.368008,47.462714,1600.8],[-121.368007,47.462684,1601.6],[-121.367992,47.462549,1602.4],[-121.368016,47.462554,1602.4],[-121.368006,47.462592,1602.2],[-121.367986,47.462583,1601.8],[-121.367997,47.462722,1601.4],[-121.368016,47.462574,1602.4],[-121.368002,47.462589,1602.6],[-121.368017,47.462568,1603.2],[-121.367996,47.462609,1602.6],[-121.368007,47.462562,1602.2],[-121.368001,47.462725,1601.8],[-121.368001,47.462725,1601.8],[-121.368001,47.462725,1601.4],[-121.368001,47.462725,1601.8],[-121.368001,47.462725,1601.6],[-121.368001,47.462725,1602.0],[-121.368001,47.462725,1601.8],[-121.368001,47.462725,1601.4],[-121.368001,47.462725,1601.6],[-121.368001,47.462725,1602.0],[-121.367966,47.462702,1601.2],[-121.367966,47.462702,1601.2],[-121.367838,47.462441,1605.0],[-121.367445,47.462145,1605.4],[-121.367418,47.462015,1604.2],[-121.367429,47.462012,1603.8],[-121.367463,47.462218,1607.4]]}},{"type":"Feature","properties":{"date":"2026-07-16","source_file":"2.gpx","dist_m":34941,"vert_up_m":1551,"vert_down_m":1601,"points":500},"geometry":{"type":"LineString","coordinates":[[-121.368001,47.462595,1601.6],[-121.367338,47.462299,1608.6],[-121.366892,47.462138,1615.2],[-121.366128,47.46198,1620.4],[-121.36532,47.46225,1619.2],[-121.364873,47.462512,1619.6],[-121.364075,47.462825,1614.6],[-121.363173,47.463234,1612.8],[-121.362395,47.463745,1609.4],[-121.36181,47.464031,1604.0],[-121.36092,47.46424,1596.6],[-121.359856,47.464556,1588.8],[-121.358947,47.464517,1579.6],[-121.358095,47.464406,1567.8],[-121.356986,47.464315,1564.2],[-121.355937,47.464102,1563.8],[-121.354808,47.464289,1568.6],[-121.353863,47.464371,1575.2],[-121.352856,47.464205,1585.2],[-121.351925,47.46439,1592.2],[-121.35113,47.464745,1598.4],[-121.350282,47.464614,1600.4],[-121.349613,47.463913,1601.8],[-121.348881,47.463654,1610.2],[-121.348469,47.463174,1620.4],[-121.347877,47.462698,1624.2],[-121.347854,47.462597,1625.4],[-121.347468,47.462249,1635.6],[-121.347354,47.462303,1642.8],[-121.347072,47.46247,1654.0],[-121.346153,47.462653,1661.8],[-121.345367,47.462896,1671.6],[-121.344715,47.463174,1681.8],[-121.343968,47.463325,1690.8],[-121.343422,47.463647,1698.2],[-121.342399,47.463528,1687.4],[-121.342357,47.463631,1677.0],[-121.343349,47.463967,1667.2],[-121.344153,47.464409,1659.0],[-121.344918,47.465011,1648.6],[-121.343842,47.464781,1640.4],[-121.344372,47.46524,1630.8],[-121.344684,47.465336,1626.4],[-121.343675,47.465136,1614.4],[-121.343529,47.465301,1603.0],[-121.344453,47.465731,1590.6],[-121.345356,47.46618,1578.0],[-121.345765,47.466843,1566.2],[-121.345863,47.467541,1557.0],[-121.345746,47.468081,1546.6],[-121.345337,47.468649,1543.0],[-121.344806,47.468845,1546.0],[-121.344129,47.469474,1541.4],[-121.343393,47.470009,1550.4],[-121.342686,47.470469,1560.2],[-121.341992,47.470823,1569.8],[-121.34112,47.47113,1577.8],[-121.34038,47.471423,1580.4],[-121.33916,47.471149,1577.2],[-121.337826,47.471081,1573.6],[-121.336625,47.471023,1571.4],[-121.33563,47.470984,1572.4],[-121.334744,47.470925,1574.8],[-121.333835,47.470849,1576.0],[-121.332781,47.470754,1580.2],[-121.331953,47.470584,1588.4],[-121.331158,47.470591,1597.6],[-121.330375,47.470422,1604.8],[-121.329667,47.470589,1614.4],[-121.329163,47.471103,1624.4],[-121.328824,47.471711,1633.0],[-121.328547,47.472298,1642.6],[-121.328287,47.47285,1651.2],[-121.327975,47.473391,1658.4],[-121.327209,47.473468,1666.6],[-121.326905,47.473542,1670.6],[-121.32707,47.474127,1680.2],[-121.327778,47.47451,1684.4],[-121.328094,47.475231,1691.4],[-121.328402,47.475862,1689.8],[-121.327858,47.476752,1691.2],[-121.327515,47.47705,1701.6],[-121.327318,47.477069,1709.2],[-121.326691,47.477064,1717.8],[-121.326859,47.477572,1725.2],[-121.326341,47.477188,1733.8],[-121.325907,47.477537,1738.0],[-121.325563,47.478015,1747.2],[-121.325473,47.478438,1757.2],[-121.325125,47.478665,1768.4],[-121.324392,47.478688,1776.8],[-121.323529,47.478704,1785.6],[-121.3229,47.479013,1795.4],[-121.322325,47.479302,1803.2],[-121.321736,47.478982,1811.0],[-121.321162,47.478847,1817.6],[-121.32066,47.478326,1820.4],[-121.320083,47.477637,1812.6],[-121.319645,47.477133,1803.4],[-121.319351,47.476489,1791.6],[-121.319731,47.476772,1782.4],[-121.319377,47.476125,1773.2],[-121.318674,47.475418,1767.2],[-121.31787,47.475306,1762.8],[-121.317361,47.475196,1760.6],[-121.316678,47.474803,1760.6],[-121.315871,47.474459,1757.8],[-121.315602,47.473832,1756.6],[-121.315239,47.473151,1745.0],[-121.31533,47.472905,1731.4],[-121.315359,47.4727,1719.4],[-121.315069,47.472078,1705.2],[-121.314702,47.471546,1694.4],[-121.314488,47.470993,1686.8],[-121.31394,47.470491,1676.2],[-121.313344,47.469845,1662.2],[-121.312486,47.469311,1656.6],[-121.312158,47.468616,1652.4],[-121.311826,47.468206,1661.0],[-121.311481,47.467782,1670.6],[-121.311114,47.467257,1677.4],[-121.310622,47.46709,1682.0],[-121.31013,47.466721,1691.2],[-121.309555,47.466497,1698.8],[-121.30906,47.466154,1706.6],[-121.308528,47.46585,1715.2],[-121.307877,47.465551,1721.2],[-121.307398,47.4651,1719.0],[-121.307012,47.46443,1712.0],[-121.307105,47.463728,1706.4],[-121.307476,47.462957,1703.2],[-121.307421,47.462149,1697.6],[-121.307041,47.461726,1704.6],[-121.306633,47.461371,1713.0],[-121.306216,47.460988,1720.6],[-121.306048,47.460515,1724.8],[-121.305748,47.460197,1736.0],[-121.30601,47.459671,1740.4],[-121.305992,47.459194,1743.6],[-121.305931,47.458544,1752.4],[-121.305342,47.457956,1758.0],[-121.305577,47.457145,1757.8],[-121.306002,47.456361,1745.2],[-121.306005,47.456368,1744.6],[-121.305919,47.456382,1743.4],[-121.305665,47.456347,1733.6],[-121.306386,47.455664,1720.2],[-121.306525,47.455412,1713.0],[-121.30612,47.455654,1706.6],[-121.305038,47.456008,1694.0],[-121.303994,47.456209,1682.8],[-121.303032,47.456633,1670.6],[-121.302087,47.456839,1658.2],[-121.301411,47.456927,1650.0],[-121.300487,47.457032,1642.0],[-121.29951,47.457176,1634.6],[-121.298646,47.457087,1621.2],[-121.29778,47.457246,1608.8],[-121.296759,47.457017,1600.6],[-121.297141,47.456262,1591.6],[-121.297621,47.455657,1580.2],[-121.297425,47.455667,1578.4],[-121.296916,47.455401,1566.2],[-121.297226,47.45468,1555.0],[-121.297524,47.453844,1546.2],[-121.29838,47.453248,1538.8],[-121.298666,47.452871,1531.2],[-121.297117,47.452608,1521.2],[-121.296303,47.453207,1512.6],[-121.29543,47.452257,1499.8],[-121.295393,47.452144,1498.8],[-121.295514,47.451463,1500.0],[-121.295439,47.451811,1497.8],[-121.294926,47.452128,1502.6],[-121.29408,47.4518,1503.4],[-121.293212,47.451629,1508.2],[-121.291712,47.451961,1510.6],[-121.290853,47.452213,1514.4],[-121.289891,47.452748,1523.0],[-121.289403,47.453388,1529.0],[-121.28925,47.454101,1537.2],[-121.289007,47.45443,1545.8],[-121.288803,47.453811,1555.0],[-121.288449,47.453173,1560.8],[-121.288043,47.452495,1568.2],[-121.287415,47.451913,1574.0],[-121.287137,47.452051,1583.4],[-121.287063,47.452686,1592.0],[-121.287157,47.453261,1602.8],[-121.2867,47.453489,1612.8],[-121.286084,47.452983,1620.4],[-121.285079,47.452715,1622.8],[-121.284439,47.452903,1624.0],[-121.284439,47.452903,1623.8],[-121.284412,47.452896,1624.6],[-121.283388,47.452706,1616.0],[-121.283676,47.453149,1603.4],[-121.282794,47.452675,1590.0],[-121.281779,47.452741,1578.8],[-121.280885,47.453065,1567.6],[-121.280588,47.453273,1557.2],[-121.279754,47.453827,1550.6],[-121.279348,47.454103,1539.6],[-121.279215,47.454277,1530.0],[-121.279102,47.454418,1520.8],[-121.278934,47.454712,1512.0],[-121.278579,47.454423,1502.6],[-121.278854,47.455254,1497.0],[-121.278291,47.45471,1487.0],[-121.277508,47.455124,1472.8],[-121.277633,47.455411,1459.0],[-121.277335,47.455406,1446.8],[-121.277594,47.455965,1435.0],[-121.277161,47.455859,1424.0],[-121.276582,47.455168,1413.4],[-121.276262,47.455641,1401.0],[-121.27604,47.455556,1393.2],[-121.275832,47.45561,1385.0],[-121.275669,47.455878,1376.8],[-121.275858,47.456394,1365.2],[-121.27571,47.456993,1357.6],[-121.275554,47.457641,1356.2],[-121.275514,47.458409,1355.0],[-121.27518,47.459008,1346.2],[-121.27485,47.459432,1331.8],[-121.275377,47.459421,1322.2],[-121.275774,47.459829,1314.2],[-121.276026,47.460187,1311.6],[-121.276645,47.460535,1306.2],[-121.276972,47.46089,1298.2],[-121.276958,47.460889,1292.8],[-121.276787,47.460612,1299.4],[-121.276388,47.460214,1296.6],[-121.275921,47.460032,1306.2],[-121.275354,47.459558,1308.2],[-121.275164,47.459491,1318.6],[-121.274885,47.4593,1327.8],[-121.275192,47.459023,1338.4],[-121.275338,47.458566,1347.2],[-121.27556,47.457913,1348.6],[-121.275607,47.457195,1348.0],[-121.275759,47.456789,1352.0],[-121.275665,47.456206,1359.0],[-121.27564,47.455771,1367.8],[-121.27588,47.455907,1373.8],[-121.276015,47.455832,1380.2],[-121.276217,47.455295,1388.4],[-121.276305,47.4556,1394.4],[-121.276569,47.455078,1403.2],[-121.276953,47.455674,1411.4],[-121.277399,47.455979,1418.0],[-121.277727,47.45595,1428.4],[-121.27734,47.455415,1436.6],[-121.277832,47.455662,1444.8],[-121.277864,47.455408,1452.8],[-121.277723,47.455277,1460.6],[-121.277814,47.454918,1468.0],[-121.278161,47.454593,1476.6],[-121.278661,47.455129,1482.0],[-121.278644,47.454898,1489.6],[-121.278633,47.454404,1496.6],[-121.278918,47.454726,1502.8],[-121.279045,47.454354,1510.0],[-121.27919,47.454441,1518.2],[-121.279303,47.454119,1527.6],[-121.279618,47.453837,1535.8],[-121.279863,47.453662,1543.0],[-121.280495,47.453261,1546.6],[-121.280596,47.453095,1556.4],[-121.2814,47.452875,1565.6],[-121.282004,47.452656,1574.0],[-121.282821,47.452682,1582.6],[-121.283367,47.453023,1592.4],[-121.283533,47.45301,1601.6],[-121.283559,47.45283,1612.0],[-121.284381,47.452921,1619.4],[-121.284589,47.452791,1619.6],[-121.285596,47.452907,1617.8],[-121.286337,47.453232,1615.0],[-121.287068,47.453478,1606.2],[-121.287054,47.452708,1593.2],[-121.287095,47.452007,1582.2],[-121.287538,47.452039,1572.2],[-121.28822,47.452674,1564.8],[-121.288688,47.453477,1559.4],[-121.288972,47.454295,1547.8],[-121.289218,47.454029,1535.8],[-121.28946,47.453231,1527.6],[-121.290244,47.452525,1518.8],[-121.291166,47.45202,1512.0],[-121.29227,47.451902,1509.4],[-121.293494,47.451561,1505.4],[-121.294471,47.451894,1501.0],[-121.295123,47.452147,1500.0],[-121.295579,47.452781,1500.2],[-121.296151,47.453256,1510.0],[-121.296698,47.452782,1513.6],[-121.297519,47.452732,1521.2],[-121.298505,47.452692,1525.6],[-121.298421,47.452999,1532.6],[-121.297975,47.453502,1538.8],[-121.297385,47.454019,1544.6],[-121.297248,47.454664,1551.8],[-121.29698,47.455234,1559.4],[-121.297116,47.455637,1569.6],[-121.297554,47.455908,1578.2],[-121.297079,47.456327,1586.8],[-121.296818,47.456862,1595.8],[-121.29735,47.457285,1599.6],[-121.298146,47.457288,1607.4],[-121.298744,47.457055,1617.2],[-121.299307,47.457187,1627.8],[-121.299818,47.457173,1632.2],[-121.299835,47.457186,1631.6],[-121.299818,47.457173,1632.0],[-121.299818,47.457173,1632.8],[-121.299802,47.457162,1632.4],[-121.300174,47.457057,1633.8],[-121.300972,47.456966,1641.6],[-121.301649,47.456882,1647.6],[-121.30217,47.456783,1652.8],[-121.302853,47.45666,1662.6],[-121.303571,47.456354,1670.6],[-121.30429,47.456175,1679.6],[-121.30506,47.455998,1689.2],[-121.305841,47.455768,1698.8],[-121.306476,47.455436,1707.4],[-121.306449,47.455614,1714.8],[-121.305996,47.456088,1723.2],[-121.305446,47.456503,1731.8],[-121.305995,47.456343,1739.6],[-121.305727,47.456737,1744.0],[-121.305528,47.457372,1754.8],[-121.305505,47.458095,1753.6],[-121.305931,47.45877,1747.2],[-121.305923,47.459483,1740.4],[-121.30598,47.459906,1735.0],[-121.305862,47.460339,1729.4],[-121.30607,47.460514,1722.6],[-121.306169,47.460918,1720.8],[-121.306566,47.461317,1713.2],[-121.307044,47.461717,1702.0],[-121.307422,47.462167,1694.6],[-121.307519,47.462843,1700.4],[-121.307132,47.46349,1704.4],[-121.307146,47.4641,1706.2],[-121.307084,47.464639,1712.2],[-121.307442,47.465165,1717.8],[-121.307801,47.465504,1720.4],[-121.30851,47.465832,1714.8],[-121.309059,47.466151,1706.0],[-121.309643,47.46651,1697.6],[-121.310305,47.466841,1688.8],[-121.311221,47.46728,1676.6],[-121.311611,47.467934,1667.6],[-121.3121,47.468345,1655.8],[-121.312204,47.468925,1653.2],[-121.312827,47.469463,1656.2],[-121.313386,47.46988,1661.6],[-121.3137,47.470361,1671.4],[-121.314157,47.470645,1679.6],[-121.314515,47.471009,1687.2],[-121.314455,47.471029,1687.8],[-121.314455,47.471029,1688.4],[-121.314477,47.471009,1687.6],[-121.31445,47.471051,1687.4],[-121.314508,47.471114,1688.8],[-121.314862,47.471639,1695.0],[-121.315066,47.472133,1704.8],[-121.315235,47.472595,1715.4],[-121.315635,47.473127,1726.8],[-121.315118,47.472802,1733.6],[-121.315267,47.473134,1743.4],[-121.315489,47.473611,1752.0],[-121.315796,47.474145,1757.2],[-121.316178,47.474556,1757.4],[-121.316952,47.474918,1761.4],[-121.317553,47.475129,1759.6],[-121.318123,47.475311,1763.8],[-121.3188,47.475534,1768.4],[-121.319251,47.475973,1770.4],[-121.319576,47.476317,1777.2],[-121.319711,47.476738,1783.6],[-121.319366,47.47646,1792.2],[-121.31958,47.476956,1800.8],[-121.319746,47.477395,1809.6],[-121.320306,47.47786,1816.8],[-121.320747,47.478419,1822.8],[-121.321063,47.478802,1821.8],[-121.321664,47.478919,1814.6],[-121.322328,47.479302,1805.0],[-121.322602,47.479316,1801.8],[-121.32304,47.47885,1794.2],[-121.323805,47.478681,1785.2],[-121.324662,47.478752,1775.8],[-121.325227,47.478604,1769.0],[-121.325451,47.478324,1758.6],[-121.325517,47.477858,1748.2],[-121.325992,47.477408,1741.4],[-121.326528,47.477328,1735.4],[-121.326847,47.477459,1727.8],[-121.326704,47.476891,1718.8],[-121.327287,47.477263,1710.8],[-121.327528,47.476891,1703.4],[-121.327973,47.476678,1693.4],[-121.328451,47.476144,1691.2],[-121.328219,47.47545,1693.4],[-121.327771,47.474776,1692.6],[-121.327327,47.474195,1681.2],[-121.326836,47.473699,1676.2],[-121.326858,47.473123,1667.0],[-121.326862,47.473012,1663.6],[-121.326971,47.473382,1671.8],[-121.327726,47.473445,1665.4],[-121.328172,47.473024,1657.8],[-121.328484,47.472428,1648.4],[-121.3288,47.471724,1636.6],[-121.329163,47.471089,1626.8],[-121.329283,47.470939,1623.2],[-121.32983,47.470479,1614.2],[-121.330491,47.470464,1605.4],[-121.331253,47.47063,1598.4],[-121.332115,47.470657,1587.4],[-121.332879,47.470736,1580.0],[-121.333871,47.4709,1575.8],[-121.334929,47.470947,1573.6],[-121.336124,47.471019,1568.4],[-121.337313,47.471068,1569.6],[-121.338295,47.471117,1572.0],[-121.339383,47.471237,1576.0],[-121.340564,47.471509,1576.8],[-121.341323,47.471097,1574.0],[-121.342156,47.470711,1564.6],[-121.343002,47.470274,1553.6],[-121.343872,47.46979,1539.4],[-121.344449,47.4692,1543.0],[-121.345054,47.468798,1539.6],[-121.345531,47.468492,1539.8],[-121.345906,47.46793,1546.2],[-121.345944,47.467464,1554.6],[-121.345802,47.466996,1562.2],[-121.345713,47.466517,1569.6],[-121.34517,47.466098,1576.8],[-121.34453,47.46576,1586.6],[-121.343851,47.465487,1594.8],[-121.343411,47.465135,1603.4],[-121.343608,47.465115,1610.6],[-121.344288,47.465305,1619.4],[-121.344749,47.465319,1626.8],[-121.344086,47.46499,1632.6],[-121.34404,47.464882,1641.4],[-121.344908,47.464996,1647.2],[-121.344549,47.464794,1652.0],[-121.344028,47.464368,1659.2],[-121.343473,47.464005,1664.8],[-121.342633,47.463755,1673.8],[-121.342063,47.46336,1682.6],[-121.342715,47.463616,1690.6],[-121.343579,47.4636,1700.2],[-121.343994,47.463245,1691.0],[-121.344877,47.463058,1680.2],[-121.34576,47.462805,1668.8],[-121.346711,47.462527,1658.4],[-121.347478,47.462402,1646.8],[-121.347382,47.462225,1637.0],[-121.347826,47.462611,1625.6],[-121.348412,47.463314,1617.4],[-121.349178,47.463801,1606.4],[-121.350074,47.464118,1598.8],[-121.350503,47.464703,1597.0],[-121.351443,47.464489,1592.8],[-121.352629,47.464218,1587.0],[-121.353366,47.464278,1556.2],[-121.356688,47.464192,1550.8],[-121.357574,47.464302,1554.2],[-121.358431,47.464456,1561.4],[-121.359102,47.464529,1571.4],[-121.359769,47.464565,1579.0],[-121.360786,47.464269,1585.6],[-121.361596,47.464068,1591.0],[-121.362052,47.46391,1600.8],[-121.362806,47.463546,1601.8],[-121.363553,47.463071,1603.0],[-121.364341,47.46279,1605.8],[-121.365082,47.462468,1609.8],[-121.36578,47.462073,1610.4],[-121.36658,47.462097,1610.8],[-121.367244,47.462291,1603.2],[-121.367449,47.462169,1598.8],[-121.366932,47.461906,1597.8],[-121.366556,47.461751,1599.6],[-121.366582,47.461581,1599.2],[-121.366582,47.461581,1600.0],[-121.366582,47.461581,1600.0],[-121.366582,47.461581,1600.4],[-121.366582,47.461581,1600.8],[-121.366582,47.461581,1600.8],[-121.366582,47.461581,1600.6],[-121.366582,47.461581,1600.4],[-121.366607,47.461434,1601.8]]}},{"type":"Feature","properties":{"date":"2026-07-17","source_file":"3.gpx","dist_m":11872,"vert_up_m":102,"vert_down_m":812,"points":122},"geometry":{"type":"LineString","coordinates":[[-121.36656,47.461049,1602.2],[-121.366885,47.460723,1594.4],[-121.367052,47.460736,1596.8],[-121.367238,47.460741,1600.0],[-121.367659,47.460872,1598.4],[-121.368059,47.461128,1604.6],[-121.368042,47.46126,1608.0],[-121.368219,47.461234,1614.6],[-121.368508,47.460918,1624.2],[-121.368569,47.460641,1633.0],[-121.368844,47.460464,1638.8],[-121.368866,47.460039,1644.6],[-121.369125,47.459585,1652.2],[-121.36884,47.459037,1658.2],[-121.368726,47.458329,1659.8],[-121.368302,47.457945,1659.4],[-121.368549,47.458199,1659.0],[-121.369329,47.457883,1655.8],[-121.369841,47.457421,1648.6],[-121.370615,47.457155,1644.0],[-121.371208,47.456764,1646.6],[-121.371372,47.45664,1645.4],[-121.371697,47.456571,1646.2],[-121.372438,47.456279,1646.0],[-121.373358,47.45586,1649.0],[-121.374189,47.455366,1648.0],[-121.375032,47.454904,1648.8],[-121.375991,47.454753,1648.8],[-121.376661,47.454663,1651.6],[-121.377292,47.454131,1653.2],[-121.37781,47.453502,1654.8],[-121.378109,47.452914,1658.4],[-121.378411,47.452178,1659.4],[-121.378914,47.451417,1659.6],[-121.379302,47.450796,1650.4],[-121.379729,47.45009,1643.0],[-121.380279,47.449626,1638.6],[-121.381018,47.449132,1640.6],[-121.381071,47.448565,1648.0],[-121.381413,47.448117,1654.0],[-121.382395,47.447842,1653.4],[-121.3829,47.447275,1659.4],[-121.383677,47.446861,1661.4],[-121.384645,47.446742,1665.4],[-121.38548,47.446552,1667.4],[-121.385787,47.445983,1657.4],[-121.386511,47.445414,1648.4],[-121.38701,47.444833,1634.6],[-121.386892,47.44411,1625.0],[-121.387065,47.443662,1615.0],[-121.387386,47.444272,1604.4],[-121.387701,47.444827,1595.8],[-121.387701,47.444379,1587.6],[-121.387714,47.443699,1581.0],[-121.387722,47.44306,1571.2],[-121.387639,47.442412,1563.0],[-121.387507,47.442104,1557.2],[-121.38711,47.441488,1550.4],[-121.386744,47.440786,1540.2],[-121.386505,47.440066,1531.4],[-121.386114,47.439388,1523.2],[-121.385765,47.438744,1514.8],[-121.385447,47.438053,1507.0],[-121.385074,47.437303,1497.6],[-121.384857,47.436545,1490.6],[-121.385184,47.435625,1483.0],[-121.386084,47.434639,1484.4],[-121.38789,47.433897,1478.6],[-121.389621,47.434321,1469.6],[-121.390638,47.43417,1452.8],[-121.39198,47.433844,1442.0],[-121.393831,47.433398,1431.4],[-121.395784,47.432997,1411.6],[-121.397532,47.43239,1396.2],[-121.398726,47.43284,1383.6],[-121.397378,47.433383,1366.2],[-121.396774,47.434483,1347.4],[-121.394986,47.435117,1330.2],[-121.393811,47.436273,1314.0],[-121.393991,47.43685,1305.8],[-121.393841,47.437454,1299.2],[-121.394286,47.438727,1284.2],[-121.394522,47.440105,1267.2],[-121.393906,47.441879,1247.8],[-121.39345,47.443412,1230.8],[-121.393309,47.443801,1220.8],[-121.394337,47.44303,1208.6],[-121.395304,47.441758,1192.6],[-121.396581,47.440332,1174.6],[-121.397244,47.439617,1162.2],[-121.397834,47.438741,1155.0],[-121.398333,47.438155,1148.0],[-121.398665,47.437496,1152.0],[-121.398899,47.436779,1153.0],[-121.399253,47.436171,1155.4],[-121.399532,47.435873,1161.0],[-121.400118,47.435305,1169.2],[-121.400923,47.434925,1175.6],[-121.401459,47.43435,1181.8],[-121.402162,47.433852,1184.8],[-121.403076,47.433446,1177.4],[-121.403803,47.433106,1170.4],[-121.404551,47.432685,1163.8],[-121.405516,47.431485,1148.4],[-121.405586,47.429821,1134.2],[-121.406384,47.430875,1118.6],[-121.406521,47.432572,1103.6],[-121.407058,47.432316,1088.4],[-121.40726,47.431443,1078.0],[-121.407421,47.430425,1065.8],[-121.406948,47.429026,1047.8],[-121.406322,47.427836,1034.6],[-121.406028,47.426928,1023.8],[-121.405344,47.425552,1008.0],[-121.405075,47.424067,996.4],[-121.405965,47.424406,976.6],[-121.406994,47.425463,966.4],[-121.40796,47.426127,955.2],[-121.409186,47.426907,945.6],[-121.410551,47.427007,935.8],[-121.411644,47.427263,930.8],[-121.412807,47.427298,925.4]]}}]}